{"type":"FeatureCollection", "features": [
{"type":"Feature","geometry":{"type":"MultiPolygon","coordinates":[[[[89.545,21.85],[89.531,21.823],[89.55,21.793],[89.538,21.762],[89.555,21.725],[89.605,21.728],[89.587,21.764],[89.604,21.801],[89.545,21.85]]],[[[89.615,21.947],[89.573,21.935],[89.549,21.876],[89.556,21.852],[89.608,21.811],[89.61,21.765],[89.659,21.753],[89.699,21.773],[89.681,21.804],[89.626,21.864],[89.646,21.91],[89.615,21.947]]],[[[89.714,21.977],[89.658,21.887],[89.666,21.849],[89.708,21.834],[89.741,21.838],[89.741,21.866],[89.711,21.908],[89.727,21.929],[89.714,21.977]]],[[[89.574,21.942],[89.562,21.975],[89.586,21.986],[89.603,22.003],[89.608,22.016],[89.601,22.025],[89.568,22.038],[89.548,21.962],[89.574,21.942]]],[[[89.85,21.873],[89.876,21.91],[89.861,21.966],[89.859,22.015],[89.805,21.989],[89.836,21.969],[89.845,21.96],[89.843,21.952],[89.812,21.916],[89.842,21.9],[89.848,21.889],[89.85,21.873]]],[[[89.817,22.056],[89.776,22.089],[89.742,22.052],[89.752,21.997],[89.729,21.898],[89.77,21.839],[89.832,21.848],[89.845,21.892],[89.813,21.913],[89.808,21.933],[89.829,21.95],[89.843,21.956],[89.83,21.971],[89.804,21.988],[89.84,22.021],[89.817,22.056]]],[[[89.637,22.097],[89.612,22.092],[89.6,22.085],[89.597,22.087],[89.597,22.091],[89.569,22.039],[89.605,22.024],[89.609,22.017],[89.609,22.01],[89.604,22.001],[89.588,21.986],[89.587,21.95],[89.626,21.948],[89.645,21.965],[89.645,21.983],[89.625,21.979],[89.624,22.004],[89.64,21.992],[89.655,22.004],[89.66,22.019],[89.652,22.037],[89.666,22.055],[89.637,22.097]]],[[[89.747,22.134],[89.713,22.128],[89.711,22.074],[89.686,22.06],[89.705,22.025],[89.708,21.986],[89.747,21.997],[89.739,22.052],[89.774,22.087],[89.755,22.133],[89.747,22.134]]],[[[89.619,22.167],[89.612,22.156],[89.614,22.149],[89.609,22.143],[89.61,22.132],[89.604,22.125],[89.604,22.113],[89.598,22.088],[89.622,22.097],[89.649,22.1],[89.668,22.056],[89.662,22.019],[89.655,22.002],[89.645,21.993],[89.648,21.969],[89.628,21.945],[89.657,21.903],[89.685,21.95],[89.679,22.041],[89.667,22.088],[89.68,22.132],[89.619,22.167]]],[[[89.889,22.158],[89.888,22.165],[89.887,22.156],[89.891,22.15],[89.889,22.158]]],[[[89.62,22.278],[89.615,22.279],[89.614,22.281],[89.624,22.293],[89.613,22.297],[89.594,22.276],[89.599,22.252],[89.583,22.218],[89.559,22.19],[89.592,22.15],[89.604,22.128],[89.607,22.142],[89.613,22.149],[89.61,22.159],[89.613,22.168],[89.605,22.178],[89.618,22.198],[89.604,22.21],[89.6,22.226],[89.62,22.257],[89.617,22.269],[89.62,22.278]]],[[[89.801,22.941],[89.78,22.983],[89.749,22.964],[89.699,22.865],[89.711,22.825],[89.676,22.813],[89.647,22.763],[89.611,22.774],[89.6,22.728],[89.549,22.661],[89.532,22.609],[89.57,22.55],[89.596,22.447],[89.619,22.413],[89.629,22.366],[89.637,22.343],[89.615,22.3],[89.626,22.294],[89.615,22.28],[89.625,22.276],[89.618,22.268],[89.621,22.258],[89.615,22.241],[89.622,22.216],[89.62,22.198],[89.607,22.179],[89.642,22.162],[89.682,22.133],[89.669,22.088],[89.704,22.072],[89.709,22.13],[89.69,22.179],[89.687,22.198],[89.698,22.213],[89.715,22.192],[89.694,22.183],[89.713,22.131],[89.737,22.134],[89.744,22.138],[89.758,22.135],[89.775,22.092],[89.801,22.072],[89.845,22.064],[89.877,22.097],[89.886,22.177],[89.865,22.226],[89.858,22.269],[89.902,22.373],[89.872,22.41],[89.876,22.428],[89.943,22.457],[89.931,22.478],[89.895,22.476],[89.892,22.507],[89.929,22.523],[89.954,22.554],[89.962,22.593],[89.92,22.607],[89.936,22.677],[89.902,22.695],[89.905,22.726],[89.931,22.752],[89.904,22.773],[89.946,22.832],[89.944,22.856],[89.919,22.881],[89.865,22.903],[89.801,22.941]]]]},"properties":{"n":"Bagerhat","d":"","v":"Khulna","lat":22.5301,"lng":89.7342}},
{"type":"Feature","geometry":{"type":"Polygon","coordinates":[[[92.614,21.852],[92.586,21.883],[92.524,22.025],[92.499,22.114],[92.483,22.22],[92.462,22.256],[92.373,22.336],[92.281,22.356],[92.225,22.331],[92.146,22.348],[92.155,22.323],[92.137,22.286],[92.138,22.234],[92.164,22.182],[92.156,22.165],[92.173,22.113],[92.145,22.088],[92.176,22.064],[92.166,22.043],[92.196,22.019],[92.213,21.972],[92.158,21.91],[92.13,21.902],[92.088,21.926],[92.06,21.908],[92.08,21.889],[92.09,21.84],[92.077,21.817],[92.161,21.769],[92.158,21.735],[92.123,21.739],[92.092,21.689],[92.112,21.634],[92.168,21.605],[92.185,21.569],[92.159,21.541],[92.169,21.514],[92.201,21.514],[92.24,21.473],[92.236,21.398],[92.202,21.391],[92.188,21.426],[92.126,21.401],[92.154,21.323],[92.19,21.272],[92.166,21.221],[92.176,21.184],[92.218,21.232],[92.22,21.258],[92.198,21.32],[92.211,21.34],[92.259,21.362],[92.269,21.428],[92.329,21.419],[92.343,21.467],[92.381,21.48],[92.428,21.424],[92.439,21.365],[92.499,21.361],[92.509,21.377],[92.561,21.38],[92.596,21.244],[92.629,21.269],[92.68,21.286],[92.651,21.359],[92.624,21.475],[92.601,21.703],[92.612,21.781],[92.614,21.852]]]},"properties":{"n":"Bandarban","d":"","v":"Chattogram","lat":21.8141,"lng":92.3969}},
{"type":"Feature","geometry":{"type":"MultiPolygon","coordinates":[[[[89.891,22.15],[89.891,22.158],[89.889,22.158],[89.891,22.15]]],[[[90.23,22.453],[90.19,22.48],[90.175,22.431],[90.141,22.404],[90.093,22.345],[90.051,22.337],[90.053,22.315],[90.024,22.293],[90.019,22.231],[89.975,22.204],[89.935,22.166],[89.907,22.159],[89.91,22.108],[89.901,22.072],[89.917,22.023],[89.936,21.999],[89.938,21.959],[89.974,21.949],[89.988,21.966],[89.972,22.03],[90.023,22.081],[90.033,22.061],[89.987,22.035],[89.996,22],[90.018,21.983],[90.071,21.97],[90.029,21.945],[90.024,21.884],[90.046,21.865],[90.09,21.874],[90.108,21.896],[90.11,21.898],[90.115,21.926],[90.133,21.929],[90.141,21.936],[90.135,21.96],[90.147,21.975],[90.153,21.983],[90.161,21.988],[90.191,21.985],[90.178,22.001],[90.185,22.012],[90.21,22.031],[90.187,22.066],[90.219,22.064],[90.223,22.037],[90.274,22.03],[90.291,22.071],[90.318,22.083],[90.343,22.129],[90.336,22.165],[90.363,22.215],[90.313,22.254],[90.289,22.243],[90.246,22.262],[90.225,22.217],[90.159,22.249],[90.146,22.312],[90.178,22.339],[90.195,22.414],[90.23,22.453]]]]},"properties":{"n":"Barguna","d":"","v":"Barishal","lat":22.1772,"lng":90.1287}},
{"type":"Feature","geometry":{"type":"MultiPolygon","coordinates":[[[[90.554,22.593],[90.542,22.605],[90.547,22.593],[90.554,22.593]]],[[[90.538,22.59],[90.527,22.615],[90.526,22.641],[90.52,22.636],[90.523,22.578],[90.535,22.584],[90.538,22.59]]],[[[90.56,22.699],[90.519,22.694],[90.526,22.643],[90.525,22.684],[90.56,22.699]]],[[[90.564,22.706],[90.572,22.721],[90.56,22.769],[90.543,22.74],[90.564,22.706]]],[[[90.525,22.721],[90.529,22.786],[90.485,22.754],[90.525,22.721]]],[[[90.651,22.848],[90.621,22.871],[90.533,22.889],[90.491,22.849],[90.494,22.82],[90.541,22.794],[90.602,22.814],[90.644,22.837],[90.651,22.848]]],[[[90.677,22.931],[90.666,22.944],[90.687,22.918],[90.677,22.931]]],[[[90.476,23.008],[90.483,22.975],[90.534,22.93],[90.54,22.897],[90.588,22.921],[90.587,22.945],[90.515,23.032],[90.49,23.023],[90.476,23.008]]],[[[90.23,22.453],[90.33,22.469],[90.363,22.504],[90.41,22.481],[90.437,22.499],[90.457,22.536],[90.512,22.534],[90.539,22.563],[90.511,22.581],[90.504,22.708],[90.476,22.752],[90.497,22.78],[90.471,22.807],[90.475,22.865],[90.529,22.899],[90.531,22.92],[90.465,22.981],[90.417,23.007],[90.421,23.04],[90.349,23.057],[90.316,23.053],[90.329,23.007],[90.32,22.981],[90.266,22.97],[90.23,22.979],[90.237,23.045],[90.165,23.068],[90.135,23.05],[90.127,23.006],[90.095,23.007],[90.057,22.933],[90.035,22.934],[90.018,22.871],[90.077,22.785],[90.177,22.753],[90.192,22.787],[90.231,22.751],[90.271,22.732],[90.274,22.69],[90.299,22.686],[90.35,22.652],[90.38,22.61],[90.363,22.581],[90.311,22.578],[90.285,22.551],[90.19,22.48],[90.23,22.453]]]]},"properties":{"n":"Barishal","d":"","v":"Barishal","lat":22.8305,"lng":90.3319}},
{"type":"Feature","geometry":{"type":"MultiPolygon","coordinates":[[[[90.772,21.856],[90.811,21.863],[90.832,21.899],[90.79,21.907],[90.772,21.856]]],[[[90.729,21.858],[90.761,21.911],[90.734,21.925],[90.716,21.899],[90.729,21.858]]],[[[90.682,21.976],[90.633,21.975],[90.622,21.891],[90.647,21.897],[90.68,21.93],[90.682,21.976]]],[[[90.579,22.051],[90.608,22.109],[90.599,22.165],[90.586,22.185],[90.579,22.051]]],[[[90.587,22.189],[90.628,22.203],[90.622,22.243],[90.587,22.189]]],[[[90.991,22.329],[90.972,22.302],[90.949,22.229],[90.902,22.127],[90.933,22.109],[90.989,22.2],[91.001,22.278],[90.991,22.329]]],[[[90.641,22.553],[90.602,22.535],[90.628,22.494],[90.649,22.49],[90.641,22.553]]],[[[90.932,22.497],[90.894,22.56],[90.859,22.58],[90.841,22.564],[90.922,22.494],[90.934,22.494],[90.932,22.497]]],[[[90.554,22.593],[90.557,22.589],[90.561,22.601],[90.542,22.605],[90.554,22.593]]],[[[90.526,22.643],[90.566,22.648],[90.572,22.668],[90.56,22.699],[90.525,22.684],[90.526,22.643]]],[[[90.564,22.706],[90.577,22.659],[90.567,22.645],[90.537,22.632],[90.603,22.569],[90.667,22.547],[90.674,22.467],[90.675,22.368],[90.684,22.332],[90.677,22.275],[90.651,22.216],[90.621,22.18],[90.618,22.097],[90.598,22.033],[90.629,21.994],[90.685,22],[90.741,22.053],[90.781,22.078],[90.811,22.125],[90.841,22.266],[90.836,22.325],[90.861,22.432],[90.78,22.509],[90.762,22.544],[90.759,22.594],[90.701,22.656],[90.663,22.746],[90.657,22.782],[90.624,22.804],[90.582,22.803],[90.56,22.77],[90.56,22.769],[90.572,22.721],[90.564,22.706]]],[[[90.602,22.814],[90.671,22.811],[90.656,22.845],[90.644,22.837],[90.602,22.814]]]]},"properties":{"n":"Bhola","d":"","v":"Barishal","lat":22.3877,"lng":90.761}},
{"type":"Feature","geometry":{"type":"Polygon","coordinates":[[[89.648,25.047],[89.61,25.051],[89.564,25.038],[89.515,25.04],[89.452,25.076],[89.381,25.06],[89.36,25.066],[89.331,25.123],[89.302,25.12],[89.28,25.088],[89.254,25.068],[89.243,25.03],[89.209,25.015],[89.178,24.973],[89.085,24.934],[89.098,24.891],[89.077,24.869],[89.035,24.856],[88.99,24.859],[88.97,24.823],[88.977,24.803],[88.968,24.745],[89.047,24.79],[89.082,24.765],[89.107,24.715],[89.138,24.684],[89.146,24.623],[89.189,24.652],[89.203,24.613],[89.231,24.583],[89.268,24.63],[89.329,24.599],[89.339,24.559],[89.473,24.544],[89.486,24.557],[89.568,24.547],[89.602,24.562],[89.602,24.605],[89.559,24.626],[89.545,24.654],[89.565,24.699],[89.624,24.685],[89.661,24.728],[89.655,24.746],[89.68,24.784],[89.715,24.777],[89.73,24.798],[89.685,24.828],[89.661,24.888],[89.683,24.916],[89.677,24.966],[89.661,24.987],[89.648,25.047]]]},"properties":{"n":"Bogura","d":"","v":"Rajshahi","lat":24.8245,"lng":89.3788}},
{"type":"Feature","geometry":{"type":"Polygon","coordinates":[[[91.303,23.997],[91.312,24.029],[91.269,24.097],[91.277,24.182],[91.328,24.242],[91.302,24.266],[91.27,24.224],[91.195,24.24],[91.174,24.265],[91.134,24.243],[91.085,24.241],[91.09,24.219],[91.04,24.212],[90.985,24.153],[91.043,24.111],[91.042,24.066],[90.986,24.031],[90.966,24.005],[90.973,23.969],[90.953,23.954],[90.909,23.868],[90.858,23.879],[90.829,23.864],[90.762,23.86],[90.766,23.803],[90.735,23.763],[90.725,23.718],[90.741,23.693],[90.799,23.746],[90.871,23.719],[90.885,23.753],[90.967,23.783],[91.035,23.796],[91.044,23.763],[91.11,23.699],[91.134,23.664],[91.156,23.669],[91.193,23.655],[91.194,23.69],[91.153,23.689],[91.168,23.75],[91.21,23.749],[91.254,23.837],[91.23,23.881],[91.241,23.923],[91.272,23.925],[91.271,23.963],[91.303,23.997]]]},"properties":{"n":"Brahmanbaria","d":"","v":"Chattogram","lat":23.9504,"lng":91.0918}},
{"type":"Feature","geometry":{"type":"MultiPolygon","coordinates":[[[[90.602,23.01],[90.59,23.025],[90.596,23.016],[90.598,23.015],[90.602,23.01]]],[[[90.599,23.11],[90.58,23.087],[90.584,23.052],[90.62,23.064],[90.599,23.11]]],[[[90.688,23.492],[90.641,23.504],[90.584,23.481],[90.571,23.437],[90.539,23.379],[90.591,23.336],[90.639,23.334],[90.665,23.275],[90.64,23.232],[90.638,23.168],[90.646,23.064],[90.647,22.984],[90.663,23.008],[90.663,23.051],[90.687,23.063],[90.731,23.042],[90.752,23.068],[90.79,23.085],[90.796,23.118],[90.879,23.174],[90.962,23.131],[90.981,23.133],[91.01,23.142],[91.006,23.175],[91.029,23.222],[90.994,23.292],[90.949,23.343],[90.93,23.377],[90.89,23.408],[90.877,23.454],[90.848,23.471],[90.818,23.463],[90.794,23.434],[90.757,23.416],[90.711,23.435],[90.688,23.492]]]]},"properties":{"n":"Chandpur","d":"","v":"Chattogram","lat":23.2742,"lng":90.7902}},
{"type":"Feature","geometry":{"type":"MultiPolygon","coordinates":[[[[91.399,22.423],[91.353,22.376],[91.391,22.373],[91.409,22.398],[91.399,22.423]]],[[[91.53,22.39],[91.568,22.409],[91.566,22.469],[91.499,22.568],[91.459,22.609],[91.42,22.597],[91.42,22.523],[91.436,22.475],[91.48,22.4],[91.53,22.39]]],[[[91.332,22.566],[91.346,22.609],[91.311,22.603],[91.332,22.566]]],[[[91.318,22.65],[91.38,22.627],[91.41,22.678],[91.36,22.725],[91.338,22.732],[91.343,22.686],[91.318,22.65]]],[[[92.146,22.348],[92.099,22.4],[92.136,22.431],[92.129,22.492],[92.104,22.57],[92.07,22.615],[92.013,22.605],[92.006,22.582],[92.025,22.523],[91.996,22.485],[91.978,22.508],[91.967,22.555],[91.939,22.624],[91.928,22.689],[91.883,22.697],[91.887,22.766],[91.856,22.757],[91.818,22.793],[91.788,22.778],[91.755,22.862],[91.716,22.887],[91.728,22.945],[91.713,22.989],[91.646,22.977],[91.617,22.944],[91.577,22.965],[91.545,22.952],[91.514,22.907],[91.467,22.901],[91.465,22.855],[91.466,22.848],[91.447,22.785],[91.45,22.778],[91.454,22.757],[91.476,22.719],[91.524,22.69],[91.582,22.634],[91.585,22.616],[91.69,22.514],[91.723,22.465],[91.768,22.302],[91.763,22.278],[91.812,22.208],[91.824,22.157],[91.862,22.15],[91.864,22.083],[91.878,22.047],[91.874,22.003],[91.89,21.948],[91.909,21.929],[91.917,21.858],[91.929,21.879],[91.966,21.884],[91.999,21.908],[92.06,21.908],[92.088,21.926],[92.13,21.902],[92.158,21.91],[92.213,21.972],[92.196,22.019],[92.166,22.043],[92.176,22.064],[92.145,22.088],[92.173,22.113],[92.156,22.165],[92.164,22.182],[92.138,22.234],[92.137,22.286],[92.155,22.323],[92.146,22.348]]]]},"properties":{"n":"Chattogram","d":"","v":"Chattogram","lat":22.5775,"lng":91.7992}},
{"type":"Feature","geometry":{"type":"Polygon","coordinates":[[[89.017,23.709],[89.004,23.778],[88.958,23.809],[88.859,23.833],[88.832,23.814],[88.814,23.774],[88.788,23.767],[88.774,23.7],[88.654,23.65],[88.638,23.61],[88.66,23.549],[88.698,23.516],[88.724,23.513],[88.754,23.479],[88.799,23.491],[88.792,23.448],[88.764,23.445],[88.751,23.403],[88.765,23.37],[88.817,23.384],[88.855,23.375],[88.878,23.407],[88.935,23.413],[88.929,23.462],[88.945,23.482],[88.947,23.552],[88.978,23.546],[89.003,23.603],[89.017,23.709]]]},"properties":{"n":"Chuadanga","d":"","v":"Khulna","lat":23.6083,"lng":88.848}},
{"type":"Feature","geometry":{"type":"Polygon","coordinates":[[[90.741,23.693],[90.733,23.667],[90.677,23.68],[90.64,23.675],[90.63,23.621],[90.646,23.586],[90.687,23.557],[90.711,23.516],[90.688,23.492],[90.711,23.435],[90.757,23.416],[90.794,23.434],[90.818,23.463],[90.848,23.471],[90.877,23.454],[90.89,23.408],[90.93,23.377],[90.949,23.343],[90.994,23.292],[91.029,23.222],[91.006,23.175],[91.01,23.142],[90.981,23.133],[90.985,23.117],[91.036,23.114],[91.043,23.09],[91.079,23.072],[91.16,23.084],[91.259,23.055],[91.3,23.048],[91.372,23.069],[91.347,23.102],[91.325,23.169],[91.324,23.238],[91.29,23.319],[91.296,23.341],[91.276,23.415],[91.251,23.454],[91.252,23.481],[91.218,23.5],[91.208,23.543],[91.158,23.622],[91.156,23.669],[91.134,23.664],[91.11,23.699],[91.044,23.763],[91.035,23.796],[90.967,23.783],[90.885,23.753],[90.871,23.719],[90.799,23.746],[90.741,23.693]]]},"properties":{"n":"Cumilla","d":"","v":"Chattogram","lat":23.4613,"lng":91.0549}},
{"type":"Feature","geometry":{"type":"MultiPolygon","coordinates":[[[[91.87,21.923],[91.846,21.899],[91.841,21.859],[91.852,21.828],[91.833,21.76],[91.843,21.722],[91.896,21.884],[91.87,21.923]]],[[[92.06,21.908],[91.999,21.908],[91.966,21.884],[91.929,21.879],[91.917,21.858],[91.909,21.816],[91.886,21.768],[91.857,21.67],[91.892,21.645],[91.869,21.605],[91.863,21.506],[91.917,21.47],[91.938,21.503],[92.002,21.516],[91.957,21.443],[92.017,21.368],[92.048,21.286],[92.046,21.185],[92.059,21.16],[92.16,21.043],[92.188,21.005],[92.224,20.913],[92.274,20.84],[92.312,20.767],[92.342,20.758],[92.32,20.838],[92.299,20.889],[92.272,20.916],[92.251,21.026],[92.265,21.062],[92.207,21.119],[92.199,21.161],[92.176,21.184],[92.166,21.221],[92.19,21.272],[92.154,21.323],[92.126,21.401],[92.188,21.426],[92.202,21.391],[92.236,21.398],[92.24,21.473],[92.201,21.514],[92.169,21.514],[92.159,21.541],[92.185,21.569],[92.168,21.605],[92.112,21.634],[92.092,21.689],[92.123,21.739],[92.158,21.735],[92.161,21.769],[92.077,21.817],[92.09,21.84],[92.08,21.889],[92.06,21.908]]]]},"properties":{"n":"Cox's Bazar","d":"","v":"Chattogram","lat":21.478,"lng":92.097}},
{"type":"Feature","geometry":{"type":"Polygon","coordinates":[[[90.148,24.034],[90.102,24.019],[90.074,24.034],[90.008,24.011],[90.043,24.005],[90.038,23.972],[90.06,23.958],[90.067,23.917],[90.108,23.896],[90.151,23.834],[90.185,23.818],[90.219,23.84],[90.248,23.81],[90.22,23.752],[90.254,23.722],[90.159,23.726],[90.137,23.746],[90.101,23.73],[90.051,23.726],[90.038,23.685],[90.008,23.635],[90.045,23.629],[90.046,23.574],[90.078,23.561],[90.13,23.565],[90.158,23.522],[90.247,23.633],[90.25,23.654],[90.286,23.674],[90.331,23.642],[90.39,23.65],[90.43,23.609],[90.472,23.639],[90.454,23.678],[90.513,23.71],[90.49,23.736],[90.481,23.792],[90.487,23.826],[90.471,23.847],[90.461,23.893],[90.438,23.901],[90.396,23.88],[90.35,23.882],[90.345,23.948],[90.3,23.949],[90.26,23.971],[90.24,24.009],[90.171,24.001],[90.148,24.034]]]},"properties":{"n":"Dhaka","d":"","v":"Dhaka","lat":23.7707,"lng":90.3441}},
{"type":"Feature","geometry":{"type":"Polygon","coordinates":[[[88.627,26.056],[88.589,26.02],[88.546,26.019],[88.538,25.964],[88.48,25.903],[88.486,25.87],[88.404,25.865],[88.386,25.84],[88.392,25.743],[88.436,25.708],[88.427,25.67],[88.454,25.665],[88.444,25.597],[88.5,25.584],[88.5,25.551],[88.533,25.542],[88.548,25.518],[88.622,25.497],[88.663,25.474],[88.71,25.481],[88.759,25.524],[88.808,25.513],[88.83,25.49],[88.826,25.445],[88.839,25.374],[88.876,25.337],[88.906,25.338],[88.939,25.301],[89.009,25.297],[89.008,25.268],[89.029,25.276],[89.106,25.241],[89.159,25.253],[89.205,25.228],[89.281,25.229],[89.287,25.257],[89.258,25.288],[89.281,25.301],[89.238,25.319],[89.238,25.358],[89.205,25.389],[89.165,25.4],[89.149,25.434],[89.116,25.456],[89.079,25.583],[89.044,25.588],[88.998,25.625],[88.991,25.661],[88.939,25.686],[88.941,25.734],[88.898,25.735],[88.828,25.813],[88.828,25.854],[88.802,25.922],[88.76,25.939],[88.735,26.015],[88.67,26.013],[88.627,26.056]]]},"properties":{"n":"Dinajpur","d":"","v":"Rangpur","lat":25.6934,"lng":88.6908}},
{"type":"Feature","geometry":{"type":"Polygon","coordinates":[[[90.008,23.635],[89.938,23.654],[89.898,23.674],[89.865,23.719],[89.795,23.713],[89.789,23.686],[89.73,23.655],[89.727,23.583],[89.655,23.61],[89.63,23.588],[89.563,23.604],[89.542,23.569],[89.497,23.579],[89.5,23.52],[89.572,23.498],[89.608,23.463],[89.616,23.397],[89.603,23.341],[89.618,23.304],[89.642,23.232],[89.67,23.244],[89.688,23.21],[89.731,23.247],[89.779,23.311],[89.824,23.346],[89.875,23.329],[89.897,23.342],[89.95,23.321],[89.973,23.349],[90.024,23.288],[90.034,23.341],[90.068,23.305],[90.102,23.333],[90.088,23.367],[90.111,23.456],[90.162,23.473],[90.182,23.498],[90.158,23.522],[90.13,23.565],[90.078,23.561],[90.046,23.574],[90.045,23.629],[90.008,23.635]]]},"properties":{"n":"Faridpur","d":"","v":"Dhaka","lat":23.4882,"lng":89.8518}},
{"type":"Feature","geometry":{"type":"MultiPolygon","coordinates":[[[[91.466,22.848],[91.431,22.828],[91.422,22.805],[91.447,22.785],[91.466,22.848]]],[[[91.577,22.965],[91.542,23],[91.55,23.039],[91.511,23.104],[91.491,23.158],[91.503,23.192],[91.454,23.258],[91.417,23.265],[91.386,23.228],[91.385,23.156],[91.417,23.083],[91.396,23.056],[91.372,23.069],[91.3,23.048],[91.259,23.055],[91.265,23.022],[91.256,22.964],[91.269,22.892],[91.331,22.91],[91.337,22.845],[91.336,22.821],[91.335,22.819],[91.345,22.789],[91.377,22.785],[91.407,22.765],[91.424,22.757],[91.407,22.813],[91.428,22.839],[91.465,22.855],[91.467,22.901],[91.514,22.907],[91.545,22.952],[91.577,22.965]]]]},"properties":{"n":"Feni","d":"","v":"Chattogram","lat":22.9814,"lng":91.4178}},
{"type":"Feature","geometry":{"type":"Polygon","coordinates":[[[89.648,25.047],[89.653,25.142],[89.701,25.232],[89.749,25.236],[89.745,25.299],[89.722,25.356],[89.744,25.374],[89.74,25.398],[89.699,25.394],[89.706,25.46],[89.676,25.493],[89.667,25.536],[89.616,25.569],[89.587,25.557],[89.566,25.585],[89.536,25.59],[89.549,25.626],[89.536,25.649],[89.488,25.6],[89.446,25.586],[89.416,25.589],[89.406,25.542],[89.44,25.53],[89.442,25.488],[89.399,25.465],[89.375,25.407],[89.345,25.37],[89.347,25.336],[89.326,25.3],[89.281,25.301],[89.258,25.288],[89.287,25.257],[89.281,25.229],[89.205,25.228],[89.198,25.171],[89.231,25.144],[89.252,25.097],[89.28,25.088],[89.302,25.12],[89.331,25.123],[89.36,25.066],[89.381,25.06],[89.452,25.076],[89.515,25.04],[89.564,25.038],[89.61,25.051],[89.648,25.047]]]},"properties":{"n":"Gaibandha","d":"","v":"Rangpur","lat":25.2987,"lng":89.5125}},
{"type":"Feature","geometry":{"type":"Polygon","coordinates":[[[90.471,23.847],[90.502,23.858],[90.517,23.888],[90.571,23.895],[90.616,23.936],[90.618,23.968],[90.657,24.027],[90.635,24.071],[90.639,24.098],[90.677,24.119],[90.686,24.19],[90.672,24.205],[90.683,24.244],[90.649,24.258],[90.622,24.269],[90.58,24.247],[90.458,24.339],[90.402,24.283],[90.362,24.281],[90.325,24.299],[90.29,24.278],[90.29,24.226],[90.266,24.215],[90.226,24.163],[90.208,24.095],[90.172,24.096],[90.148,24.034],[90.171,24.001],[90.24,24.009],[90.26,23.971],[90.3,23.949],[90.345,23.948],[90.35,23.882],[90.396,23.88],[90.438,23.901],[90.461,23.893],[90.471,23.847]]]},"properties":{"n":"Gazipur","d":"","v":"Dhaka","lat":24.0984,"lng":90.4449}},
{"type":"Feature","geometry":{"type":"Polygon","coordinates":[[[89.944,22.856],[90.018,22.871],[90.035,22.934],[90.057,22.933],[90.095,23.007],[90.127,23.006],[90.135,23.05],[90.116,23.043],[90.109,23.117],[90.08,23.113],[89.993,23.132],[89.984,23.11],[89.936,23.118],[89.963,23.161],[89.985,23.218],[90.023,23.24],[90.024,23.288],[89.973,23.349],[89.95,23.321],[89.897,23.342],[89.875,23.329],[89.824,23.346],[89.779,23.311],[89.731,23.247],[89.688,23.21],[89.697,23.162],[89.73,23.158],[89.739,23.13],[89.691,23.099],[89.73,23.079],[89.757,23.015],[89.797,22.996],[89.801,22.941],[89.865,22.903],[89.919,22.881],[89.944,22.856]]]},"properties":{"n":"Gopalganj","d":"","v":"Dhaka","lat":23.0187,"lng":89.9}},
{"type":"Feature","geometry":{"type":"Polygon","coordinates":[[[91.303,23.997],[91.363,23.983],[91.397,24.05],[91.375,24.108],[91.483,24.098],[91.544,24.076],[91.582,24.074],[91.638,24.103],[91.645,24.174],[91.625,24.211],[91.614,24.286],[91.632,24.311],[91.63,24.345],[91.603,24.363],[91.62,24.416],[91.613,24.502],[91.654,24.546],[91.629,24.576],[91.668,24.607],[91.661,24.626],[91.649,24.675],[91.545,24.655],[91.484,24.671],[91.438,24.662],[91.372,24.691],[91.313,24.647],[91.29,24.595],[91.234,24.569],[91.193,24.481],[91.237,24.461],[91.243,24.38],[91.213,24.359],[91.228,24.315],[91.177,24.321],[91.174,24.265],[91.195,24.24],[91.27,24.224],[91.302,24.266],[91.328,24.242],[91.277,24.182],[91.269,24.097],[91.312,24.029],[91.303,23.997]]]},"properties":{"n":"Habiganj","d":"","v":"Sylhet","lat":24.3842,"lng":91.4366}},
{"type":"Feature","geometry":{"type":"Polygon","coordinates":[[[89.715,24.777],[89.78,24.765],[89.772,24.724],[89.799,24.68],[89.783,24.669],[89.785,24.626],[89.765,24.614],[89.789,24.572],[89.809,24.568],[89.878,24.679],[89.878,24.732],[89.935,24.755],[89.972,24.724],[90.076,24.788],[90.135,24.783],[90.196,24.86],[90.195,24.885],[90.109,24.908],[90.067,24.906],[89.956,24.924],[89.938,24.96],[89.88,25.02],[89.916,25.052],[89.915,25.089],[89.895,25.116],[89.904,25.167],[89.887,25.182],[89.906,25.266],[89.948,25.294],[89.909,25.308],[89.877,25.285],[89.832,25.296],[89.84,25.319],[89.821,25.356],[89.826,25.415],[89.786,25.428],[89.78,25.388],[89.744,25.374],[89.722,25.356],[89.745,25.299],[89.749,25.236],[89.701,25.232],[89.653,25.142],[89.648,25.047],[89.661,24.987],[89.677,24.966],[89.683,24.916],[89.661,24.888],[89.685,24.828],[89.73,24.798],[89.715,24.777]]]},"properties":{"n":"Jamalpur","d":"","v":"Mymensingh","lat":24.9485,"lng":89.7903}},
{"type":"Feature","geometry":{"type":"Polygon","coordinates":[[[89.258,23.371],[89.243,23.329],[89.13,23.274],[89.065,23.313],[89.052,23.357],[88.978,23.341],[88.967,23.298],[88.934,23.287],[88.89,23.231],[88.942,23.206],[88.939,23.177],[88.9,23.112],[88.868,23.101],[88.861,23.077],[88.884,23.041],[88.855,22.959],[88.894,22.952],[88.909,22.919],[88.976,22.922],[88.992,22.945],[89.034,22.93],[89.096,22.923],[89.137,22.827],[89.201,22.812],[89.247,22.836],[89.267,22.852],[89.353,22.835],[89.356,22.885],[89.341,22.92],[89.385,22.932],[89.427,22.962],[89.43,22.995],[89.46,23.008],[89.483,22.953],[89.514,22.928],[89.563,22.971],[89.561,22.984],[89.49,23.038],[89.467,23.033],[89.417,23.083],[89.385,23.086],[89.378,23.136],[89.419,23.14],[89.418,23.23],[89.426,23.259],[89.363,23.296],[89.326,23.298],[89.258,23.371]]]},"properties":{"n":"Jashore","d":"","v":"Khulna","lat":23.0943,"lng":89.1769}},
{"type":"Feature","geometry":{"type":"Polygon","coordinates":[[[90.19,22.48],[90.285,22.551],[90.311,22.578],[90.363,22.581],[90.38,22.61],[90.35,22.652],[90.299,22.686],[90.274,22.69],[90.271,22.732],[90.231,22.751],[90.192,22.787],[90.177,22.753],[90.138,22.674],[90.096,22.64],[90.102,22.596],[90.056,22.58],[90.063,22.505],[90.134,22.487],[90.101,22.445],[90.036,22.449],[90.039,22.402],[90.019,22.372],[90.051,22.337],[90.093,22.345],[90.141,22.404],[90.175,22.431],[90.19,22.48]]]},"properties":{"n":"Jhalakathi","d":"","v":"Barishal","lat":22.5815,"lng":90.1883}},
{"type":"Feature","geometry":{"type":"Polygon","coordinates":[[[88.765,23.37],[88.696,23.302],[88.719,23.255],[88.774,23.225],[88.804,23.219],[88.814,23.252],[88.89,23.231],[88.934,23.287],[88.967,23.298],[88.978,23.341],[89.052,23.357],[89.065,23.313],[89.13,23.274],[89.243,23.329],[89.258,23.371],[89.255,23.413],[89.303,23.455],[89.303,23.527],[89.341,23.589],[89.366,23.664],[89.322,23.703],[89.298,23.736],[89.251,23.764],[89.184,23.749],[89.158,23.722],[89.097,23.728],[89.083,23.758],[89.037,23.692],[89.017,23.709],[89.003,23.603],[88.978,23.546],[88.947,23.552],[88.945,23.482],[88.929,23.462],[88.935,23.413],[88.878,23.407],[88.855,23.375],[88.817,23.384],[88.765,23.37]]]},"properties":{"n":"Jhenaidah","d":"","v":"Khulna","lat":23.494,"lng":89.1046}},
{"type":"Feature","geometry":{"type":"Polygon","coordinates":[[[89.28,25.088],[89.252,25.097],[89.231,25.144],[89.198,25.171],[89.205,25.228],[89.159,25.253],[89.106,25.241],[89.029,25.276],[89.008,25.268],[88.951,25.244],[88.923,25.165],[88.921,25.132],[88.954,25.056],[89.017,25.047],[89.002,24.978],[89.004,24.901],[88.99,24.859],[89.035,24.856],[89.077,24.869],[89.098,24.891],[89.085,24.934],[89.178,24.973],[89.209,25.015],[89.243,25.03],[89.254,25.068],[89.28,25.088]]]},"properties":{"n":"Joypurhat","d":"","v":"Rajshahi","lat":25.1045,"lng":89.0992}},
{"type":"Feature","geometry":{"type":"Polygon","coordinates":[[[91.928,22.689],[91.963,22.691],[91.967,22.718],[92.001,22.727],[91.976,22.786],[91.981,22.834],[92.001,22.842],[92.019,22.884],[92.04,22.884],[92.082,22.941],[92.118,22.959],[92.072,23.073],[92.181,23.102],[92.155,23.151],[92.13,23.224],[92.125,23.319],[92.048,23.366],[92.137,23.43],[92.116,23.556],[92.074,23.648],[92.04,23.649],[92,23.671],[91.978,23.733],[91.957,23.734],[91.94,23.675],[91.973,23.493],[91.938,23.464],[91.943,23.435],[91.9,23.441],[91.861,23.405],[91.805,23.333],[91.762,23.303],[91.791,23.227],[91.818,23.073],[91.774,23.07],[91.774,23.039],[91.713,22.989],[91.728,22.945],[91.716,22.887],[91.755,22.862],[91.788,22.778],[91.818,22.793],[91.856,22.757],[91.887,22.766],[91.883,22.697],[91.928,22.689]]]},"properties":{"n":"Khagrachhari","d":"","v":"Chattogram","lat":23.172,"lng":91.9608}},
{"type":"Feature","geometry":{"type":"MultiPolygon","coordinates":[[[[89.384,21.873],[89.348,21.806],[89.36,21.752],[89.383,21.727],[89.414,21.726],[89.473,21.79],[89.448,21.848],[89.401,21.85],[89.384,21.873]]],[[[89.336,21.79],[89.357,21.88],[89.309,21.841],[89.336,21.79]]],[[[89.404,21.922],[89.381,21.922],[89.382,21.879],[89.404,21.85],[89.45,21.874],[89.42,21.891],[89.403,21.914],[89.404,21.922]]],[[[89.415,21.986],[89.401,21.981],[89.397,21.945],[89.409,21.927],[89.403,21.916],[89.424,21.89],[89.455,21.902],[89.439,21.941],[89.418,21.965],[89.415,21.986]]],[[[89.489,21.998],[89.471,22.046],[89.43,22.043],[89.439,21.99],[89.422,21.97],[89.456,21.944],[89.459,21.908],[89.499,21.91],[89.508,21.957],[89.489,21.998]]],[[[89.39,22.056],[89.354,22.032],[89.363,21.96],[89.386,21.923],[89.399,21.982],[89.412,21.989],[89.433,21.989],[89.427,22.027],[89.39,22.056]]],[[[89.443,22.16],[89.417,22.159],[89.404,22.124],[89.383,22.116],[89.389,22.077],[89.426,22.046],[89.449,22.075],[89.485,22.09],[89.443,22.16]]],[[[89.333,22.124],[89.327,22.141],[89.337,22.152],[89.332,22.182],[89.289,22.151],[89.281,22.115],[89.318,22.108],[89.345,22.064],[89.29,22.062],[89.325,21.993],[89.382,22.084],[89.333,22.124]]],[[[89.457,22.224],[89.458,22.247],[89.404,22.214],[89.403,22.201],[89.416,22.194],[89.418,22.183],[89.433,22.166],[89.472,22.168],[89.457,22.224]]],[[[89.457,22.252],[89.479,22.273],[89.449,22.323],[89.43,22.29],[89.42,22.236],[89.457,22.252]]],[[[89.749,22.964],[89.689,22.977],[89.606,22.957],[89.561,22.984],[89.563,22.971],[89.514,22.928],[89.483,22.953],[89.46,23.008],[89.43,22.995],[89.427,22.962],[89.385,22.932],[89.341,22.92],[89.356,22.885],[89.353,22.835],[89.267,22.852],[89.247,22.836],[89.271,22.791],[89.299,22.788],[89.332,22.729],[89.301,22.683],[89.26,22.694],[89.243,22.61],[89.265,22.595],[89.234,22.552],[89.258,22.467],[89.241,22.428],[89.273,22.346],[89.251,22.339],[89.311,22.232],[89.306,22.214],[89.332,22.212],[89.341,22.153],[89.33,22.136],[89.38,22.116],[89.405,22.13],[89.406,22.152],[89.429,22.167],[89.414,22.184],[89.411,22.195],[89.39,22.2],[89.402,22.209],[89.392,22.22],[89.399,22.226],[89.41,22.22],[89.419,22.227],[89.409,22.248],[89.427,22.282],[89.407,22.311],[89.424,22.332],[89.426,22.368],[89.47,22.313],[89.495,22.266],[89.476,22.232],[89.534,22.063],[89.51,22.017],[89.542,22.01],[89.584,22.125],[89.545,22.186],[89.551,22.217],[89.587,22.243],[89.586,22.289],[89.604,22.306],[89.629,22.366],[89.619,22.413],[89.596,22.447],[89.57,22.55],[89.532,22.609],[89.549,22.661],[89.6,22.728],[89.611,22.774],[89.647,22.763],[89.676,22.813],[89.711,22.825],[89.699,22.865],[89.749,22.964]]]]},"properties":{"n":"Khulna","d":"","v":"Khulna","lat":22.5746,"lng":89.4131}},
{"type":"Feature","geometry":{"type":"Polygon","coordinates":[[[91.174,24.265],[91.177,24.321],[91.228,24.315],[91.213,24.359],[91.243,24.38],[91.237,24.461],[91.193,24.481],[91.234,24.569],[91.206,24.577],[91.195,24.631],[91.175,24.643],[91.127,24.629],[91.093,24.602],[91.073,24.619],[90.977,24.6],[90.857,24.599],[90.82,24.588],[90.794,24.508],[90.759,24.511],[90.73,24.477],[90.688,24.509],[90.68,24.468],[90.632,24.479],[90.616,24.495],[90.574,24.482],[90.587,24.448],[90.634,24.435],[90.646,24.416],[90.619,24.342],[90.641,24.307],[90.649,24.258],[90.683,24.244],[90.782,24.243],[90.786,24.193],[90.825,24.157],[90.871,24.132],[90.913,24.075],[90.944,24.084],[90.986,24.031],[91.042,24.066],[91.043,24.111],[90.985,24.153],[91.04,24.212],[91.09,24.219],[91.085,24.241],[91.134,24.243],[91.174,24.265]]]},"properties":{"n":"Kishoreganj","d":"","v":"Dhaka","lat":24.3762,"lng":90.9423}},
{"type":"Feature","geometry":{"type":"Polygon","coordinates":[[[89.744,25.374],[89.78,25.388],[89.786,25.428],[89.826,25.415],[89.852,25.466],[89.882,25.617],[89.871,25.663],[89.835,25.716],[89.841,25.759],[89.826,25.811],[89.833,25.871],[89.879,25.924],[89.872,25.974],[89.822,26.01],[89.783,26.106],[89.744,26.159],[89.697,26.159],[89.673,26.206],[89.613,26.178],[89.602,26.127],[89.627,26.114],[89.637,26.075],[89.579,26.026],[89.578,25.969],[89.541,25.97],[89.521,26.009],[89.481,25.998],[89.472,25.976],[89.512,25.944],[89.517,25.918],[89.554,25.877],[89.533,25.868],[89.533,25.817],[89.506,25.805],[89.463,25.823],[89.459,25.786],[89.5,25.746],[89.519,25.678],[89.536,25.649],[89.549,25.626],[89.536,25.59],[89.566,25.585],[89.587,25.557],[89.616,25.569],[89.667,25.536],[89.676,25.493],[89.706,25.46],[89.699,25.394],[89.74,25.398],[89.744,25.374]]]},"properties":{"n":"Kurigram","d":"","v":"Rangpur","lat":25.7869,"lng":89.6779}},
{"type":"Feature","geometry":{"type":"Polygon","coordinates":[[[89.017,23.709],[89.037,23.692],[89.083,23.758],[89.097,23.728],[89.158,23.722],[89.184,23.749],[89.251,23.764],[89.298,23.736],[89.33,23.779],[89.336,23.829],[89.355,23.886],[89.312,23.874],[89.262,23.91],[89.216,23.988],[89.148,23.951],[89.099,23.96],[89.073,23.978],[89.048,24.02],[89.026,24.092],[89.007,24.118],[88.94,24.132],[88.885,24.102],[88.861,24.112],[88.787,24.133],[88.733,24.194],[88.746,24.147],[88.709,24.12],[88.728,24.101],[88.727,24.053],[88.742,24.033],[88.729,23.997],[88.734,23.963],[88.791,23.975],[88.828,23.939],[88.873,23.909],[88.859,23.833],[88.958,23.809],[89.004,23.778],[89.017,23.709]]]},"properties":{"n":"Kushtia","d":"","v":"Khulna","lat":23.9034,"lng":89.0082}},
{"type":"Feature","geometry":{"type":"MultiPolygon","coordinates":[[[[90.932,22.497],[90.976,22.522],[90.951,22.547],[90.894,22.56],[90.932,22.497]]],[[[90.644,22.837],[90.656,22.845],[90.651,22.848],[90.644,22.837]]],[[[90.647,22.984],[90.669,22.965],[90.721,22.88],[90.76,22.871],[90.782,22.835],[90.779,22.785],[90.824,22.701],[90.851,22.67],[90.891,22.66],[90.945,22.615],[91.017,22.568],[91.014,22.599],[90.988,22.639],[91.017,22.679],[91.01,22.705],[90.981,22.715],[90.981,22.754],[90.95,22.778],[90.927,22.814],[90.94,22.856],[90.986,22.879],[90.981,22.916],[91.001,22.956],[90.887,23.026],[90.915,23.045],[90.906,23.072],[90.94,23.084],[90.962,23.131],[90.879,23.174],[90.796,23.118],[90.79,23.085],[90.752,23.068],[90.731,23.042],[90.687,23.063],[90.663,23.051],[90.663,23.008],[90.647,22.984]]]]},"properties":{"n":"Lakshmipur","d":"","v":"Chattogram","lat":22.9005,"lng":90.8557}},
{"type":"Feature","geometry":{"type":"Polygon","coordinates":[[[89.481,25.998],[89.427,26.013],[89.346,26.012],[89.328,26.033],[89.254,26.064],[89.263,26.094],[89.22,26.127],[89.155,26.139],[89.135,26.187],[89.149,26.206],[89.125,26.264],[89.136,26.32],[89.094,26.326],[89.084,26.398],[89.039,26.4],[88.983,26.447],[88.928,26.433],[88.911,26.368],[88.977,26.347],[88.994,26.32],[89.063,26.26],[89.019,26.242],[89.036,26.22],[89.023,26.193],[89.073,26.171],[89.098,26.146],[89.09,26.06],[89.112,25.994],[89.142,25.964],[89.203,25.939],[89.235,25.905],[89.282,25.896],[89.334,25.838],[89.392,25.796],[89.459,25.786],[89.463,25.823],[89.506,25.805],[89.533,25.817],[89.533,25.868],[89.554,25.877],[89.517,25.918],[89.512,25.944],[89.472,25.976],[89.481,25.998]]]},"properties":{"n":"Lalmonirhat","d":"","v":"Rangpur","lat":25.9256,"lng":89.3752}},
{"type":"Feature","geometry":{"type":"Polygon","coordinates":[[[90.349,23.057],[90.344,23.14],[90.292,23.145],[90.286,23.193],[90.247,23.217],[90.228,23.263],[90.247,23.343],[90.222,23.399],[90.24,23.425],[90.281,23.447],[90.182,23.498],[90.162,23.473],[90.111,23.456],[90.088,23.367],[90.102,23.333],[90.068,23.305],[90.034,23.341],[90.024,23.288],[90.023,23.24],[89.985,23.218],[89.963,23.161],[89.936,23.118],[89.984,23.11],[89.993,23.132],[90.08,23.113],[90.109,23.117],[90.116,23.043],[90.135,23.05],[90.165,23.068],[90.237,23.045],[90.23,22.979],[90.266,22.97],[90.32,22.981],[90.329,23.007],[90.316,23.053],[90.349,23.057]]]},"properties":{"n":"Madaripur","d":"","v":"Dhaka","lat":23.2119,"lng":90.151}},
{"type":"Feature","geometry":{"type":"Polygon","coordinates":[[[89.497,23.579],[89.482,23.62],[89.442,23.639],[89.412,23.682],[89.366,23.664],[89.341,23.589],[89.303,23.527],[89.303,23.455],[89.255,23.413],[89.258,23.371],[89.326,23.298],[89.363,23.296],[89.426,23.259],[89.455,23.257],[89.479,23.299],[89.524,23.278],[89.56,23.32],[89.605,23.321],[89.618,23.304],[89.603,23.341],[89.616,23.397],[89.608,23.463],[89.572,23.498],[89.5,23.52],[89.497,23.579]]]},"properties":{"n":"Magura","d":"","v":"Khulna","lat":23.4255,"lng":89.4074}},
{"type":"Feature","geometry":{"type":"Polygon","coordinates":[[[90.008,24.011],[89.968,24.03],[89.906,23.988],[89.866,23.992],[89.764,23.978],[89.785,24.035],[89.722,24.014],[89.699,23.997],[89.693,23.943],[89.712,23.858],[89.733,23.835],[89.771,23.833],[89.781,23.798],[89.865,23.719],[89.898,23.674],[89.938,23.654],[90.008,23.635],[90.038,23.685],[90.051,23.726],[90.101,23.73],[90.137,23.746],[90.159,23.726],[90.254,23.722],[90.22,23.752],[90.248,23.81],[90.219,23.84],[90.185,23.818],[90.151,23.834],[90.108,23.896],[90.067,23.917],[90.06,23.958],[90.038,23.972],[90.043,24.005],[90.008,24.011]]]},"properties":{"n":"Manikganj","d":"","v":"Dhaka","lat":23.844,"lng":89.9496}},
{"type":"Feature","geometry":{"type":"Polygon","coordinates":[[[91.645,24.174],[91.728,24.143],[91.76,24.146],[91.745,24.247],[91.824,24.21],[91.874,24.175],[91.911,24.168],[91.941,24.268],[91.92,24.338],[91.957,24.357],[91.97,24.385],[92.096,24.373],[92.167,24.427],[92.15,24.495],[92.162,24.528],[92.213,24.504],[92.231,24.531],[92.235,24.598],[92.26,24.687],[92.296,24.737],[92.269,24.83],[92.251,24.836],[92.213,24.813],[92.174,24.773],[92.099,24.757],[92.047,24.697],[92.029,24.652],[91.974,24.639],[91.931,24.658],[91.888,24.647],[91.828,24.654],[91.727,24.593],[91.661,24.626],[91.668,24.607],[91.629,24.576],[91.654,24.546],[91.613,24.502],[91.62,24.416],[91.603,24.363],[91.63,24.345],[91.632,24.311],[91.614,24.286],[91.625,24.211],[91.645,24.174]]]},"properties":{"n":"Moulvibazar","d":"","v":"Sylhet","lat":24.497,"lng":91.8719}},
{"type":"Feature","geometry":{"type":"Polygon","coordinates":[[[88.859,23.833],[88.873,23.909],[88.828,23.939],[88.791,23.975],[88.734,23.963],[88.735,23.915],[88.706,23.916],[88.668,23.87],[88.587,23.872],[88.592,23.798],[88.565,23.713],[88.594,23.617],[88.638,23.61],[88.654,23.65],[88.774,23.7],[88.788,23.767],[88.814,23.774],[88.832,23.814],[88.859,23.833]]]},"properties":{"n":"Meherpur","d":"","v":"Khulna","lat":23.7892,"lng":88.7034}},
{"type":"Feature","geometry":{"type":"Polygon","coordinates":[[[90.688,23.492],[90.711,23.516],[90.687,23.557],[90.646,23.586],[90.63,23.621],[90.573,23.597],[90.559,23.574],[90.431,23.562],[90.43,23.609],[90.39,23.65],[90.331,23.642],[90.286,23.674],[90.25,23.654],[90.247,23.633],[90.158,23.522],[90.182,23.498],[90.281,23.447],[90.36,23.43],[90.422,23.401],[90.432,23.416],[90.499,23.404],[90.539,23.379],[90.571,23.437],[90.584,23.481],[90.641,23.504],[90.688,23.492]]]},"properties":{"n":"Munshiganj","d":"","v":"Dhaka","lat":23.522,"lng":90.3544}},
{"type":"Feature","geometry":{"type":"Polygon","coordinates":[[[90.649,24.258],[90.641,24.307],[90.619,24.342],[90.646,24.416],[90.634,24.435],[90.587,24.448],[90.574,24.482],[90.616,24.495],[90.632,24.479],[90.68,24.468],[90.688,24.509],[90.73,24.477],[90.759,24.511],[90.794,24.508],[90.82,24.588],[90.757,24.61],[90.758,24.637],[90.722,24.649],[90.696,24.7],[90.715,24.753],[90.683,24.803],[90.625,24.795],[90.605,24.814],[90.57,24.813],[90.568,24.885],[90.533,24.896],[90.538,24.937],[90.517,24.973],[90.501,25.032],[90.545,25.015],[90.585,25.027],[90.613,25.054],[90.59,25.082],[90.611,25.13],[90.614,25.174],[90.526,25.174],[90.451,25.152],[90.371,25.163],[90.33,25.194],[90.264,25.196],[90.262,25.098],[90.232,25.042],[90.241,25.008],[90.229,24.967],[90.246,24.925],[90.236,24.886],[90.195,24.885],[90.196,24.86],[90.135,24.783],[90.076,24.788],[90.097,24.754],[90.127,24.738],[90.148,24.65],[90.125,24.596],[90.174,24.518],[90.209,24.509],[90.227,24.483],[90.211,24.462],[90.229,24.42],[90.249,24.415],[90.229,24.348],[90.265,24.289],[90.29,24.278],[90.325,24.299],[90.362,24.281],[90.402,24.283],[90.458,24.339],[90.58,24.247],[90.622,24.269],[90.649,24.258]]]},"properties":{"n":"Mymensingh","d":"","v":"Mymensingh","lat":24.6792,"lng":90.4019}},
{"type":"Feature","geometry":{"type":"Polygon","coordinates":[[[88.99,24.859],[89.004,24.901],[89.002,24.978],[89.017,25.047],[88.954,25.056],[88.921,25.132],[88.923,25.165],[88.876,25.179],[88.865,25.201],[88.83,25.205],[88.793,25.173],[88.733,25.2],[88.68,25.209],[88.62,25.205],[88.58,25.177],[88.56,25.191],[88.475,25.213],[88.442,25.184],[88.46,25.139],[88.441,25.128],[88.451,25.075],[88.446,25.028],[88.395,24.965],[88.434,24.961],[88.432,24.929],[88.471,24.938],[88.493,24.925],[88.476,24.863],[88.422,24.848],[88.449,24.822],[88.43,24.794],[88.473,24.763],[88.506,24.719],[88.546,24.7],[88.625,24.695],[88.633,24.621],[88.703,24.638],[88.701,24.662],[88.771,24.668],[88.855,24.658],[88.874,24.637],[88.909,24.643],[88.934,24.588],[88.963,24.584],[89.016,24.55],[89.079,24.533],[89.104,24.562],[89.097,24.633],[89.135,24.654],[89.138,24.684],[89.107,24.715],[89.082,24.765],[89.047,24.79],[88.968,24.745],[88.977,24.803],[88.97,24.823],[88.99,24.859]]]},"properties":{"n":"Naogaon","d":"","v":"Rajshahi","lat":24.8996,"lng":88.7516}},
{"type":"Feature","geometry":{"type":"Polygon","coordinates":[[[89.801,22.941],[89.797,22.996],[89.757,23.015],[89.73,23.079],[89.691,23.099],[89.739,23.13],[89.73,23.158],[89.697,23.162],[89.688,23.21],[89.67,23.244],[89.642,23.232],[89.618,23.304],[89.605,23.321],[89.56,23.32],[89.524,23.278],[89.479,23.299],[89.455,23.257],[89.426,23.259],[89.418,23.23],[89.419,23.14],[89.378,23.136],[89.385,23.086],[89.417,23.083],[89.467,23.033],[89.49,23.038],[89.561,22.984],[89.606,22.957],[89.689,22.977],[89.749,22.964],[89.78,22.983],[89.801,22.941]]]},"properties":{"n":"Narail","d":"","v":"Khulna","lat":23.1298,"lng":89.5664}},
{"type":"Feature","geometry":{"type":"Polygon","coordinates":[[[90.735,23.763],[90.715,23.799],[90.67,23.794],[90.637,23.824],[90.651,23.862],[90.571,23.895],[90.517,23.888],[90.502,23.858],[90.471,23.847],[90.487,23.826],[90.481,23.792],[90.49,23.736],[90.513,23.71],[90.454,23.678],[90.472,23.639],[90.43,23.609],[90.431,23.562],[90.559,23.574],[90.573,23.597],[90.63,23.621],[90.64,23.675],[90.677,23.68],[90.733,23.667],[90.741,23.693],[90.725,23.718],[90.735,23.763]]]},"properties":{"n":"Narayanganj","d":"","v":"Dhaka","lat":23.7278,"lng":90.5855}},
{"type":"Feature","geometry":{"type":"Polygon","coordinates":[[[90.986,24.031],[90.944,24.084],[90.913,24.075],[90.871,24.132],[90.825,24.157],[90.786,24.193],[90.782,24.243],[90.683,24.244],[90.672,24.205],[90.686,24.19],[90.677,24.119],[90.639,24.098],[90.635,24.071],[90.657,24.027],[90.618,23.968],[90.616,23.936],[90.571,23.895],[90.651,23.862],[90.637,23.824],[90.67,23.794],[90.715,23.799],[90.735,23.763],[90.766,23.803],[90.762,23.86],[90.829,23.864],[90.858,23.879],[90.909,23.868],[90.953,23.954],[90.973,23.969],[90.966,24.005],[90.986,24.031]]]},"properties":{"n":"Narsingdi","d":"","v":"Dhaka","lat":24.0024,"lng":90.7741}},
{"type":"Feature","geometry":{"type":"Polygon","coordinates":[[[89.138,24.684],[89.135,24.654],[89.097,24.633],[89.104,24.562],[89.079,24.533],[89.016,24.55],[88.963,24.584],[88.961,24.548],[88.897,24.535],[88.893,24.456],[88.902,24.419],[88.892,24.365],[88.847,24.34],[88.855,24.311],[88.9,24.271],[88.915,24.241],[88.872,24.227],[88.869,24.175],[88.896,24.158],[88.861,24.112],[88.885,24.102],[88.94,24.132],[89.007,24.118],[89.016,24.144],[89.052,24.141],[89.111,24.166],[89.156,24.173],[89.175,24.201],[89.214,24.211],[89.242,24.276],[89.287,24.305],[89.287,24.331],[89.319,24.353],[89.293,24.365],[89.275,24.449],[89.284,24.481],[89.316,24.514],[89.339,24.559],[89.329,24.599],[89.268,24.63],[89.231,24.583],[89.203,24.613],[89.189,24.652],[89.146,24.623],[89.138,24.684]]]},"properties":{"n":"Natore","d":"","v":"Rajshahi","lat":24.3715,"lng":89.0884}},
{"type":"Feature","geometry":{"type":"Polygon","coordinates":[[[88.395,24.965],[88.325,24.918],[88.347,24.893],[88.327,24.87],[88.265,24.893],[88.259,24.926],[88.226,24.96],[88.17,24.95],[88.14,24.914],[88.166,24.863],[88.112,24.814],[88.066,24.751],[88.063,24.722],[88.009,24.668],[88.041,24.643],[88.106,24.546],[88.15,24.504],[88.21,24.458],[88.263,24.446],[88.292,24.416],[88.331,24.448],[88.304,24.494],[88.312,24.521],[88.301,24.565],[88.371,24.603],[88.41,24.609],[88.433,24.664],[88.49,24.69],[88.506,24.719],[88.473,24.763],[88.43,24.794],[88.449,24.822],[88.422,24.848],[88.476,24.863],[88.493,24.925],[88.471,24.938],[88.432,24.929],[88.434,24.961],[88.395,24.965]]]},"properties":{"n":"Chapai Nawabganj","d":"","v":"Rajshahi","lat":24.7156,"lng":88.2641}},
{"type":"Feature","geometry":{"type":"Polygon","coordinates":[[[91.195,24.631],[91.23,24.655],[91.241,24.692],[91.212,24.713],[91.159,24.725],[91.135,24.757],[91.171,24.78],[91.116,24.807],[91.109,24.872],[91.078,24.9],[91.016,24.899],[90.953,24.919],[90.973,24.958],[90.94,24.986],[90.93,25.057],[90.953,25.107],[90.949,25.137],[90.965,25.172],[90.928,25.162],[90.85,25.158],[90.769,25.183],[90.739,25.158],[90.699,25.157],[90.658,25.185],[90.614,25.174],[90.611,25.13],[90.59,25.082],[90.613,25.054],[90.585,25.027],[90.545,25.015],[90.501,25.032],[90.517,24.973],[90.538,24.937],[90.533,24.896],[90.568,24.885],[90.57,24.813],[90.605,24.814],[90.625,24.795],[90.683,24.803],[90.715,24.753],[90.696,24.7],[90.722,24.649],[90.758,24.637],[90.757,24.61],[90.82,24.588],[90.857,24.599],[90.977,24.6],[91.073,24.619],[91.093,24.602],[91.127,24.629],[91.175,24.643],[91.195,24.631]]]},"properties":{"n":"Netrokona","d":"","v":"Mymensingh","lat":24.9325,"lng":90.7931}},
{"type":"Feature","geometry":{"type":"Polygon","coordinates":[[[88.941,25.734],[88.962,25.784],[88.948,25.81],[89.049,25.822],[89.087,25.846],[89.115,25.881],[89.103,25.945],[89.142,25.964],[89.112,25.994],[89.09,26.06],[89.098,26.146],[89.073,26.171],[89.023,26.193],[89.036,26.22],[89.019,26.242],[88.953,26.242],[88.926,26.284],[88.876,26.287],[88.861,26.273],[88.872,26.234],[88.838,26.232],[88.814,26.255],[88.813,26.289],[88.793,26.31],[88.759,26.304],[88.763,26.236],[88.797,26.215],[88.783,26.182],[88.789,26.124],[88.767,26.088],[88.779,26.062],[88.735,26.015],[88.76,25.939],[88.802,25.922],[88.828,25.854],[88.828,25.813],[88.898,25.735],[88.941,25.734]]]},"properties":{"n":"Nilphamari","d":"","v":"Rangpur","lat":26.0247,"lng":88.9295}},
{"type":"Feature","geometry":{"type":"MultiPolygon","coordinates":[[[[91.031,22.084],[90.999,22.1],[90.973,22.052],[90.991,22.023],[91.035,22.043],[91.031,22.084]]],[[[91.015,22.243],[91.037,22.32],[91.019,22.332],[91.019,22.293],[91.014,22.27],[91.015,22.243]]],[[[91.141,22.373],[91.07,22.407],[91.068,22.242],[91.054,22.191],[91.006,22.108],[91.058,22.079],[91.165,22.169],[91.188,22.233],[91.19,22.327],[91.175,22.384],[91.141,22.373]]],[[[91.013,22.36],[91.03,22.377],[91.045,22.436],[91.002,22.463],[90.988,22.436],[91.013,22.36]]],[[[90.934,22.494],[90.976,22.522],[90.932,22.497],[90.934,22.494]]],[[[91.339,22.526],[91.339,22.53],[91.333,22.565],[91.332,22.566],[91.311,22.603],[91.274,22.555],[91.266,22.52],[91.291,22.484],[91.34,22.518],[91.339,22.526]]],[[[91.338,22.732],[91.308,22.727],[91.287,22.7],[91.318,22.65],[91.343,22.686],[91.338,22.732]]],[[[90.962,23.131],[90.94,23.084],[90.906,23.072],[90.915,23.045],[90.887,23.026],[91.001,22.956],[90.981,22.916],[90.986,22.879],[90.94,22.856],[90.927,22.814],[90.95,22.778],[90.981,22.754],[90.981,22.715],[91.01,22.705],[91.017,22.679],[90.988,22.639],[91.014,22.599],[91.017,22.568],[91.055,22.537],[91.093,22.466],[91.136,22.443],[91.229,22.526],[91.288,22.619],[91.264,22.684],[91.299,22.745],[91.369,22.752],[91.328,22.798],[91.331,22.817],[91.332,22.821],[91.329,22.848],[91.33,22.847],[91.331,22.845],[91.337,22.845],[91.331,22.91],[91.269,22.892],[91.256,22.964],[91.265,23.022],[91.259,23.055],[91.16,23.084],[91.079,23.072],[91.043,23.09],[91.036,23.114],[90.985,23.117],[90.981,23.133],[90.962,23.131]]]]},"properties":{"n":"Noakhali","d":"","v":"Chattogram","lat":22.8241,"lng":91.111}},
{"type":"Feature","geometry":{"type":"Polygon","coordinates":[[[89.355,23.886],[89.365,23.911],[89.469,23.839],[89.515,23.819],[89.572,23.808],[89.696,23.815],[89.733,23.835],[89.712,23.858],[89.693,23.943],[89.699,23.997],[89.722,24.014],[89.683,24.034],[89.681,24.062],[89.593,24.102],[89.528,24.147],[89.501,24.217],[89.486,24.204],[89.421,24.283],[89.425,24.307],[89.378,24.348],[89.319,24.353],[89.287,24.331],[89.287,24.305],[89.242,24.276],[89.214,24.211],[89.175,24.201],[89.156,24.173],[89.111,24.166],[89.052,24.141],[89.016,24.144],[89.007,24.118],[89.026,24.092],[89.048,24.02],[89.073,23.978],[89.099,23.96],[89.148,23.951],[89.216,23.988],[89.262,23.91],[89.312,23.874],[89.355,23.886]]]},"properties":{"n":"Pabna","d":"","v":"Rajshahi","lat":24.0569,"lng":89.3861}},
{"type":"Feature","geometry":{"type":"Polygon","coordinates":[[[88.735,26.015],[88.779,26.062],[88.767,26.088],[88.789,26.124],[88.783,26.182],[88.797,26.215],[88.763,26.236],[88.759,26.304],[88.722,26.283],[88.668,26.272],[88.693,26.314],[88.746,26.322],[88.744,26.349],[88.695,26.344],[88.677,26.399],[88.628,26.441],[88.56,26.457],[88.526,26.481],[88.484,26.541],[88.431,26.55],[88.416,26.632],[88.38,26.598],[88.349,26.508],[88.361,26.485],[88.415,26.469],[88.485,26.46],[88.519,26.352],[88.488,26.349],[88.446,26.365],[88.436,26.336],[88.35,26.282],[88.348,26.222],[88.321,26.204],[88.37,26.179],[88.392,26.201],[88.466,26.194],[88.517,26.201],[88.556,26.177],[88.573,26.15],[88.622,26.131],[88.646,26.092],[88.627,26.056],[88.67,26.013],[88.735,26.015]]]},"properties":{"n":"Panchagarh","d":"","v":"Rangpur","lat":26.2851,"lng":88.5755}},
{"type":"Feature","geometry":{"type":"MultiPolygon","coordinates":[[[[90.587,21.984],[90.563,21.986],[90.509,21.929],[90.517,21.892],[90.577,21.883],[90.602,21.968],[90.587,21.984]]],[[[90.3,21.954],[90.288,21.989],[90.254,21.951],[90.21,21.984],[90.174,21.975],[90.159,21.981],[90.137,21.956],[90.147,21.936],[90.116,21.919],[90.11,21.879],[90.083,21.85],[90.1,21.823],[90.182,21.797],[90.219,21.806],[90.259,21.844],[90.3,21.954]]],[[[90.484,21.988],[90.466,22.054],[90.419,22.033],[90.356,21.979],[90.307,21.883],[90.313,21.855],[90.358,21.852],[90.409,21.894],[90.465,21.919],[90.498,21.964],[90.484,21.988]]],[[[90.586,22.185],[90.485,22.074],[90.485,22.014],[90.51,21.963],[90.579,22.051],[90.586,22.185]]],[[[90.622,22.243],[90.589,22.241],[90.587,22.189],[90.622,22.243]]],[[[90.147,21.975],[90.154,21.982],[90.166,21.983],[90.173,21.977],[90.214,21.986],[90.257,21.954],[90.284,21.993],[90.311,21.988],[90.332,22.047],[90.391,22.089],[90.432,22.078],[90.465,22.109],[90.524,22.199],[90.555,22.234],[90.618,22.274],[90.661,22.317],[90.661,22.356],[90.658,22.366],[90.643,22.381],[90.645,22.452],[90.634,22.46],[90.632,22.463],[90.618,22.476],[90.578,22.543],[90.539,22.563],[90.512,22.534],[90.457,22.536],[90.437,22.499],[90.41,22.481],[90.363,22.504],[90.33,22.469],[90.23,22.453],[90.195,22.414],[90.178,22.339],[90.146,22.312],[90.159,22.249],[90.225,22.217],[90.246,22.262],[90.289,22.243],[90.313,22.254],[90.363,22.215],[90.336,22.165],[90.343,22.129],[90.318,22.083],[90.291,22.071],[90.274,22.03],[90.223,22.037],[90.219,22.064],[90.187,22.066],[90.21,22.031],[90.185,22.012],[90.178,22.001],[90.191,21.985],[90.161,21.988],[90.153,21.983],[90.147,21.975]]],[[[90.575,22.57],[90.575,22.571],[90.558,22.588],[90.586,22.547],[90.575,22.57]]],[[[90.547,22.593],[90.557,22.589],[90.554,22.593],[90.547,22.593]]]]},"properties":{"n":"Patuakhali","d":"","v":"Barishal","lat":22.3302,"lng":90.4287}},
{"type":"Feature","geometry":{"type":"MultiPolygon","coordinates":[[[[89.889,22.158],[89.891,22.158],[89.888,22.165],[89.889,22.158]]],[[[89.886,22.177],[89.907,22.159],[89.935,22.166],[89.975,22.204],[90.019,22.231],[90.024,22.293],[90.053,22.315],[90.051,22.337],[90.019,22.372],[90.039,22.402],[90.036,22.449],[90.101,22.445],[90.134,22.487],[90.063,22.505],[90.056,22.58],[90.102,22.596],[90.096,22.64],[90.138,22.674],[90.177,22.753],[90.077,22.785],[90.018,22.871],[89.944,22.856],[89.946,22.832],[89.904,22.773],[89.931,22.752],[89.905,22.726],[89.902,22.695],[89.936,22.677],[89.92,22.607],[89.962,22.593],[89.954,22.554],[89.929,22.523],[89.892,22.507],[89.895,22.476],[89.931,22.478],[89.943,22.457],[89.876,22.428],[89.872,22.41],[89.902,22.373],[89.858,22.269],[89.865,22.226],[89.886,22.177]]]]},"properties":{"n":"Pirojpur","d":"","v":"Barishal","lat":22.6829,"lng":90.0194}},
{"type":"Feature","geometry":{"type":"Polygon","coordinates":[[[89.865,23.719],[89.781,23.798],[89.771,23.833],[89.733,23.835],[89.696,23.815],[89.572,23.808],[89.515,23.819],[89.469,23.839],[89.365,23.911],[89.355,23.886],[89.336,23.829],[89.33,23.779],[89.298,23.736],[89.322,23.703],[89.366,23.664],[89.412,23.682],[89.442,23.639],[89.482,23.62],[89.497,23.579],[89.542,23.569],[89.563,23.604],[89.63,23.588],[89.655,23.61],[89.727,23.583],[89.73,23.655],[89.789,23.686],[89.795,23.713],[89.865,23.719]]]},"properties":{"n":"Rajbari","d":"","v":"Dhaka","lat":23.7151,"lng":89.5597}},
{"type":"Feature","geometry":{"type":"Polygon","coordinates":[[[88.861,24.112],[88.896,24.158],[88.869,24.175],[88.872,24.227],[88.915,24.241],[88.9,24.271],[88.855,24.311],[88.847,24.34],[88.892,24.365],[88.902,24.419],[88.893,24.456],[88.897,24.535],[88.961,24.548],[88.963,24.584],[88.934,24.588],[88.909,24.643],[88.874,24.637],[88.855,24.658],[88.771,24.668],[88.701,24.662],[88.703,24.638],[88.633,24.621],[88.625,24.695],[88.546,24.7],[88.506,24.719],[88.49,24.69],[88.433,24.664],[88.41,24.609],[88.371,24.603],[88.301,24.565],[88.312,24.521],[88.304,24.494],[88.331,24.448],[88.292,24.416],[88.328,24.385],[88.389,24.372],[88.43,24.384],[88.508,24.343],[88.527,24.344],[88.555,24.293],[88.588,24.312],[88.694,24.316],[88.725,24.298],[88.741,24.254],[88.733,24.194],[88.787,24.133],[88.861,24.112]]]},"properties":{"n":"Rajshahi","d":"","v":"Rajshahi","lat":24.4658,"lng":88.6514}},
{"type":"Feature","geometry":{"type":"Polygon","coordinates":[[[92.614,21.852],[92.632,21.863],[92.626,21.909],[92.604,21.983],[92.59,22.071],[92.575,22.116],[92.607,22.166],[92.588,22.216],[92.581,22.322],[92.555,22.406],[92.526,22.673],[92.508,22.737],[92.474,22.746],[92.472,22.796],[92.455,22.826],[92.464,22.855],[92.398,22.929],[92.376,22.929],[92.38,23.012],[92.392,23.054],[92.358,23.104],[92.362,23.165],[92.351,23.234],[92.401,23.237],[92.386,23.306],[92.368,23.326],[92.376,23.366],[92.356,23.373],[92.346,23.433],[92.327,23.449],[92.308,23.578],[92.289,23.598],[92.275,23.65],[92.289,23.702],[92.258,23.725],[92.203,23.706],[92.144,23.733],[92.121,23.693],[92.083,23.68],[92.074,23.648],[92.116,23.556],[92.137,23.43],[92.048,23.366],[92.125,23.319],[92.13,23.224],[92.155,23.151],[92.181,23.102],[92.072,23.073],[92.118,22.959],[92.082,22.941],[92.04,22.884],[92.019,22.884],[92.001,22.842],[91.981,22.834],[91.976,22.786],[92.001,22.727],[91.967,22.718],[91.963,22.691],[91.928,22.689],[91.939,22.624],[91.967,22.555],[91.978,22.508],[91.996,22.485],[92.025,22.523],[92.006,22.582],[92.013,22.605],[92.07,22.615],[92.104,22.57],[92.129,22.492],[92.136,22.431],[92.099,22.4],[92.146,22.348],[92.225,22.331],[92.281,22.356],[92.373,22.336],[92.462,22.256],[92.483,22.22],[92.499,22.114],[92.524,22.025],[92.586,21.883],[92.614,21.852]]]},"properties":{"n":"Rangamati","d":"","v":"Chattogram","lat":22.7827,"lng":92.2445}},
{"type":"Feature","geometry":{"type":"Polygon","coordinates":[[[89.281,25.301],[89.326,25.3],[89.347,25.336],[89.345,25.37],[89.375,25.407],[89.399,25.465],[89.442,25.488],[89.44,25.53],[89.406,25.542],[89.416,25.589],[89.446,25.586],[89.488,25.6],[89.536,25.649],[89.519,25.678],[89.5,25.746],[89.459,25.786],[89.392,25.796],[89.334,25.838],[89.282,25.896],[89.235,25.905],[89.203,25.939],[89.142,25.964],[89.103,25.945],[89.115,25.881],[89.087,25.846],[89.049,25.822],[88.948,25.81],[88.962,25.784],[88.941,25.734],[88.939,25.686],[88.991,25.661],[88.998,25.625],[89.044,25.588],[89.079,25.583],[89.116,25.456],[89.149,25.434],[89.165,25.4],[89.205,25.389],[89.238,25.358],[89.238,25.319],[89.281,25.301]]]},"properties":{"n":"Rangpur","d":"","v":"Rangpur","lat":25.6521,"lng":89.2419}},
{"type":"Feature","geometry":{"type":"MultiPolygon","coordinates":[[[[89.276,21.756],[89.221,21.747],[89.236,21.697],[89.278,21.703],[89.289,21.732],[89.276,21.756]]],[[[89.212,21.822],[89.189,21.797],[89.219,21.752],[89.284,21.767],[89.229,21.822],[89.212,21.822]]],[[[89.104,21.781],[89.059,21.834],[89.045,21.787],[89.068,21.773],[89.107,21.723],[89.147,21.74],[89.104,21.781]]],[[[89.301,21.838],[89.323,21.879],[89.36,21.9],[89.348,21.942],[89.314,21.986],[89.29,21.941],[89.297,21.931],[89.319,21.921],[89.321,21.917],[89.301,21.838]]],[[[89.185,22.022],[89.165,22.021],[89.167,21.988],[89.143,21.962],[89.155,21.925],[89.202,21.924],[89.212,21.904],[89.202,21.886],[89.194,21.829],[89.249,21.818],[89.274,21.854],[89.269,21.884],[89.285,21.905],[89.211,21.935],[89.205,21.962],[89.242,21.988],[89.195,22.003],[89.185,22.022]]],[[[89.124,22.046],[89.096,22.049],[89.091,22.014],[89.13,21.998],[89.124,22.046]]],[[[89.15,22.028],[89.157,22.056],[89.128,22.055],[89.131,21.996],[89.108,21.976],[89.117,21.951],[89.082,21.92],[89.105,21.847],[89.099,21.814],[89.152,21.795],[89.185,21.837],[89.185,21.874],[89.201,21.913],[89.154,21.914],[89.131,21.95],[89.161,21.991],[89.15,22.028]]],[[[89.261,22.081],[89.219,22.008],[89.249,21.991],[89.249,21.976],[89.217,21.959],[89.26,21.917],[89.296,21.902],[89.278,21.875],[89.284,21.843],[89.306,21.87],[89.29,21.881],[89.319,21.918],[89.299,21.927],[89.289,21.94],[89.288,21.986],[89.306,22.001],[89.261,22.081]]],[[[88.909,22.919],[88.91,22.88],[88.949,22.877],[88.969,22.844],[88.959,22.808],[88.911,22.758],[88.928,22.718],[88.962,22.695],[88.929,22.652],[88.938,22.561],[88.961,22.55],[88.98,22.486],[88.997,22.47],[89.002,22.429],[88.975,22.411],[88.99,22.388],[88.986,22.326],[89.024,22.299],[88.998,22.282],[89.036,22.254],[89.042,22.225],[89.076,22.189],[89.081,22.132],[89.048,22.097],[89.056,22.065],[89.094,22.05],[89.15,22.085],[89.174,22.072],[89.163,22.028],[89.187,22.025],[89.21,22.005],[89.245,22.059],[89.216,22.089],[89.264,22.113],[89.281,22.161],[89.31,22.184],[89.306,22.214],[89.311,22.232],[89.251,22.339],[89.273,22.346],[89.241,22.428],[89.258,22.467],[89.234,22.552],[89.265,22.595],[89.243,22.61],[89.26,22.694],[89.301,22.683],[89.332,22.729],[89.299,22.788],[89.271,22.791],[89.247,22.836],[89.201,22.812],[89.137,22.827],[89.096,22.923],[89.034,22.93],[88.992,22.945],[88.976,22.922],[88.909,22.919]]]]},"properties":{"n":"Satkhira","d":"","v":"Khulna","lat":22.539,"lng":89.1059}},
{"type":"Feature","geometry":{"type":"Polygon","coordinates":[[[90.499,23.069],[90.523,23.111],[90.556,23.135],[90.572,23.152],[90.608,23.214],[90.602,23.224],[90.601,23.227],[90.597,23.23],[90.546,23.283],[90.502,23.302],[90.535,23.339],[90.591,23.336],[90.539,23.379],[90.499,23.404],[90.432,23.416],[90.422,23.401],[90.36,23.43],[90.281,23.447],[90.24,23.425],[90.222,23.399],[90.247,23.343],[90.228,23.263],[90.247,23.217],[90.286,23.193],[90.292,23.145],[90.344,23.14],[90.349,23.057],[90.421,23.04],[90.417,23.007],[90.457,23.015],[90.498,23.049],[90.499,23.069]]]},"properties":{"n":"Shariatpur","d":"","v":"Dhaka","lat":23.2463,"lng":90.4059}},
{"type":"Feature","geometry":{"type":"Polygon","coordinates":[[[90.195,24.885],[90.236,24.886],[90.246,24.925],[90.229,24.967],[90.241,25.008],[90.232,25.042],[90.262,25.098],[90.264,25.196],[90.171,25.223],[90.118,25.224],[90.056,25.261],[89.948,25.294],[89.906,25.266],[89.887,25.182],[89.904,25.167],[89.895,25.116],[89.915,25.089],[89.916,25.052],[89.88,25.02],[89.938,24.96],[89.956,24.924],[90.067,24.906],[90.109,24.908],[90.195,24.885]]]},"properties":{"n":"Sherpur","d":"","v":"Mymensingh","lat":25.0823,"lng":90.0745}},
{"type":"Feature","geometry":{"type":"Polygon","coordinates":[[[89.339,24.559],[89.316,24.514],[89.284,24.481],[89.275,24.449],[89.293,24.365],[89.319,24.353],[89.378,24.348],[89.425,24.307],[89.421,24.283],[89.486,24.204],[89.501,24.217],[89.528,24.147],[89.593,24.102],[89.681,24.062],[89.683,24.034],[89.722,24.014],[89.785,24.035],[89.817,24.064],[89.82,24.141],[89.803,24.16],[89.783,24.237],[89.79,24.263],[89.772,24.33],[89.752,24.351],[89.766,24.376],[89.742,24.471],[89.758,24.5],[89.746,24.537],[89.789,24.572],[89.765,24.614],[89.785,24.626],[89.783,24.669],[89.799,24.68],[89.772,24.724],[89.78,24.765],[89.715,24.777],[89.68,24.784],[89.655,24.746],[89.661,24.728],[89.624,24.685],[89.565,24.699],[89.545,24.654],[89.559,24.626],[89.602,24.605],[89.602,24.562],[89.568,24.547],[89.486,24.557],[89.473,24.544],[89.339,24.559]]]},"properties":{"n":"Sirajganj","d":"","v":"Rajshahi","lat":24.3915,"lng":89.5988}},
{"type":"Feature","geometry":{"type":"Polygon","coordinates":[[[91.649,24.675],[91.674,24.807],[91.658,24.809],[91.682,24.894],[91.712,24.962],[91.675,24.991],[91.687,25.058],[91.734,25.076],[91.726,25.12],[91.704,25.151],[91.642,25.123],[91.602,25.144],[91.557,25.15],[91.5,25.136],[91.399,25.165],[91.337,25.174],[91.26,25.201],[91.125,25.194],[91.07,25.199],[90.965,25.172],[90.949,25.137],[90.953,25.107],[90.93,25.057],[90.94,24.986],[90.973,24.958],[90.953,24.919],[91.016,24.899],[91.078,24.9],[91.109,24.872],[91.116,24.807],[91.171,24.78],[91.135,24.757],[91.159,24.725],[91.212,24.713],[91.241,24.692],[91.23,24.655],[91.195,24.631],[91.206,24.577],[91.234,24.569],[91.29,24.595],[91.313,24.647],[91.372,24.691],[91.438,24.662],[91.484,24.671],[91.545,24.655],[91.649,24.675]]]},"properties":{"n":"Sunamganj","d":"","v":"Sylhet","lat":24.9386,"lng":91.346}},
{"type":"Feature","geometry":{"type":"Polygon","coordinates":[[[91.661,24.626],[91.727,24.593],[91.828,24.654],[91.888,24.647],[91.931,24.658],[91.974,24.639],[92.029,24.652],[92.047,24.697],[92.099,24.757],[92.174,24.773],[92.213,24.813],[92.251,24.836],[92.238,24.868],[92.247,24.909],[92.307,24.902],[92.34,24.878],[92.375,24.874],[92.386,24.853],[92.476,24.868],[92.497,24.902],[92.484,24.929],[92.45,24.939],[92.419,24.968],[92.425,25.03],[92.341,25.049],[92.311,25.069],[92.207,25.109],[92.104,25.175],[92.062,25.187],[92.003,25.186],[91.985,25.173],[91.915,25.181],[91.827,25.178],[91.704,25.151],[91.726,25.12],[91.734,25.076],[91.687,25.058],[91.675,24.991],[91.712,24.962],[91.682,24.894],[91.658,24.809],[91.674,24.807],[91.649,24.675],[91.661,24.626]]]},"properties":{"n":"Sylhet","d":"","v":"Sylhet","lat":24.9414,"lng":91.9733}},
{"type":"Feature","geometry":{"type":"Polygon","coordinates":[[[90.148,24.034],[90.172,24.096],[90.208,24.095],[90.226,24.163],[90.266,24.215],[90.29,24.226],[90.29,24.278],[90.265,24.289],[90.229,24.348],[90.249,24.415],[90.229,24.42],[90.211,24.462],[90.227,24.483],[90.209,24.509],[90.174,24.518],[90.125,24.596],[90.148,24.65],[90.127,24.738],[90.097,24.754],[90.076,24.788],[89.972,24.724],[89.935,24.755],[89.878,24.732],[89.878,24.679],[89.809,24.568],[89.789,24.572],[89.746,24.537],[89.758,24.5],[89.742,24.471],[89.766,24.376],[89.752,24.351],[89.772,24.33],[89.79,24.263],[89.783,24.237],[89.803,24.16],[89.82,24.141],[89.817,24.064],[89.785,24.035],[89.764,23.978],[89.866,23.992],[89.906,23.988],[89.968,24.03],[90.008,24.011],[90.074,24.034],[90.102,24.019],[90.148,24.034]]]},"properties":{"n":"Tangail","d":"","v":"Dhaka","lat":24.3563,"lng":89.9986}},
{"type":"Feature","geometry":{"type":"Polygon","coordinates":[[[88.627,26.056],[88.646,26.092],[88.622,26.131],[88.573,26.15],[88.556,26.177],[88.517,26.201],[88.466,26.194],[88.392,26.201],[88.37,26.179],[88.321,26.204],[88.259,26.187],[88.177,26.148],[88.158,26.095],[88.185,26.063],[88.173,26.032],[88.13,25.997],[88.111,25.933],[88.086,25.916],[88.111,25.864],[88.107,25.815],[88.152,25.776],[88.193,25.802],[88.268,25.781],[88.375,25.712],[88.402,25.673],[88.427,25.67],[88.436,25.708],[88.392,25.743],[88.386,25.84],[88.404,25.865],[88.486,25.87],[88.48,25.903],[88.538,25.964],[88.546,26.019],[88.589,26.02],[88.627,26.056]]]},"properties":{"n":"Thakurgaon","d":"","v":"Rangpur","lat":25.998,"lng":88.3407}}
]}