{"type":"FeatureCollection", "features": [
{"type":"Feature","geometry":{"type":"MultiPolygon","coordinates":[[[[91.467,22.601],[91.396,22.598],[91.387,22.46],[91.478,22.404],[91.57,22.39],[91.543,22.507],[91.467,22.601]]],[[[91.054,22.723],[91.073,22.596],[91.155,22.568],[91.166,22.663],[91.054,22.723]]],[[[91.295,24.003],[91.285,24.117],[91.31,24.231],[91.215,24.244],[91.039,24.185],[91.061,24.08],[91.001,24.034],[90.992,23.965],[90.918,23.874],[90.771,23.851],[90.734,23.708],[90.676,23.67],[90.687,23.503],[90.626,23.494],[90.595,23.417],[90.66,23.256],[90.577,23.139],[90.59,23.057],[90.786,22.869],[90.82,22.754],[90.939,22.566],[91.014,22.504],[91.06,22.329],[91.021,22.12],[91.122,22.111],[91.15,22.176],[91.134,22.428],[91.02,22.548],[91.047,22.633],[90.983,22.828],[91.067,22.797],[91.173,22.838],[91.324,22.779],[91.481,22.771],[91.703,22.492],[91.759,22.306],[91.915,22.05],[91.935,21.916],[91.897,21.708],[91.909,21.503],[92.009,21.499],[92.002,21.381],[92.069,21.161],[92.203,20.973],[92.287,20.806],[92.351,20.782],[92.272,21.004],[92.28,21.077],[92.208,21.163],[92.223,21.328],[92.286,21.418],[92.399,21.45],[92.458,21.354],[92.567,21.362],[92.588,21.262],[92.691,21.303],[92.624,21.517],[92.609,21.768],[92.648,21.894],[92.605,22.059],[92.612,22.218],[92.584,22.311],[92.534,22.595],[92.531,22.732],[92.467,22.784],[92.458,22.896],[92.391,22.953],[92.398,23.077],[92.362,23.249],[92.401,23.311],[92.324,23.481],[92.292,23.712],[92.172,23.755],[92.076,23.674],[91.926,23.72],[91.968,23.544],[91.954,23.445],[91.884,23.45],[91.778,23.273],[91.824,23.146],[91.723,23.002],[91.586,22.972],[91.541,23.012],[91.522,23.189],[91.409,23.27],[91.395,23.14],[91.355,23.115],[91.293,23.365],[91.158,23.642],[91.195,23.67],[91.177,23.775],[91.232,23.783],[91.236,23.949],[91.295,24.003]]]]},"properties":{"n":"Chattogram","d":"","v":"","lat":22.7353,"lng":91.9894}},
{"type":"Feature","geometry":{"type":"Polygon","coordinates":[[[91.215,24.244],[91.175,24.306],[91.241,24.343],[91.223,24.432],[91.162,24.483],[91.236,24.533],[91.194,24.64],[90.9,24.591],[90.834,24.536],[90.607,24.477],[90.67,24.443],[90.665,24.31],[90.586,24.282],[90.481,24.345],[90.314,24.284],[90.259,24.338],[90.248,24.501],[90.144,24.594],[90.134,24.735],[90.048,24.79],[89.99,24.727],[89.883,24.725],[89.875,24.649],[89.799,24.579],[89.748,24.544],[89.737,24.436],[89.798,24.28],[89.8,24.03],[89.718,23.974],[89.787,23.86],[89.794,23.765],[89.641,23.771],[89.576,23.821],[89.505,23.79],[89.437,23.859],[89.255,23.912],[89.313,23.864],[89.306,23.726],[89.424,23.676],[89.508,23.544],[89.587,23.47],[89.582,23.361],[89.631,23.235],[89.693,23.207],[89.678,23.109],[89.813,22.945],[89.834,22.854],[89.905,22.849],[89.946,22.834],[90.042,22.911],[90.12,23.024],[90.34,22.977],[90.415,23.027],[90.498,23.092],[90.59,23.057],[90.577,23.139],[90.66,23.256],[90.595,23.417],[90.626,23.494],[90.687,23.503],[90.676,23.67],[90.734,23.708],[90.771,23.851],[90.918,23.874],[90.992,23.965],[91.001,24.034],[91.061,24.08],[91.039,24.185],[91.215,24.244]]]},"properties":{"n":"Dhaka","d":"","v":"","lat":23.8298,"lng":90.2523}},
{"type":"Feature","geometry":{"type":"Polygon","coordinates":[[[91.194,24.64],[91.26,24.693],[91.176,24.758],[91.137,24.87],[91.003,24.911],[90.967,25.011],[90.977,25.172],[90.78,25.185],[90.385,25.168],[90.129,25.238],[89.932,25.319],[89.857,25.302],[89.79,25.391],[89.773,25.232],[89.685,25.135],[89.673,25.063],[89.661,24.983],[89.733,24.828],[89.818,24.694],[89.799,24.579],[89.875,24.649],[89.883,24.725],[89.99,24.727],[90.048,24.79],[90.134,24.735],[90.144,24.594],[90.248,24.501],[90.259,24.338],[90.314,24.284],[90.481,24.345],[90.586,24.282],[90.665,24.31],[90.67,24.443],[90.607,24.477],[90.834,24.536],[90.9,24.591],[91.194,24.64]]]},"properties":{"n":"Mymensingh","d":"","v":"","lat":24.8565,"lng":90.4214}},
{"type":"Feature","geometry":{"type":"Polygon","coordinates":[[[89.799,24.579],[89.818,24.694],[89.733,24.828],[89.661,24.983],[89.673,25.063],[89.551,25.029],[89.377,25.06],[89.247,25.107],[89.182,25.217],[88.967,25.27],[88.933,25.183],[88.798,25.179],[88.696,25.209],[88.536,25.18],[88.448,25.193],[88.387,24.958],[88.262,24.886],[88.225,24.947],[88.058,24.761],[88.021,24.685],[88.097,24.59],[88.097,24.539],[88.188,24.469],[88.293,24.454],[88.532,24.315],[88.73,24.266],[88.711,24.188],[88.807,24.132],[88.974,24.13],[89.091,23.964],[89.255,23.912],[89.437,23.859],[89.505,23.79],[89.576,23.821],[89.641,23.771],[89.794,23.765],[89.787,23.86],[89.718,23.974],[89.8,24.03],[89.798,24.28],[89.737,24.436],[89.748,24.544],[89.799,24.579]]]},"properties":{"n":"Rajshahi","d":"","v":"","lat":24.5895,"lng":89.0705}},
{"type":"Feature","geometry":{"type":"Polygon","coordinates":[[[89.79,25.391],[89.835,25.435],[89.867,25.662],[89.82,25.741],[89.816,25.825],[89.883,25.921],[89.832,25.942],[89.794,26.081],[89.735,26.158],[89.585,26.14],[89.636,26.047],[89.519,25.992],[89.39,25.994],[89.274,26.045],[89.133,26.168],[89.134,26.232],[89.083,26.389],[88.951,26.438],[88.888,26.399],[88.976,26.332],[89.017,26.224],[88.7,26.335],[88.69,26.387],[88.546,26.445],[88.372,26.583],[88.325,26.496],[88.451,26.444],[88.442,26.352],[88.349,26.288],[88.345,26.212],[88.226,26.177],[88.15,26.077],[88.159,25.994],[88.081,25.919],[88.088,25.817],[88.134,25.773],[88.238,25.807],[88.427,25.649],[88.438,25.586],[88.547,25.502],[88.67,25.477],[88.797,25.527],[88.815,25.401],[88.87,25.329],[88.967,25.27],[89.182,25.217],[89.247,25.107],[89.377,25.06],[89.551,25.029],[89.673,25.063],[89.685,25.135],[89.773,25.232],[89.79,25.391]]]},"properties":{"n":"Rangpur","d":"","v":"","lat":25.7068,"lng":89.1228}},
{"type":"Feature","geometry":{"type":"Polygon","coordinates":[[[91.295,24.003],[91.368,23.992],[91.425,24.132],[91.514,24.091],[91.628,24.087],[91.651,24.215],[91.752,24.16],[91.804,24.231],[91.886,24.18],[91.926,24.22],[91.923,24.342],[92.16,24.422],[92.131,24.531],[92.195,24.598],[92.235,24.721],[92.323,24.878],[92.457,24.884],[92.481,24.976],[92.431,25.026],[92.087,25.213],[91.848,25.176],[91.754,25.184],[91.675,25.151],[91.591,25.179],[91.522,25.149],[91.276,25.216],[91.029,25.198],[90.977,25.172],[90.967,25.011],[91.003,24.911],[91.137,24.87],[91.176,24.758],[91.26,24.693],[91.194,24.64],[91.236,24.533],[91.162,24.483],[91.223,24.432],[91.241,24.343],[91.175,24.306],[91.215,24.244],[91.31,24.231],[91.285,24.117],[91.295,24.003]]]},"properties":{"n":"Sylhet","d":"","v":"","lat":24.7301,"lng":91.6714}},
{"type":"Feature","geometry":{"type":"Polygon","coordinates":[[[89.905,22.849],[89.834,22.854],[89.813,22.945],[89.678,23.109],[89.693,23.207],[89.631,23.235],[89.582,23.361],[89.587,23.47],[89.508,23.544],[89.424,23.676],[89.306,23.726],[89.313,23.864],[89.255,23.912],[89.091,23.964],[88.974,24.13],[88.807,24.132],[88.711,24.188],[88.706,24.096],[88.746,23.925],[88.662,23.874],[88.573,23.709],[88.577,23.64],[88.64,23.603],[88.778,23.458],[88.741,23.412],[88.729,23.264],[88.972,23.206],[88.873,23.11],[88.902,23.037],[88.869,22.909],[88.953,22.82],[88.918,22.741],[88.935,22.648],[89.006,22.468],[89.008,22.294],[89.096,22.157],[89.036,22.094],[89.098,21.987],[89.098,21.897],[89.149,21.787],[89.203,21.778],[89.24,21.698],[89.346,21.819],[89.408,21.705],[89.494,21.791],[89.455,21.835],[89.562,21.931],[89.545,21.775],[89.7,21.753],[89.67,21.825],[89.809,21.815],[89.874,21.859],[89.865,22.085],[89.899,22.201],[89.875,22.283],[89.91,22.336],[89.942,22.493],[89.981,22.538],[89.958,22.674],[89.896,22.711],[89.946,22.834],[89.905,22.849]]]},"properties":{"n":"Khulna","d":"","v":"","lat":22.8203,"lng":89.3742}},
{"type":"Feature","geometry":{"type":"MultiPolygon","coordinates":[[[[90.468,21.934],[90.464,22.026],[90.376,22.025],[90.375,21.916],[90.468,21.934]]],[[[90.637,21.997],[90.778,22.089],[90.833,22.159],[90.891,22.487],[90.775,22.616],[90.727,22.787],[90.662,22.78],[90.574,22.685],[90.676,22.399],[90.669,22.227],[90.603,22.153],[90.637,21.997]]],[[[89.946,22.834],[89.896,22.711],[89.958,22.674],[89.981,22.538],[89.942,22.493],[89.91,22.336],[89.875,22.283],[89.899,22.201],[89.958,21.996],[90.018,22.01],[90.03,21.842],[90.166,21.787],[90.268,21.822],[90.323,21.941],[90.33,22.027],[90.39,22.094],[90.514,22.076],[90.557,22.145],[90.647,22.384],[90.589,22.459],[90.589,22.535],[90.524,22.585],[90.501,22.676],[90.679,22.836],[90.673,22.885],[90.507,22.964],[90.415,23.027],[90.34,22.977],[90.12,23.024],[90.042,22.911],[89.946,22.834]]]]},"properties":{"n":"Barishal","d":"","v":"","lat":22.4566,"lng":90.2572}}
]}