{"type":"FeatureCollection", "features": [
{"type":"Feature","geometry":{"type":"MultiPolygon","coordinates":[[[[77.799,35.496],[77.424,35.304],[77.05,35.111],[77.025,35.086],[77.035,35.035],[77.014,34.986],[76.92,34.92],[76.852,34.944],[76.758,34.915],[76.744,34.819],[76.654,34.746],[76.553,34.726],[76.477,34.758],[76.398,34.751],[76.261,34.684],[76.121,34.66],[76.06,34.684],[76.006,34.665],[75.973,34.623],[75.873,34.571],[75.797,34.508],[75.613,34.498],[75.347,34.557],[75.268,34.598],[75.214,34.645],[75.019,34.63],[74.667,34.689],[74.411,34.765],[74.285,34.768],[74.22,34.748],[74.119,34.691],[74,34.674],[74,34.01],[74.065,34.019],[74.119,34.002],[74.227,34.014],[74.26,33.995],[74.263,33.929],[74.213,33.878],[74.141,33.845],[74.033,33.828],[74,33.794],[74,33.632],[74.141,33.549],[74.159,33.493],[74.098,33.328],[74,33.269],[74,33.179],[74.098,33.105],[74.155,33.041],[74.191,33.022],[74.285,33.009],[74.321,32.972],[74.335,32.848],[74.307,32.81],[74.368,32.764],[74.418,32.784],[74.523,32.745],[74.595,32.757],[74.652,32.837],[74.681,32.788],[74.656,32.745],[74.656,32.641],[74.631,32.588],[74.663,32.499],[74.724,32.46],[74.839,32.475],[74.908,32.445],[75.023,32.467],[75.127,32.411],[75.232,32.381],[75.325,32.313],[75.358,32.263],[75.307,32.193],[75.293,32.149],[75.196,32.129],[75.102,32.078],[75.041,32.099],[74.969,32.038],[74.829,32.026],[74.803,31.969],[74.764,31.938],[74.699,31.95],[74.67,31.905],[74.566,31.84],[74.537,31.776],[74.49,31.71],[74.555,31.612],[74.584,31.518],[74.616,31.477],[74.613,31.44],[74.573,31.39],[74.533,31.303],[74.508,31.156],[74.551,31.109],[74.616,31.116],[74.659,31.084],[74.58,31.043],[74.566,31.005],[74.519,30.962],[74.458,30.954],[74.4,30.893],[74.328,30.9],[74.267,30.795],[74.191,30.717],[74.163,30.665],[74.094,30.636],[74.058,30.591],[74.058,30.532],[74,30.505],[74,15.009],[74.033,14.995],[74.037,14.921],[74.091,14.887],[74.119,14.831],[74.112,14.781],[74.22,14.738],[74.263,14.701],[74.303,14.538],[74.353,14.505],[74.393,14.419],[74.429,14.24],[74.469,14.181],[74.494,14.031],[74.584,13.904],[74.616,13.835],[74.623,13.774],[74.659,13.659],[74.677,13.702],[74.724,13.646],[74.681,13.636],[74.67,13.604],[74.677,13.526],[74.703,13.462],[74.688,13.381],[74.713,13.332],[74.764,13.119],[74.771,13.053],[74.818,12.862],[74.89,12.852],[74.854,12.797],[74.955,12.537],[74.991,12.462],[75.084,12.305],[75.131,12.207],[75.181,12.077],[75.192,12.022],[75.315,12.008],[75.289,11.981],[75.325,11.935],[75.325,11.898],[75.379,11.865],[75.531,11.694],[75.603,11.523],[75.617,11.474],[75.664,11.463],[75.696,11.42],[75.833,11.098],[75.88,10.932],[75.894,10.85],[75.937,10.726],[75.999,10.605],[76.009,10.568],[76.053,10.514],[76.071,10.433],[76.107,10.385],[76.153,10.22],[76.186,10.189],[76.182,10.105],[76.215,10.024],[76.254,10.048],[76.294,9.951],[76.312,9.967],[76.359,9.916],[76.398,9.823],[76.38,9.786],[76.391,9.717],[76.416,9.683],[76.42,9.593],[76.503,9.534],[76.459,9.497],[76.377,9.514],[76.355,9.536],[76.395,9.679],[76.377,9.695],[76.362,9.804],[76.337,9.857],[76.283,9.848],[76.261,9.885],[76.283,9.928],[76.236,9.953],[76.276,9.81],[76.297,9.659],[76.29,9.634],[76.312,9.494],[76.362,9.325],[76.441,9.146],[76.513,9.002],[76.571,8.931],[76.56,8.891],[76.661,8.8],[76.697,8.741],[76.881,8.521],[76.996,8.367],[77.129,8.271],[77.226,8.185],[77.316,8.128],[77.511,8.075],[77.565,8.082],[77.561,8.114],[77.644,8.156],[77.752,8.173],[77.806,8.229],[78,8.346],[78.054,8.364],[78.079,8.432],[78.13,8.487],[78.141,8.594],[78.137,8.67],[78.169,8.734],[78.177,8.861],[78.241,8.965],[78.411,9.1],[78.486,9.126],[78.619,9.141],[78.677,9.185],[78.727,9.188],[78.843,9.244],[78.929,9.254],[78.958,9.274],[79.026,9.274],[79.087,9.254],[79.167,9.274],[79.354,9.24],[79.321,9.323],[79.253,9.288],[79.116,9.291],[79.041,9.315],[78.933,9.416],[78.915,9.453],[78.933,9.561],[78.972,9.631],[78.979,9.668],[79.095,9.803],[79.102,9.83],[79.199,9.97],[79.278,10.036],[79.253,10.054],[79.239,10.179],[79.271,10.198],[79.271,10.235],[79.303,10.269],[79.397,10.325],[79.458,10.308],[79.534,10.323],[79.552,10.303],[79.761,10.259],[79.858,10.294],[79.865,10.379],[79.861,10.551],[79.851,10.591],[79.851,10.755],[79.84,10.951],[79.851,11.007],[79.854,11.16],[79.836,11.263],[79.818,11.442],[79.782,11.464],[79.757,11.537],[79.753,11.598],[79.786,11.77],[79.804,11.795],[79.822,11.878],[79.861,11.973],[79.861,12.022],[79.926,12.13],[80.005,12.241],[80.056,12.331],[80.088,12.351],[80.157,12.474],[80.196,12.614],[80.229,12.675],[80.265,12.835],[80.268,12.957],[80.29,13.077],[80.333,13.198],[80.347,13.349],[80.308,13.413],[80.229,13.486],[80.131,13.496],[80.056,13.595],[80.092,13.659],[80.142,13.649],[80.142,13.729],[80.185,13.68],[80.196,13.644],[80.239,13.659],[80.221,13.697],[80.247,13.756],[80.236,13.84],[80.149,14.028],[80.124,14.149],[80.135,14.229],[80.121,14.242],[80.175,14.345],[80.175,14.468],[80.189,14.571],[80.16,14.662],[80.11,14.705],[80.106,14.764],[80.056,15.014],[80.052,15.093],[80.081,15.205],[80.092,15.304],[80.139,15.407],[80.175,15.438],[80.218,15.568],[80.279,15.701],[80.358,15.775],[80.47,15.834],[80.617,15.888],[80.689,15.9],[80.761,15.893],[80.801,15.843],[80.83,15.748],[80.891,15.895],[80.909,15.853],[80.977,15.804],[81.028,15.882],[81.15,15.969],[81.161,16.057],[81.229,16.243],[81.255,16.272],[81.247,16.321],[81.316,16.368],[81.496,16.361],[81.535,16.349],[81.658,16.338],[81.719,16.312],[81.899,16.387],[81.993,16.408],[82.036,16.447],[82.068,16.444],[82.205,16.513],[82.259,16.566],[82.306,16.579],[82.338,16.679],[82.367,16.812],[82.353,16.846],[82.266,16.868],[82.252,16.929],[82.299,17.03],[82.389,17.126],[82.425,17.14],[82.475,17.205],[82.72,17.349],[82.795,17.383],[82.896,17.41],[82.975,17.454],[83.087,17.531],[83.238,17.592],[83.245,17.634],[83.299,17.665],[83.404,17.785],[83.465,17.903],[83.526,17.942],[83.613,18.045],[83.775,18.139],[84.077,18.271],[84.113,18.298],[84.153,18.384],[84.232,18.447],[84.289,18.529],[84.333,18.553],[84.372,18.602],[84.433,18.646],[84.448,18.681],[84.541,18.776],[84.631,18.916],[84.664,18.93],[84.739,19.027],[84.721,19.114],[84.739,19.147],[84.79,19.12],[84.873,19.22],[84.995,19.323],[85.071,19.372],[85.179,19.475],[85.24,19.519],[85.287,19.536],[85.369,19.608],[85.405,19.662],[85.351,19.678],[85.308,19.642],[85.247,19.654],[85.247,19.615],[85.204,19.571],[85.204,19.517],[85.143,19.487],[85.103,19.515],[85.15,19.568],[85.139,19.596],[85.175,19.637],[85.222,19.737],[85.269,19.781],[85.319,19.794],[85.441,19.897],[85.477,19.9],[85.571,19.875],[85.56,19.738],[85.452,19.716],[85.481,19.666],[85.733,19.764],[85.787,19.765],[86.057,19.857],[86.079,19.843],[86.269,19.911],[86.374,19.965],[86.316,19.987],[86.392,20.02],[86.467,20.095],[86.489,20.174],[86.511,20.198],[86.629,20.235],[86.716,20.287],[86.795,20.378],[86.755,20.394],[86.734,20.463],[86.773,20.512],[86.925,20.621],[87.004,20.657],[87,20.711],[86.979,20.755],[86.91,20.757],[86.917,20.789],[86.964,20.806],[86.953,20.849],[86.845,21.082],[86.838,21.175],[86.867,21.256],[86.917,21.327],[87.065,21.474],[87.112,21.508],[87.202,21.552],[87.342,21.562],[87.479,21.614],[87.623,21.65],[87.702,21.655],[87.835,21.729],[87.897,21.79],[87.983,21.854],[88.051,21.986],[88.141,22.06],[88.174,22.118],[88.159,22.156],[88.095,22.192],[87.99,22.215],[88.008,22.241],[88.199,22.168],[88.221,22.079],[88.163,22.003],[88.145,21.959],[88.152,21.888],[88.203,21.805],[88.21,21.748],[88.181,21.685],[88.21,21.603],[88.249,21.559],[88.307,21.572],[88.282,21.609],[88.296,21.677],[88.264,21.775],[88.3,21.765],[88.303,21.633],[88.336,21.616],[88.357,21.685],[88.408,21.599],[88.455,21.624],[88.473,21.663],[88.451,21.722],[88.473,21.802],[88.534,21.795],[88.505,21.741],[88.53,21.658],[88.487,21.557],[88.512,21.525],[88.577,21.572],[88.599,21.638],[88.591,21.706],[88.624,21.711],[88.624,21.778],[88.566,21.766],[88.566,21.851],[88.599,21.93],[88.689,21.945],[88.732,22.036],[88.757,21.999],[88.721,21.966],[88.696,21.841],[88.703,21.81],[88.685,21.697],[88.721,21.609],[88.707,21.579],[88.761,21.555],[88.858,21.636],[88.84,21.716],[88.872,21.749],[88.89,21.653],[88.933,21.645],[89.002,21.604],[89.088,21.633],[89.085,21.675],[89.031,21.77],[89.009,21.905],[89.059,21.939],[89.067,21.967],[89.038,22.085],[89.059,22.131],[89.077,22.151],[89.063,22.212],[89.02,22.264],[88.991,22.388],[88.998,22.452],[88.951,22.562],[88.951,22.612],[88.908,22.741],[88.937,22.783],[88.948,22.835],[88.894,22.879],[88.843,22.965],[88.851,23.075],[88.865,23.1],[88.955,23.183],[88.926,23.207],[88.822,23.239],[88.775,23.222],[88.71,23.24],[88.685,23.293],[88.717,23.349],[88.768,23.467],[88.721,23.468],[88.663,23.519],[88.609,23.588],[88.563,23.602],[88.541,23.651],[88.563,23.74],[88.552,23.776],[88.577,23.855],[88.667,23.879],[88.714,23.924],[88.703,23.995],[88.725,24.029],[88.678,24.071],[88.678,24.154],[88.732,24.189],[88.75,24.223],[88.739,24.287],[88.66,24.338],[88.635,24.294],[88.476,24.316],[88.401,24.37],[88.109,24.509],[88.084,24.542],[88.084,24.595],[88.023,24.645],[88.077,24.762],[88.141,24.845],[88.116,24.917],[88.203,24.946],[88.242,24.88],[88.314,24.868],[88.375,24.946],[88.426,25.051],[88.44,25.189],[88.476,25.196],[88.559,25.17],[88.591,25.191],[88.663,25.187],[88.786,25.16],[88.807,25.196],[88.897,25.169],[88.926,25.192],[88.937,25.24],[88.984,25.275],[88.977,25.302],[88.901,25.304],[88.843,25.333],[88.8,25.402],[88.815,25.459],[88.782,25.495],[88.707,25.491],[88.645,25.468],[88.595,25.495],[88.53,25.5],[88.476,25.562],[88.422,25.593],[88.419,25.653],[88.321,25.726],[88.26,25.789],[88.228,25.804],[88.127,25.775],[88.087,25.831],[88.073,25.908],[88.105,25.979],[88.159,26.05],[88.141,26.076],[88.163,26.14],[88.221,26.18],[88.307,26.206],[88.336,26.231],[88.35,26.3],[88.426,26.358],[88.498,26.352],[88.476,26.432],[88.433,26.466],[88.343,26.477],[88.332,26.515],[88.372,26.611],[88.397,26.559],[88.462,26.528],[88.505,26.488],[88.581,26.466],[88.656,26.415],[88.667,26.368],[88.71,26.341],[88.703,26.31],[88.782,26.28],[88.807,26.233],[88.854,26.265],[88.901,26.273],[88.948,26.233],[89.02,26.234],[89.034,26.266],[88.98,26.292],[88.966,26.329],[88.912,26.349],[88.89,26.386],[88.941,26.439],[89.009,26.39],[89.045,26.381],[89.07,26.287],[89.103,26.226],[89.131,26.133],[89.214,26.099],[89.236,26.059],[89.315,26.006],[89.351,25.996],[89.481,26],[89.542,25.959],[89.56,26.022],[89.603,26.055],[89.567,26.099],[89.574,26.16],[89.607,26.211],[89.653,26.222],[89.657,26.16],[89.707,26.155],[89.751,26.084],[89.754,26.032],[89.826,25.966],[89.83,25.908],[89.787,25.839],[89.801,25.724],[89.833,25.635],[89.823,25.49],[89.797,25.404],[89.797,25.339],[89.819,25.285],[89.909,25.297],[90.129,25.211],[90.287,25.181],[90.366,25.15],[90.503,25.169],[90.582,25.162],[90.622,25.172],[90.708,25.154],[90.755,25.167],[90.824,25.142],[91.137,25.191],[91.234,25.203],[91.284,25.179],[91.472,25.133],[91.565,25.16],[91.598,25.128],[91.662,25.127],[91.731,25.167],[91.9,25.177],[91.958,25.17],[92.033,25.182],[92.094,25.165],[92.123,25.137],[92.181,25.127],[92.235,25.084],[92.303,25.074],[92.382,25.024],[92.386,24.995],[92.476,24.937],[92.494,24.895],[92.476,24.863],[92.382,24.836],[92.253,24.904],[92.217,24.875],[92.235,24.777],[92.184,24.647],[92.17,24.574],[92.105,24.495],[92.109,24.406],[92.033,24.368],[91.95,24.375],[91.896,24.319],[91.907,24.26],[91.878,24.157],[91.814,24.183],[91.81,24.215],[91.734,24.235],[91.734,24.164],[91.666,24.156],[91.623,24.203],[91.598,24.105],[91.558,24.09],[91.479,24.088],[91.403,24.103],[91.349,24.075],[91.338,23.995],[91.292,23.995],[91.252,23.965],[91.216,23.909],[91.227,23.826],[91.194,23.755],[91.14,23.74],[91.14,23.612],[91.194,23.495],[91.22,23.479],[91.277,23.303],[91.299,23.143],[91.338,23.072],[91.374,23.095],[91.356,23.18],[91.36,23.247],[91.414,23.249],[91.464,23.185],[91.504,23.045],[91.536,22.982],[91.576,22.969],[91.695,22.989],[91.796,23.09],[91.778,23.132],[91.745,23.273],[91.792,23.369],[91.835,23.414],[91.889,23.436],[91.94,23.495],[91.943,23.534],[91.914,23.651],[91.936,23.723],[92.004,23.647],[92.044,23.646],[92.109,23.718],[92.152,23.732],[92.181,23.666],[92.22,23.708],[92.26,23.706],[92.253,23.609],[92.292,23.495],[92.296,23.446],[92.346,23.359],[92.357,23.289],[92.332,23.227],[92.328,23.171],[92.354,23.029],[92.354,22.96],[92.379,22.901],[92.426,22.871],[92.444,22.763],[92.498,22.695],[92.501,22.56],[92.519,22.496],[92.577,22.168],[92.537,22.129],[92.577,21.977],[92.66,22.033],[92.67,22.134],[92.706,22.148],[92.771,22.104],[92.854,22.025],[92.98,21.996],[92.966,22.064],[93.023,22.121],[93.023,22.202],[93.12,22.182],[93.124,22.219],[93.171,22.248],[93.167,22.386],[93.117,22.464],[93.099,22.513],[93.106,22.616],[93.07,22.693],[93.081,22.773],[93.16,22.861],[93.178,22.901],[93.142,22.977],[93.138,23.031],[93.196,23.053],[93.246,23.004],[93.3,23.018],[93.376,23.129],[93.383,23.313],[93.405,23.338],[93.401,23.453],[93.434,23.647],[93.426,23.691],[93.376,23.739],[93.354,23.907],[93.308,23.977],[93.311,24.064],[93.369,24.078],[93.441,23.995],[93.455,23.96],[93.614,24.009],[93.743,23.995],[93.804,23.936],[93.884,23.945],[93.999,23.918],[94.056,23.887],[94.1,23.843],[94.132,23.857],[94.146,23.94],[94.19,23.995],[94.233,24.161],[94.283,24.267],[94.294,24.333],[94.33,24.363],[94.362,24.426],[94.362,24.466],[94.398,24.495],[94.409,24.546],[94.474,24.598],[94.517,24.704],[94.571,24.716],[94.6,24.814],[94.654,24.888],[94.672,24.975],[94.708,25.025],[94.715,25.067],[94.69,25.138],[94.578,25.174],[94.55,25.245],[94.607,25.395],[94.661,25.456],[94.766,25.491],[94.87,25.598],[94.96,25.718],[95.01,25.738],[95.014,25.778],[94.992,25.881],[95,25.922],[95.05,25.944],[95.14,26.03],[95.151,26.071],[95.09,26.104],[95.079,26.172],[95.046,26.248],[95.043,26.327],[95.064,26.393],[95.039,26.476],[95.111,26.552],[95.118,26.604],[95.223,26.67],[95.262,26.648],[95.392,26.692],[95.439,26.736],[95.489,26.81],[95.576,26.817],[95.612,26.868],[95.687,26.891],[95.777,26.996],[95.889,27.026],[95.939,27.08],[96.015,27.19],[96.076,27.231],[96.144,27.258],[96.407,27.298],[96.533,27.298],[96.587,27.354],[96.638,27.335],[96.688,27.362],[96.76,27.342],[96.861,27.241],[96.843,27.188],[96.864,27.171],[97.005,27.114],[97.026,27.092],[97.12,27.087],[97.131,27.138],[97.07,27.217],[96.904,27.408],[96.879,27.464],[96.89,27.492],[96.861,27.599],[96.882,27.636],[96.958,27.688],[96.99,27.727],[97.059,27.751],[97.21,27.889],[97.275,27.911],[97.293,27.877],[97.34,27.901],[97.336,27.936],[97.361,27.995],[97.354,28.022],[97.293,28.095],[97.329,28.19],[97.325,28.217],[97.228,28.274],[97.116,28.367],[97.077,28.375],[96.965,28.33],[96.897,28.355],[96.886,28.428],[96.839,28.478],[96.771,28.519],[96.699,28.59],[96.612,28.608],[96.558,28.585],[96.526,28.534],[96.512,28.429],[96.425,28.519],[96.468,28.565],[96.436,28.612],[96.501,28.644],[96.598,28.71],[96.576,28.808],[96.522,28.865],[96.494,28.948],[96.458,28.995],[96.368,29.037],[96.353,29.098],[96.281,29.078],[96.195,29.027],[96.173,29.108],[96.209,29.145],[96.317,29.172],[96.368,29.245],[96.339,29.28],[96.267,29.242],[96.206,29.257],[96.166,29.302],[96.141,29.368],[95.954,29.36],[95.864,29.324],[95.795,29.353],[95.745,29.341],[95.748,29.274],[95.716,29.218],[95.594,29.25],[95.514,29.21],[95.511,29.132],[95.45,29.149],[95.41,29.13],[95.306,29.137],[95.273,29.113],[95.28,29.053],[95.216,29.064],[95.201,29.095],[95.1,29.113],[94.971,29.161],[94.967,29.13],[94.856,29.171],[94.776,29.167],[94.769,29.215],[94.704,29.284],[94.629,29.319],[94.582,29.302],[94.528,29.232],[94.499,29.215],[94.395,29.208],[94.323,29.145],[94.287,29.149],[94.272,29.098],[94.348,29.024],[94.251,28.933],[94.175,28.931],[94.136,28.897],[94.078,28.884],[93.974,28.835],[93.92,28.833],[93.909,28.798],[93.79,28.75],[93.722,28.696],[93.675,28.703],[93.624,28.673],[93.552,28.679],[93.448,28.673],[93.318,28.603],[93.156,28.495],[93.117,28.391],[93.002,28.31],[92.962,28.271],[92.904,28.25],[92.836,28.183],[92.778,28.196],[92.706,28.156],[92.656,28.105],[92.638,28.058],[92.703,28.038],[92.688,27.968],[92.663,27.94],[92.566,27.896],[92.523,27.86],[92.44,27.823],[92.382,27.842],[92.328,27.833],[92.303,27.786],[92.26,27.849],[92.21,27.806],[92.105,27.811],[92.012,27.741],[91.976,27.727],[91.864,27.73],[91.774,27.764],[91.634,27.759],[91.626,27.717],[91.58,27.658],[91.572,27.619],[91.594,27.546],[91.659,27.479],[91.727,27.46],[91.749,27.416],[91.857,27.443],[91.922,27.445],[91.976,27.472],[91.997,27.448],[92.084,27.305],[92.084,27.274],[92.037,27.237],[91.99,27.141],[92.001,27.072],[92.051,27.026],[92.084,26.937],[92.073,26.888],[92.037,26.856],[91.976,26.847],[91.925,26.879],[91.896,26.854],[91.796,26.854],[91.702,26.803],[91.508,26.808],[91.461,26.869],[91.389,26.859],[91.331,26.785],[91.277,26.775],[91.198,26.802],[91.061,26.805],[91.007,26.781],[90.716,26.768],[90.59,26.78],[90.474,26.832],[90.384,26.891],[90.33,26.891],[90.266,26.852],[90.179,26.832],[90.154,26.771],[90.089,26.743],[89.974,26.732],[89.754,26.7],[89.686,26.724],[89.628,26.712],[89.585,26.785],[89.506,26.803],[89.441,26.797],[89.34,26.854],[89.272,26.844],[89.185,26.81],[89.128,26.813],[89.081,26.835],[89.045,26.898],[88.998,26.923],[88.944,26.913],[88.923,26.962],[88.887,26.979],[88.851,26.945],[88.847,27.05],[88.829,27.097],[88.728,27.151],[88.753,27.212],[88.8,27.256],[88.861,27.271],[88.894,27.315],[88.775,27.408],[88.753,27.464],[88.743,27.546],[88.804,27.654],[88.854,27.844],[88.811,27.945],[88.818,27.995],[88.735,28.055],[88.653,28.07],[88.595,28.107],[88.501,28.029],[88.455,28.031],[88.379,27.982],[88.127,27.95],[88.098,27.928],[88.12,27.86],[88.156,27.852],[88.159,27.774],[88.109,27.639],[88.023,27.496],[88.041,27.43],[88.015,27.389],[88.03,27.298],[87.99,27.219],[87.987,27.148],[87.969,27.111],[88.008,27.045],[88.044,27.03],[88.098,26.959],[88.152,26.862],[88.17,26.744],[88.145,26.662],[88.102,26.582],[88.073,26.454],[88.008,26.369],[87.976,26.366],[87.929,26.396],[87.897,26.444],[87.853,26.461],[87.821,26.437],[87.771,26.452],[87.742,26.41],[87.681,26.423],[87.587,26.378],[87.479,26.423],[87.418,26.427],[87.357,26.403],[87.328,26.352],[87.245,26.371],[87.22,26.408],[87.133,26.395],[87.105,26.405],[87.065,26.466],[87.029,26.58],[86.971,26.531],[86.874,26.494],[86.845,26.452],[86.795,26.432],[86.737,26.444],[86.712,26.415],[86.557,26.484],[86.496,26.528],[86.352,26.582],[86.316,26.58],[86.284,26.613],[86.187,26.584],[86.122,26.601],[86.01,26.655],[85.935,26.633],[85.83,26.567],[85.711,26.653],[85.701,26.689],[85.708,26.763],[85.686,26.812],[85.6,26.854],[85.42,26.783],[85.387,26.788],[85.337,26.748],[85.287,26.737],[85.197,26.759],[85.164,26.786],[85.161,26.851],[85.121,26.866],[85.045,26.844],[85.017,26.874],[84.952,26.898],[84.901,26.967],[84.819,27.011],[84.761,26.999],[84.639,27.028],[84.621,27.058],[84.66,27.165],[84.649,27.241],[84.606,27.31],[84.577,27.328],[84.289,27.376],[84.239,27.431],[84.185,27.438],[84.167,27.472],[84.081,27.509],[84.03,27.453],[83.976,27.44],[83.922,27.45],[83.854,27.442],[83.843,27.418],[83.879,27.362],[83.854,27.345],[83.663,27.431],[83.591,27.457],[83.479,27.47],[83.386,27.47],[83.353,27.44],[83.371,27.41],[83.343,27.357],[83.307,27.332],[83.249,27.349],[83.22,27.394],[83.134,27.445],[83.011,27.443],[82.875,27.487],[82.752,27.496],[82.731,27.518],[82.698,27.67],[82.651,27.703],[82.525,27.675],[82.439,27.666],[82.403,27.676],[82.349,27.725],[82.27,27.761],[82.151,27.849],[82.09,27.872],[82.05,27.906],[81.975,27.916],[81.885,27.849],[81.856,27.85],[81.751,27.909],[81.69,27.963],[81.615,27.982],[81.582,28.014],[81.474,28.066],[81.449,28.112],[81.395,28.161],[81.359,28.166],[81.309,28.124],[81.283,28.191],[81.226,28.25],[81.19,28.338],[81.147,28.372],[80.999,28.397],[80.988,28.431],[80.887,28.453],[80.873,28.497],[80.797,28.505],[80.743,28.549],[80.679,28.575],[80.65,28.62],[80.563,28.647],[80.556,28.679],[80.499,28.671],[80.47,28.571],[80.409,28.627],[80.329,28.627],[80.29,28.689],[80.218,28.742],[80.146,28.764],[80.113,28.803],[80.038,28.836],[80.034,28.916],[80.099,28.977],[80.113,29.073],[80.131,29.11],[80.221,29.127],[80.214,29.196],[80.257,29.203],[80.279,29.269],[80.214,29.417],[80.329,29.53],[80.387,29.627],[80.355,29.704],[80.369,29.758],[80.477,29.806],[80.549,29.893],[80.571,29.947],[80.643,29.963],[80.725,30.023],[80.769,30.077],[80.83,30.116],[80.837,30.17],[80.884,30.211],[80.92,30.177],[80.995,30.197],[80.977,30.255],[80.783,30.321],[80.693,30.412],[80.574,30.466],[80.524,30.459],[80.326,30.547],[80.254,30.565],[80.178,30.559],[80.203,30.606],[80.167,30.662],[80.232,30.724],[80.171,30.785],[80.063,30.785],[80.005,30.847],[79.933,30.873],[79.833,30.962],[79.739,30.979],[79.631,30.962],[79.588,30.94],[79.512,30.966],[79.476,31.015],[79.401,31.023],[79.372,31.094],[79.282,31.138],[79.267,31.212],[79.217,31.244],[79.199,31.325],[79.159,31.344],[79.138,31.388],[79.062,31.433],[79.015,31.425],[78.976,31.32],[78.918,31.354],[78.879,31.298],[78.785,31.288],[78.738,31.335],[78.763,31.445],[78.695,31.487],[78.699,31.509],[78.796,31.579],[78.817,31.607],[78.76,31.666],[78.724,31.673],[78.695,31.747],[78.67,31.771],[78.699,31.822],[78.745,31.964],[78.724,31.994],[78.648,32.036],[78.511,32.207],[78.457,32.23],[78.461,32.281],[78.436,32.396],[78.45,32.426],[78.382,32.528],[78.447,32.566],[78.591,32.57],[78.666,32.599],[78.695,32.629],[78.753,32.612],[78.735,32.561],[78.771,32.462],[78.911,32.355],[78.943,32.347],[79.03,32.377],[79.077,32.371],[79.113,32.472],[79.217,32.507],[79.293,32.494],[79.336,32.536],[79.433,32.602],[79.476,32.646],[79.505,32.713],[79.501,32.747],[79.447,32.796],[79.411,32.887],[79.354,32.931],[79.332,32.994],[79.343,33.066],[79.383,33.127],[79.347,33.179],[79.264,33.183],[79.152,33.227],[79.087,33.215],[79.073,33.264],[78.972,33.309],[78.918,33.385],[78.825,33.461],[78.781,33.553],[78.796,33.743],[78.771,33.872],[78.72,33.995],[78.731,34.079],[78.807,34.123],[78.904,34.159],[78.976,34.218],[78.987,34.287],[78.922,34.372],[78.803,34.415],[78.749,34.471],[78.666,34.527],[78.609,34.547],[78.378,34.579],[78.335,34.594],[78.274,34.659],[78.213,34.848],[78.148,34.944],[78.13,35.055],[78.036,35.194],[78,35.268],[78.011,35.348],[78.054,35.452],[78.043,35.491],[77.986,35.494],[77.881,35.43],[77.835,35.452],[77.799,35.496]]],[[[80.967,15.796],[80.887,15.846],[80.869,15.812],[80.941,15.741],[80.985,15.762],[80.967,15.796]]],[[[93.531,8.035],[93.538,8.057],[93.509,8.129],[93.531,8.194],[93.477,8.209],[93.448,8.165],[93.459,8.091],[93.531,8.035]]],[[[93.135,8.241],[93.102,8.276],[93.102,8.346],[93.063,8.335],[93.059,8.291],[93.081,8.243],[93.135,8.241]]],[[[92.811,9.232],[92.764,9.264],[92.714,9.213],[92.71,9.175],[92.732,9.131],[92.8,9.11],[92.832,9.144],[92.832,9.202],[92.811,9.232]]],[[[92.584,10.772],[92.566,10.85],[92.526,10.895],[92.429,10.851],[92.415,10.799],[92.386,10.782],[92.379,10.672],[92.418,10.628],[92.404,10.574],[92.48,10.515],[92.537,10.525],[92.573,10.581],[92.541,10.62],[92.595,10.679],[92.584,10.772]]],[[[92.678,11.412],[92.696,11.454],[92.656,11.508],[92.627,11.478],[92.638,11.431],[92.598,11.402],[92.634,11.358],[92.699,11.385],[92.678,11.412]]],[[[92.267,11.589],[92.231,11.577],[92.235,11.54],[92.285,11.544],[92.267,11.589]]],[[[93.041,11.961],[93.016,12.037],[92.98,12.037],[92.948,11.989],[93.023,11.94],[93.041,11.961]]],[[[92.732,12.972],[92.685,12.945],[92.67,12.868],[92.696,12.839],[92.732,12.895],[92.732,12.972]]],[[[93.052,13.285],[93.027,13.317],[93.059,13.383],[93.052,13.472],[93.066,13.538],[93.041,13.572],[92.944,13.536],[92.944,13.509],[92.894,13.455],[92.886,13.393],[92.84,13.325],[92.865,13.236],[92.843,13.227],[92.85,13.153],[92.807,13.019],[92.836,13.003],[92.814,12.959],[92.8,12.857],[92.764,12.846],[92.739,12.807],[92.753,12.65],[92.721,12.599],[92.717,12.363],[92.753,12.31],[92.793,12.207],[92.721,12.177],[92.721,12.226],[92.681,12.219],[92.645,12.157],[92.642,12.037],[92.62,11.988],[92.631,11.944],[92.613,11.898],[92.562,11.93],[92.534,11.848],[92.566,11.827],[92.559,11.741],[92.606,11.719],[92.62,11.61],[92.656,11.574],[92.688,11.515],[92.728,11.507],[92.764,11.63],[92.76,11.709],[92.796,11.865],[92.789,11.934],[92.739,11.961],[92.771,12.037],[92.757,12.077],[92.8,12.089],[92.829,12.14],[92.894,12.214],[92.879,12.244],[92.901,12.283],[92.879,12.314],[92.901,12.358],[92.865,12.386],[92.847,12.434],[92.94,12.439],[92.991,12.52],[92.991,12.592],[92.973,12.628],[92.991,12.7],[92.958,12.783],[92.966,12.864],[92.93,12.896],[92.876,12.911],[92.933,13.013],[93.02,13.033],[93.052,13.133],[93.056,13.225],[93.081,13.259],[93.052,13.285]]],[[[88.872,21.596],[88.829,21.577],[88.84,21.532],[88.908,21.53],[88.912,21.567],[88.872,21.596]]],[[[88.051,21.706],[88.051,21.641],[88.131,21.626],[88.134,21.685],[88.163,21.706],[88.167,21.765],[88.145,21.869],[88.091,21.809],[88.051,21.706]]],[[[88.635,21.922],[88.584,21.836],[88.591,21.805],[88.645,21.788],[88.671,21.908],[88.635,21.922]]],[[[88.08,21.849],[88.105,21.861],[88.134,21.92],[88.105,21.947],[88.069,21.874],[88.08,21.849]]]]},"properties":{"name":"India"}},
{"type":"Feature","geometry":{"type":"Polygon","coordinates":[[[77.799,35.496],[77.835,35.452],[77.881,35.43],[77.986,35.494],[78.043,35.491],[78.054,35.452],[78.011,35.348],[78,35.268],[78.036,35.194],[78.13,35.055],[78.148,34.944],[78.213,34.848],[78.274,34.659],[78.335,34.594],[78.378,34.579],[78.609,34.547],[78.666,34.527],[78.749,34.471],[78.803,34.415],[78.922,34.372],[78.987,34.287],[78.976,34.218],[78.904,34.159],[78.807,34.123],[78.731,34.079],[78.72,33.995],[78.771,33.872],[78.796,33.743],[78.781,33.553],[78.825,33.461],[78.918,33.385],[78.972,33.309],[79.073,33.264],[79.087,33.215],[79.152,33.227],[79.264,33.183],[79.347,33.179],[79.383,33.127],[79.343,33.066],[79.332,32.994],[79.354,32.931],[79.411,32.887],[79.447,32.796],[79.501,32.747],[79.505,32.713],[79.476,32.646],[79.433,32.602],[79.336,32.536],[79.293,32.494],[79.217,32.507],[79.113,32.472],[79.077,32.371],[79.03,32.377],[78.943,32.347],[78.911,32.355],[78.771,32.462],[78.735,32.561],[78.753,32.612],[78.695,32.629],[78.666,32.599],[78.591,32.57],[78.447,32.566],[78.382,32.528],[78.45,32.426],[78.436,32.396],[78.461,32.281],[78.457,32.23],[78.511,32.207],[78.648,32.036],[78.724,31.994],[78.745,31.964],[78.699,31.822],[78.67,31.771],[78.695,31.747],[78.724,31.673],[78.76,31.666],[78.817,31.607],[78.796,31.579],[78.699,31.509],[78.695,31.487],[78.763,31.445],[78.738,31.335],[78.785,31.288],[78.879,31.298],[78.918,31.354],[78.976,31.32],[79.015,31.425],[79.062,31.433],[79.138,31.388],[79.159,31.344],[79.199,31.325],[79.217,31.244],[79.267,31.212],[79.282,31.138],[79.372,31.094],[79.401,31.023],[79.476,31.015],[79.512,30.966],[79.588,30.94],[79.631,30.962],[79.739,30.979],[79.833,30.962],[79.933,30.873],[80.005,30.847],[80.063,30.785],[80.171,30.785],[80.232,30.724],[80.167,30.662],[80.203,30.606],[80.178,30.559],[80.254,30.565],[80.326,30.547],[80.524,30.459],[80.574,30.466],[80.693,30.412],[80.783,30.321],[80.977,30.255],[80.995,30.197],[81.021,30.172],[81.096,30.017],[81.147,30.023],[81.219,30.008],[81.226,30.05],[81.273,30.079],[81.276,30.132],[81.352,30.157],[81.377,30.241],[81.37,30.317],[81.388,30.375],[81.427,30.373],[81.481,30.332],[81.615,30.417],[81.78,30.358],[81.845,30.371],[81.942,30.354],[81.967,30.329],[82.072,30.338],[82.093,30.314],[82.083,30.256],[82.097,30.214],[82.155,30.182],[82.126,30.125],[82.144,30.069],[82.212,30.064],[82.255,30.04],[82.32,30.032],[82.396,30.003],[82.475,29.946],[82.543,29.924],[82.619,29.839],[82.687,29.828],[82.691,29.78],[82.752,29.74],[82.835,29.66],[82.9,29.689],[82.975,29.664],[83.08,29.579],[83.101,29.618],[83.163,29.625],[83.253,29.556],[83.245,29.495],[83.263,29.473],[83.328,29.485],[83.357,29.416],[83.436,29.306],[83.505,29.26],[83.515,29.191],[83.584,29.162],[83.656,29.161],[83.674,29.21],[83.721,29.233],[83.793,29.235],[83.933,29.292],[84.012,29.27],[84.034,29.248],[84.091,29.257],[84.113,29.21],[84.156,29.206],[84.131,29.144],[84.167,29.098],[84.174,29.058],[84.232,29.026],[84.207,28.941],[84.235,28.901],[84.286,28.874],[84.354,28.862],[84.423,28.799],[84.451,28.733],[84.606,28.698],[84.682,28.651],[84.678,28.605],[84.736,28.595],[84.801,28.546],[84.919,28.536],[84.955,28.575],[85.056,28.639],[85.168,28.583],[85.157,28.532],[85.078,28.436],[85.081,28.318],[85.11,28.293],[85.175,28.304],[85.243,28.267],[85.301,28.281],[85.344,28.261],[85.431,28.298],[85.477,28.279],[85.542,28.281],[85.611,28.25],[85.675,28.306],[85.733,28.222],[85.848,28.159],[85.891,28.082],[85.909,28.022],[85.956,27.977],[85.953,27.916],[85.981,27.886],[86.075,27.894],[86.115,27.926],[86.079,28.001],[86.068,28.077],[86.154,28.156],[86.187,28.109],[86.172,28.071],[86.205,28.002],[86.277,27.984],[86.327,27.94],[86.363,27.947],[86.439,27.911],[86.496,27.938],[86.543,28.093],[86.611,28.08],[86.662,28.107],[86.719,28.088],[86.741,28.021],[86.842,28.014],[86.914,27.945],[87.007,27.952],[87.115,27.845],[87.155,27.827],[87.234,27.83],[87.292,27.816],[87.335,27.847],[87.385,27.805],[87.533,27.837],[87.573,27.805],[87.619,27.82],[87.727,27.808],[87.781,27.84],[87.825,27.906],[87.936,27.896],[87.965,27.882],[88.03,27.894],[88.12,27.86],[88.098,27.928],[88.127,27.95],[88.379,27.982],[88.455,28.031],[88.501,28.029],[88.595,28.107],[88.653,28.07],[88.735,28.055],[88.818,27.995],[88.811,27.945],[88.854,27.844],[88.804,27.654],[88.743,27.546],[88.753,27.464],[88.775,27.408],[88.894,27.315],[88.915,27.33],[88.973,27.312],[88.998,27.33],[88.951,27.433],[88.984,27.492],[88.977,27.531],[89.063,27.616],[89.121,27.619],[89.2,27.73],[89.225,27.808],[89.301,27.844],[89.369,27.909],[89.459,28.048],[89.517,28.082],[89.56,28.134],[89.718,28.169],[89.754,28.185],[89.779,28.229],[89.862,28.296],[89.916,28.316],[89.952,28.308],[90.071,28.345],[90.176,28.325],[90.226,28.359],[90.262,28.335],[90.291,28.261],[90.33,28.256],[90.356,28.299],[90.456,28.283],[90.507,28.25],[90.59,28.234],[90.597,28.2],[90.55,28.158],[90.485,28.126],[90.474,28.073],[90.575,28.066],[90.683,28.087],[90.726,28.061],[90.91,28.033],[91.007,27.967],[91.094,27.972],[91.176,28.058],[91.27,28.073],[91.418,27.995],[91.601,27.96],[91.652,27.916],[91.626,27.83],[91.634,27.759],[91.774,27.764],[91.864,27.73],[91.976,27.727],[92.012,27.741],[92.105,27.811],[92.21,27.806],[92.26,27.849],[92.303,27.786],[92.328,27.833],[92.382,27.842],[92.44,27.823],[92.523,27.86],[92.566,27.896],[92.663,27.94],[92.688,27.968],[92.703,28.038],[92.638,28.058],[92.656,28.105],[92.706,28.156],[92.778,28.196],[92.836,28.183],[92.904,28.25],[92.962,28.271],[93.002,28.31],[93.117,28.391],[93.156,28.495],[93.318,28.603],[93.448,28.673],[93.552,28.679],[93.624,28.673],[93.675,28.703],[93.722,28.696],[93.79,28.75],[93.909,28.798],[93.92,28.833],[93.974,28.835],[94.078,28.884],[94.136,28.897],[94.175,28.931],[94.251,28.933],[94.348,29.024],[94.272,29.098],[94.287,29.149],[94.323,29.145],[94.395,29.208],[94.499,29.215],[94.528,29.232],[94.582,29.302],[94.629,29.319],[94.704,29.284],[94.769,29.215],[94.776,29.167],[94.856,29.171],[94.967,29.13],[94.971,29.161],[95.1,29.113],[95.201,29.095],[95.216,29.064],[95.28,29.053],[95.273,29.113],[95.306,29.137],[95.41,29.13],[95.45,29.149],[95.511,29.132],[95.514,29.21],[95.594,29.25],[95.716,29.218],[95.748,29.274],[95.745,29.341],[95.795,29.353],[95.864,29.324],[95.954,29.36],[96.141,29.368],[96.166,29.302],[96.206,29.257],[96.267,29.242],[96.339,29.28],[96.368,29.245],[96.317,29.172],[96.209,29.145],[96.173,29.108],[96.195,29.027],[96.281,29.078],[96.353,29.098],[96.368,29.037],[96.458,28.995],[96.494,28.948],[96.522,28.865],[96.576,28.808],[96.598,28.71],[96.501,28.644],[96.436,28.612],[96.468,28.565],[96.425,28.519],[96.512,28.429],[96.526,28.534],[96.558,28.585],[96.612,28.608],[96.699,28.59],[96.771,28.519],[96.839,28.478],[96.886,28.428],[96.897,28.355],[96.965,28.33],[97.077,28.375],[97.116,28.367],[97.228,28.274],[97.325,28.217],[97.397,28.289],[97.451,28.318],[97.444,28.382],[97.473,28.414],[97.527,28.529],[97.545,28.539],[97.613,28.482],[97.671,28.51],[97.7,28.489],[97.739,28.382],[97.797,28.343],[97.858,28.37],[97.898,28.355],[97.944,28.299],[97.98,28.281],[97.991,28.213],[98.049,28.2],[98.128,28.124],[98.121,28.016],[98.106,27.974],[98.15,27.945],[98.178,27.898],[98.146,27.86],[98.196,27.823],[98.204,27.727],[98.24,27.68],[98.294,27.536],[98.366,27.533],[98.394,27.587],[98.402,27.676],[98.492,27.644],[98.542,27.643],[98.564,27.604],[98.636,27.61],[98.682,27.556],[98.668,27.475],[98.675,27.386],[98.697,27.369],[98.704,27.305],[98.679,27.237],[98.672,27.175],[98.69,27.092],[98.733,27.068],[98.711,26.996],[98.736,26.908],[98.715,26.862],[98.751,26.771],[98.733,26.734],[98.754,26.624],[98.722,26.538],[98.718,26.408],[98.708,26.371],[98.657,26.312],[98.646,26.244],[98.679,26.239],[98.7,26.19],[98.682,26.125],[98.643,26.098],[98.625,26.145],[98.564,26.131],[98.546,26.089],[98.574,26.035],[98.582,25.983],[98.618,25.979],[98.693,25.88],[98.679,25.843],[98.61,25.8],[98.528,25.839],[98.463,25.795],[98.412,25.692],[98.376,25.65],[98.358,25.593],[98.312,25.557],[98.139,25.611],[98.135,25.535],[98.099,25.5],[98.114,25.449],[98.11,25.388],[98.074,25.376],[98.034,25.301],[97.977,25.272],[97.93,25.218],[97.89,25.206],[97.862,25.245],[97.8,25.238],[97.779,25.159],[97.739,25.091],[97.7,25.066],[97.707,24.927],[97.772,24.855],[97.75,24.826],[97.685,24.833],[97.642,24.818],[97.538,24.745],[97.538,24.598],[97.512,24.461],[97.52,24.431],[97.638,24.439],[97.689,24.346],[97.646,24.303],[97.718,24.277],[97.703,24.2],[97.725,24.171],[97.707,24.125],[97.516,23.943],[97.617,23.875],[97.696,23.887],[97.746,23.934],[97.818,23.958],[97.89,24.022],[98.106,24.102],[98.182,24.119],[98.294,24.1],[98.348,24.105],[98.394,24.129],[98.502,24.122],[98.585,24.076],[98.715,24.122],[98.819,24.129],[98.866,24.144],[98.855,24.083],[98.718,23.988],[98.657,23.961],[98.672,23.816],[98.664,23.798],[98.794,23.759],[98.801,23.693],[98.848,23.615],[98.844,23.583],[98.783,23.548],[98.808,23.473],[98.848,23.48],[98.891,23.408],[98.895,23.323],[98.909,23.298],[98.859,23.212],[98.859,23.18],[99.028,23.161],[99.075,23.102],[99.129,23.107],[99.201,23.092],[99.226,23.056],[99.352,23.119],[99.402,23.068],[99.478,23.067],[99.489,23.012],[99.539,22.926],[99.485,22.909],[99.431,22.937],[99.417,22.874],[99.359,22.774],[99.309,22.746],[99.309,22.72],[99.356,22.609],[99.345,22.533],[99.359,22.496],[99.284,22.411],[99.244,22.393],[99.244,22.34],[99.219,22.31],[99.201,22.246],[99.165,22.205],[99.165,22.133],[99.251,22.102],[99.366,22.099],[99.438,22.124],[99.489,22.104],[99.539,22.107],[99.633,22.085],[99.683,22.038],[99.741,22.067],[99.82,22.018],[99.867,22.058],[99.942,22.045],[99.939,22.006],[99.964,21.962],[99.921,21.852],[99.921,21.812],[99.95,21.721],[99.996,21.687],[100.083,21.685],[100.148,21.65],[100.115,21.63],[100.086,21.567],[100.097,21.508],[100.162,21.437],[100.187,21.429],[100.288,21.483],[100.328,21.525],[100.385,21.528],[100.457,21.456],[100.547,21.452],[100.623,21.469],[100.706,21.516],[100.796,21.626],[100.835,21.658],[100.976,21.704],[101.084,21.766],[101.12,21.76],[101.127,21.695],[101.163,21.658],[101.174,21.613],[101.159,21.552],[101.188,21.535],[101.17,21.403],[101.235,21.364],[101.206,21.315],[101.21,21.246],[101.26,21.179],[101.292,21.175],[101.361,21.216],[101.494,21.243],[101.584,21.224],[101.595,21.174],[101.656,21.189],[101.703,21.135],[101.768,21.15],[101.76,21.196],[101.814,21.209],[101.822,21.248],[101.735,21.292],[101.714,21.321],[101.728,21.474],[101.75,21.515],[101.75,21.579],[101.793,21.589],[101.804,21.626],[101.757,21.648],[101.728,21.717],[101.753,21.807],[101.685,21.898],[101.674,21.932],[101.606,21.967],[101.602,22.008],[101.555,22.091],[101.562,22.177],[101.516,22.246],[101.552,22.276],[101.602,22.276],[101.624,22.347],[101.645,22.364],[101.645,22.425],[101.688,22.479],[101.757,22.496],[101.786,22.472],[101.818,22.406],[101.868,22.379],[101.89,22.43],[102.016,22.447],[102.084,22.43],[102.12,22.398],[102.164,22.425],[102.218,22.411],[102.254,22.496],[102.376,22.616],[102.362,22.678],[102.408,22.693],[102.426,22.746],[102.466,22.769],[102.516,22.746],[102.534,22.695],[102.588,22.715],[102.632,22.685],[102.693,22.67],[102.75,22.626],[102.833,22.6],[102.902,22.477],[102.988,22.438],[103.046,22.44],[103.046,22.486],[103.143,22.538],[103.143,22.607],[103.229,22.656],[103.308,22.788],[103.359,22.776],[103.402,22.737],[103.409,22.675],[103.485,22.584],[103.514,22.587],[103.546,22.631],[103.546,22.7],[103.589,22.768],[103.647,22.8],[103.726,22.717],[103.794,22.66],[103.866,22.575],[103.96,22.508],[103.985,22.528],[103.989,22.585],[104.025,22.719],[104.072,22.783],[104.212,22.825],[104.248,22.729],[104.342,22.687],[104.45,22.746],[104.554,22.837],[104.684,22.812],[104.716,22.827],[104.774,22.896],[104.824,22.925],[104.828,22.955],[104.799,23.085],[104.86,23.119],[104.871,23.163],[104.946,23.159],[105.047,23.227],[105.216,23.266],[105.234,23.32],[105.292,23.367],[105.375,23.281],[105.432,23.267],[105.472,23.195],[105.53,23.156],[105.54,23.075],[105.566,23.055],[105.692,23.045],[105.756,23.006],[105.854,22.904],[105.875,22.928],[105.944,22.928],[106,22.975],[106,38],[74.89,38],[74.883,37.843],[74.951,37.796],[74.965,37.767],[74.886,37.654],[74.893,37.598],[74.944,37.548],[75.037,37.507],[75.131,37.418],[75.091,37.379],[75.07,37.311],[74.933,37.273],[74.911,37.239],[74.814,37.215],[74.782,37.22],[74.746,37.288],[74.721,37.298],[74.623,37.23],[74.591,37.244],[74.487,37.225],[74.443,37.171],[74.368,37.168],[74.382,37.127],[74.476,37.083],[74.544,37.021],[74.677,37.051],[74.721,37.016],[74.793,37.016],[74.861,36.947],[74.944,36.977],[75.099,36.994],[75.196,36.948],[75.315,36.928],[75.379,36.894],[75.412,36.747],[75.491,36.72],[75.509,36.747],[75.57,36.766],[75.649,36.754],[75.79,36.688],[75.876,36.619],[75.977,36.462],[75.988,36.421],[75.97,36.302],[76.013,36.248],[75.97,36.202],[75.977,36.163],[75.901,36.114],[75.901,36.064],[75.952,36.008],[76.06,35.991],[76.114,35.942],[76.139,35.827],[76.189,35.805],[76.261,35.819],[76.312,35.81],[76.402,35.83],[76.431,35.861],[76.564,35.866],[76.549,35.783],[76.571,35.751],[76.675,35.714],[76.744,35.655],[76.776,35.646],[76.845,35.641],[76.895,35.589],[76.935,35.579],[77.039,35.586],[77.14,35.525],[77.251,35.53],[77.305,35.518],[77.352,35.486],[77.413,35.469],[77.511,35.479],[77.662,35.457],[77.748,35.494],[77.799,35.496]]]},"properties":{"name":"China"}},
{"type":"Feature","geometry":{"type":"MultiPolygon","coordinates":[[[[74,33.179],[74,30.505],[74.058,30.532],[74.058,30.591],[74.094,30.636],[74.163,30.665],[74.191,30.717],[74.267,30.795],[74.328,30.9],[74.4,30.893],[74.458,30.954],[74.519,30.962],[74.566,31.005],[74.58,31.043],[74.659,31.084],[74.616,31.116],[74.551,31.109],[74.508,31.156],[74.533,31.303],[74.573,31.39],[74.613,31.44],[74.616,31.477],[74.584,31.518],[74.555,31.612],[74.49,31.71],[74.537,31.776],[74.566,31.84],[74.67,31.905],[74.699,31.95],[74.764,31.938],[74.803,31.969],[74.829,32.026],[74.969,32.038],[75.041,32.099],[75.102,32.078],[75.196,32.129],[75.293,32.149],[75.307,32.193],[75.358,32.263],[75.325,32.313],[75.232,32.381],[75.127,32.411],[75.023,32.467],[74.908,32.445],[74.839,32.475],[74.724,32.46],[74.663,32.499],[74.631,32.588],[74.656,32.641],[74.656,32.745],[74.681,32.788],[74.652,32.837],[74.595,32.757],[74.523,32.745],[74.418,32.784],[74.368,32.764],[74.307,32.81],[74.335,32.848],[74.321,32.972],[74.285,33.009],[74.191,33.022],[74.155,33.041],[74.098,33.105],[74,33.179]]],[[[74,33.632],[74,33.269],[74.098,33.328],[74.159,33.493],[74.141,33.549],[74,33.632]]],[[[74,34.01],[74,33.794],[74.033,33.828],[74.141,33.845],[74.213,33.878],[74.263,33.929],[74.26,33.995],[74.227,34.014],[74.119,34.002],[74.065,34.019],[74,34.01]]],[[[77.05,35.111],[76.776,35.646],[76.744,35.655],[76.675,35.714],[76.571,35.751],[76.549,35.783],[76.564,35.866],[76.431,35.861],[76.402,35.83],[76.312,35.81],[76.261,35.819],[76.189,35.805],[76.139,35.827],[76.114,35.942],[76.06,35.991],[75.952,36.008],[75.901,36.064],[75.901,36.114],[75.977,36.163],[75.97,36.202],[76.013,36.248],[75.97,36.302],[75.988,36.421],[75.977,36.462],[75.876,36.619],[75.79,36.688],[75.649,36.754],[75.57,36.766],[75.509,36.747],[75.491,36.72],[75.412,36.747],[75.379,36.894],[75.315,36.928],[75.196,36.948],[75.099,36.994],[74.944,36.977],[74.861,36.947],[74.793,37.016],[74.721,37.016],[74.677,37.051],[74.544,37.021],[74.537,36.962],[74.483,36.994],[74.393,36.994],[74.213,36.896],[74.116,36.889],[74.094,36.832],[74,36.817],[74,34.674],[74.119,34.691],[74.22,34.748],[74.285,34.768],[74.411,34.765],[74.667,34.689],[75.019,34.63],[75.214,34.645],[75.268,34.598],[75.347,34.557],[75.613,34.498],[75.797,34.508],[75.873,34.571],[75.973,34.623],[76.006,34.665],[76.06,34.684],[76.121,34.66],[76.261,34.684],[76.398,34.751],[76.477,34.758],[76.553,34.726],[76.654,34.746],[76.744,34.819],[76.758,34.915],[76.852,34.944],[76.92,34.92],[77.014,34.986],[77.035,35.035],[77.025,35.086],[77.05,35.111]]]]},"properties":{"name":"Pakistan"}},
{"type":"Feature","geometry":{"type":"Polygon","coordinates":[[[91.634,27.759],[91.626,27.83],[91.652,27.916],[91.601,27.96],[91.418,27.995],[91.27,28.073],[91.176,28.058],[91.094,27.972],[91.007,27.967],[90.91,28.033],[90.726,28.061],[90.683,28.087],[90.575,28.066],[90.474,28.073],[90.485,28.126],[90.55,28.158],[90.597,28.2],[90.59,28.234],[90.507,28.25],[90.456,28.283],[90.356,28.299],[90.33,28.256],[90.291,28.261],[90.262,28.335],[90.226,28.359],[90.176,28.325],[90.071,28.345],[89.952,28.308],[89.916,28.316],[89.862,28.296],[89.779,28.229],[89.754,28.185],[89.718,28.169],[89.56,28.134],[89.517,28.082],[89.459,28.048],[89.369,27.909],[89.301,27.844],[89.225,27.808],[89.2,27.73],[89.121,27.619],[89.063,27.616],[88.977,27.531],[88.984,27.492],[88.951,27.433],[88.998,27.33],[88.973,27.312],[88.915,27.33],[88.894,27.315],[88.861,27.271],[88.8,27.256],[88.753,27.212],[88.728,27.151],[88.829,27.097],[88.847,27.05],[88.851,26.945],[88.887,26.979],[88.923,26.962],[88.944,26.913],[88.998,26.923],[89.045,26.898],[89.081,26.835],[89.128,26.813],[89.185,26.81],[89.272,26.844],[89.34,26.854],[89.441,26.797],[89.506,26.803],[89.585,26.785],[89.628,26.712],[89.686,26.724],[89.754,26.7],[89.974,26.732],[90.089,26.743],[90.154,26.771],[90.179,26.832],[90.266,26.852],[90.33,26.891],[90.384,26.891],[90.474,26.832],[90.59,26.78],[90.716,26.768],[91.007,26.781],[91.061,26.805],[91.198,26.802],[91.277,26.775],[91.331,26.785],[91.389,26.859],[91.461,26.869],[91.508,26.808],[91.702,26.803],[91.796,26.854],[91.896,26.854],[91.925,26.879],[91.976,26.847],[92.037,26.856],[92.073,26.888],[92.084,26.937],[92.051,27.026],[92.001,27.072],[91.99,27.141],[92.037,27.237],[92.084,27.274],[92.084,27.305],[91.997,27.448],[91.976,27.472],[91.922,27.445],[91.857,27.443],[91.749,27.416],[91.727,27.46],[91.659,27.479],[91.594,27.546],[91.572,27.619],[91.58,27.658],[91.626,27.717],[91.634,27.759]]]},"properties":{"name":"Bhutan"}},
{"type":"Feature","geometry":{"type":"Polygon","coordinates":[[[102.12,22.398],[102.084,22.43],[102.016,22.447],[101.89,22.43],[101.868,22.379],[101.818,22.406],[101.786,22.472],[101.757,22.496],[101.688,22.479],[101.645,22.425],[101.645,22.364],[101.624,22.347],[101.602,22.276],[101.552,22.276],[101.516,22.246],[101.562,22.177],[101.555,22.091],[101.602,22.008],[101.606,21.967],[101.674,21.932],[101.685,21.898],[101.753,21.807],[101.728,21.717],[101.757,21.648],[101.804,21.626],[101.793,21.589],[101.75,21.579],[101.75,21.515],[101.728,21.474],[101.714,21.321],[101.735,21.292],[101.822,21.248],[101.814,21.209],[101.76,21.196],[101.768,21.15],[101.703,21.135],[101.656,21.189],[101.595,21.174],[101.584,21.224],[101.494,21.243],[101.361,21.216],[101.292,21.175],[101.26,21.179],[101.21,21.246],[101.206,21.315],[101.235,21.364],[101.17,21.403],[101.188,21.535],[101.159,21.552],[101.145,21.513],[101.004,21.407],[100.911,21.359],[100.864,21.324],[100.792,21.297],[100.724,21.294],[100.688,21.16],[100.637,21.069],[100.608,21.044],[100.544,21.027],[100.558,20.991],[100.529,20.968],[100.515,20.887],[100.533,20.875],[100.623,20.888],[100.652,20.876],[100.569,20.817],[100.515,20.807],[100.385,20.833],[100.331,20.785],[100.292,20.775],[100.212,20.697],[100.18,20.638],[100.148,20.549],[100.122,20.388],[100.101,20.318],[100.115,20.248],[100.169,20.253],[100.166,20.292],[100.209,20.312],[100.22,20.35],[100.27,20.392],[100.306,20.4],[100.364,20.368],[100.421,20.25],[100.468,20.186],[100.511,20.155],[100.547,20.159],[100.544,20.066],[100.475,19.865],[100.432,19.838],[100.378,19.745],[100.407,19.699],[100.418,19.634],[100.457,19.585],[100.461,19.537],[100.522,19.502],[100.565,19.495],[100.634,19.542],[100.731,19.505],[100.745,19.485],[100.81,19.536],[100.86,19.603],[100.976,19.613],[101.026,19.603],[101.094,19.568],[101.177,19.575],[101.21,19.59],[101.253,19.561],[101.253,19.495],[101.192,19.453],[101.177,19.418],[101.177,19.347],[101.202,19.338],[101.231,19.225],[101.228,19.144],[101.292,19.08],[101.325,19.021],[101.285,18.982],[101.267,18.935],[101.224,18.875],[101.228,18.796],[101.21,18.712],[101.235,18.658],[101.159,18.6],[101.156,18.556],[101.076,18.511],[101.03,18.428],[101.084,18.364],[101.156,18.323],[101.127,18.246],[101.159,18.203],[101.145,18.105],[101.166,18.053],[101.112,18.011],[101.066,17.933],[101.008,17.894],[101.001,17.83],[100.965,17.798],[100.958,17.707],[100.932,17.655],[100.886,17.596],[100.904,17.562],[100.983,17.548],[101.066,17.493],[101.13,17.46],[101.166,17.511],[101.202,17.523],[101.246,17.592],[101.454,17.751],[101.555,17.791],[101.577,17.84],[101.634,17.894],[101.728,17.913],[101.764,18.04],[101.789,18.073],[101.883,18.031],[101.904,18.038],[102.077,18.214],[102.153,18.21],[102.192,18.153],[102.257,18.094],[102.336,18.036],[102.365,18.04],[102.412,17.994],[102.48,17.97],[102.567,17.97],[102.599,17.955],[102.614,17.915],[102.596,17.851],[102.66,17.813],[102.686,17.874],[102.722,17.883],[102.851,17.972],[102.938,18.009],[103.02,17.984],[103.074,18.036],[103.071,18.126],[103.128,18.151],[103.168,18.249],[103.287,18.281],[103.29,18.305],[103.233,18.355],[103.262,18.401],[103.308,18.426],[103.398,18.442],[103.452,18.425],[103.55,18.416],[103.708,18.35],[103.802,18.339],[103.859,18.286],[103.884,18.286],[103.953,18.333],[104.018,18.3],[104.068,18.215],[104.111,18.114],[104.212,18.009],[104.277,17.864],[104.352,17.82],[104.406,17.741],[104.421,17.7],[104.482,17.641],[104.637,17.562],[104.716,17.514],[104.756,17.45],[104.792,17.423],[104.82,17.349],[104.81,17.172],[104.745,17.025],[104.748,16.91],[104.766,16.868],[104.756,16.799],[104.777,16.694],[104.752,16.614],[104.748,16.549],[104.766,16.511],[104.856,16.454],[104.907,16.353],[105.008,16.284],[105.026,16.258],[105.033,16.165],[105.08,16.106],[105.238,16.05],[105.288,16.047],[105.404,16.018],[105.364,15.954],[105.371,15.882],[105.422,15.784],[105.447,15.765],[105.504,15.767],[105.569,15.75],[105.641,15.682],[105.652,15.635],[105.616,15.522],[105.605,15.439],[105.486,15.375],[105.497,15.324],[105.558,15.324],[105.558,15.27],[105.504,15.232],[105.454,15.176],[105.443,15.112],[105.522,15.051],[105.584,14.978],[105.533,14.934],[105.49,14.764],[105.504,14.737],[105.497,14.659],[105.508,14.565],[105.422,14.435],[105.335,14.386],[105.288,14.394],[105.267,14.364],[105.184,14.345],[105.188,14.291],[105.256,14.183],[105.35,14.105],[105.45,14.117],[105.533,14.164],[105.67,14.1],[105.746,14.087],[105.789,14.011],[105.872,13.936],[105.9,13.923],[106,13.927],[106,14.297],[105.972,14.321],[106,14.36],[106,17.417],[105.846,17.597],[105.789,17.643],[105.735,17.665],[105.645,17.82],[105.594,17.888],[105.605,17.964],[105.566,18.008],[105.548,18.058],[105.512,18.084],[105.468,18.181],[105.393,18.195],[105.382,18.163],[105.321,18.17],[105.296,18.195],[105.292,18.252],[105.234,18.249],[105.216,18.278],[105.155,18.32],[105.162,18.366],[105.09,18.426],[105.08,18.455],[105.112,18.582],[105.162,18.599],[105.17,18.631],[105.112,18.698],[105.065,18.696],[104.99,18.734],[104.921,18.735],[104.9,18.771],[104.817,18.774],[104.709,18.796],[104.687,18.825],[104.63,18.842],[104.543,18.908],[104.482,18.978],[104.399,18.992],[104.356,19.048],[104.302,19.068],[104.259,19.103],[104.201,19.108],[104.198,19.147],[104.147,19.183],[104.036,19.23],[103.974,19.225],[103.91,19.264],[103.856,19.318],[103.906,19.342],[103.942,19.382],[104.039,19.414],[104.061,19.472],[104.09,19.483],[104.072,19.559],[104.028,19.586],[103.996,19.652],[104.021,19.681],[104.09,19.652],[104.136,19.688],[104.23,19.706],[104.295,19.656],[104.381,19.686],[104.414,19.651],[104.507,19.603],[104.622,19.618],[104.662,19.711],[104.738,19.745],[104.806,19.791],[104.817,19.848],[104.759,19.862],[104.781,19.909],[104.856,19.954],[104.874,19.983],[104.921,19.981],[104.954,20.009],[104.943,20.068],[104.957,20.091],[104.903,20.135],[104.907,20.176],[104.82,20.221],[104.691,20.196],[104.658,20.213],[104.658,20.28],[104.68,20.341],[104.612,20.377],[104.576,20.414],[104.432,20.41],[104.36,20.439],[104.424,20.495],[104.446,20.535],[104.496,20.512],[104.543,20.535],[104.608,20.62],[104.601,20.66],[104.475,20.718],[104.453,20.763],[104.388,20.772],[104.27,20.897],[104.226,20.892],[104.194,20.93],[104.057,20.959],[104.01,20.909],[103.964,20.903],[103.784,20.846],[103.751,20.78],[103.755,20.743],[103.701,20.709],[103.715,20.672],[103.665,20.659],[103.578,20.733],[103.496,20.748],[103.452,20.804],[103.362,20.787],[103.247,20.831],[103.197,20.827],[103.128,20.854],[103.085,20.902],[102.999,21.057],[102.952,21.069],[102.894,21.216],[102.812,21.273],[102.876,21.305],[102.884,21.388],[102.916,21.439],[102.894,21.494],[102.974,21.576],[102.959,21.633],[102.963,21.702],[102.948,21.738],[102.866,21.706],[102.837,21.716],[102.826,21.822],[102.79,21.82],[102.776,21.707],[102.722,21.662],[102.65,21.658],[102.628,21.729],[102.635,21.788],[102.592,21.901],[102.477,21.957],[102.484,22.021],[102.423,22.062],[102.39,22.118],[102.286,22.2],[102.225,22.229],[102.153,22.305],[102.12,22.398]]]},"properties":{"name":"Laos"}},
{"type":"Feature","geometry":{"type":"MultiPolygon","coordinates":[[[[98.747,10.35],[98.722,10.228],[98.661,10.085],[98.603,9.994],[98.589,9.906],[98.549,9.884],[98.513,9.837],[98.567,9.742],[98.546,9.706],[98.495,9.686],[98.513,9.651],[98.47,9.62],[98.488,9.58],[98.456,9.548],[98.427,9.433],[98.398,9.379],[98.384,9.316],[98.351,9.251],[98.369,9.227],[98.322,9.19],[98.384,9.072],[98.33,9.051],[98.366,8.974],[98.326,8.975],[98.261,8.85],[98.254,8.766],[98.225,8.736],[98.24,8.641],[98.2,8.535],[98.243,8.406],[98.261,8.313],[98.294,8.215],[98.358,8.185],[98.391,8.136],[98.445,8.175],[98.463,8.215],[98.445,8.325],[98.528,8.337],[98.6,8.374],[98.625,8.346],[98.621,8.293],[98.704,8.298],[98.744,8.215],[98.744,8.087],[98.776,8.023],[98.801,8.052],[98.844,8.003],[98.916,8.052],[98.962,8],[100.329,8],[100.302,8.119],[100.27,8.317],[100.22,8.449],[100.176,8.427],[100.158,8.386],[100.112,8.413],[100.04,8.545],[99.986,8.58],[99.96,8.638],[99.921,8.955],[99.932,9.012],[99.921,9.087],[99.885,9.158],[99.878,9.227],[99.852,9.294],[99.802,9.323],[99.78,9.308],[99.69,9.316],[99.593,9.274],[99.521,9.269],[99.503,9.22],[99.474,9.202],[99.377,9.193],[99.352,9.219],[99.255,9.232],[99.23,9.32],[99.255,9.357],[99.323,9.391],[99.266,9.467],[99.222,9.543],[99.219,9.582],[99.172,9.666],[99.143,9.788],[99.168,9.845],[99.158,9.99],[99.176,10.043],[99.15,10.103],[99.201,10.211],[99.24,10.215],[99.158,10.303],[99.15,10.357],[99.201,10.379],[99.233,10.343],[99.276,10.357],[99.287,10.412],[99.248,10.444],[99.244,10.536],[99.287,10.563],[99.302,10.632],[99.327,10.664],[99.377,10.686],[99.374,10.711],[99.435,10.802],[99.438,10.861],[99.51,10.902],[99.492,10.968],[99.514,11.019],[99.492,11.115],[99.514,11.172],[99.546,11.199],[99.586,11.196],[99.568,11.255],[99.568,11.334],[99.626,11.441],[99.636,11.505],[99.669,11.577],[99.752,11.709],[99.816,11.741],[99.809,11.814],[99.838,11.844],[99.824,11.878],[99.856,11.969],[99.957,12.072],[99.993,12.163],[100.022,12.192],[100.011,12.241],[99.982,12.28],[100.011,12.383],[99.982,12.454],[99.982,12.54],[99.96,12.626],[99.964,12.71],[99.989,12.79],[100.025,12.847],[100.043,12.933],[100.104,13.057],[100.076,13.153],[99.968,13.259],[99.964,13.31],[100.007,13.334],[100.054,13.413],[100.238,13.477],[100.274,13.516],[100.338,13.482],[100.428,13.489],[100.554,13.511],[100.59,13.555],[100.68,13.509],[100.749,13.501],[100.889,13.469],[100.95,13.469],[100.986,13.418],[100.983,13.359],[100.932,13.339],[100.911,13.293],[100.947,13.2],[100.878,13.099],[100.907,13.075],[100.932,13.003],[100.896,12.974],[100.864,12.92],[100.907,12.854],[100.922,12.81],[100.893,12.763],[100.868,12.771],[100.839,12.707],[100.85,12.673],[100.94,12.636],[100.979,12.64],[101.087,12.68],[101.249,12.66],[101.325,12.643],[101.418,12.596],[101.465,12.633],[101.566,12.631],[101.58,12.653],[101.66,12.66],[101.685,12.702],[101.768,12.705],[101.85,12.655],[101.886,12.597],[101.933,12.584],[101.973,12.542],[102.009,12.535],[102.056,12.469],[102.074,12.489],[102.128,12.42],[102.228,12.324],[102.264,12.358],[102.214,12.4],[102.264,12.43],[102.286,12.386],[102.282,12.341],[102.315,12.292],[102.264,12.271],[102.29,12.194],[102.336,12.197],[102.473,12.148],[102.531,12.114],[102.581,12.049],[102.556,12.184],[102.603,12.204],[102.632,12.152],[102.75,12.04],[102.768,12.011],[102.776,11.903],[102.826,11.858],[102.772,12.037],[102.7,12.138],[102.693,12.179],[102.714,12.342],[102.765,12.417],[102.75,12.449],[102.704,12.481],[102.664,12.535],[102.56,12.631],[102.502,12.65],[102.477,12.719],[102.506,12.8],[102.484,12.844],[102.466,12.969],[102.491,12.996],[102.401,13.102],[102.329,13.273],[102.333,13.565],[102.513,13.567],[102.581,13.6],[102.542,13.649],[102.574,13.693],[102.7,13.762],[102.772,13.936],[102.869,14.021],[102.876,14.071],[102.912,14.132],[102.934,14.201],[102.988,14.218],[103.085,14.296],[103.139,14.32],[103.272,14.352],[103.362,14.353],[103.424,14.386],[103.456,14.374],[103.55,14.423],[103.596,14.404],[103.647,14.445],[103.672,14.396],[103.776,14.367],[103.838,14.364],[103.902,14.342],[103.92,14.365],[103.974,14.367],[104,14.345],[104.111,14.38],[104.14,14.365],[104.172,14.396],[104.201,14.379],[104.248,14.401],[104.324,14.377],[104.46,14.357],[104.482,14.372],[104.543,14.36],[104.594,14.409],[104.727,14.409],[104.77,14.44],[104.838,14.411],[104.975,14.38],[104.975,14.301],[105.008,14.244],[105.047,14.213],[105.101,14.23],[105.155,14.33],[105.184,14.345],[105.267,14.364],[105.288,14.394],[105.335,14.386],[105.422,14.435],[105.508,14.565],[105.497,14.659],[105.504,14.737],[105.49,14.764],[105.533,14.934],[105.584,14.978],[105.522,15.051],[105.443,15.112],[105.454,15.176],[105.504,15.232],[105.558,15.27],[105.558,15.324],[105.497,15.324],[105.486,15.375],[105.605,15.439],[105.616,15.522],[105.652,15.635],[105.641,15.682],[105.569,15.75],[105.504,15.767],[105.447,15.765],[105.422,15.784],[105.371,15.882],[105.364,15.954],[105.404,16.018],[105.288,16.047],[105.238,16.05],[105.08,16.106],[105.033,16.165],[105.026,16.258],[105.008,16.284],[104.907,16.353],[104.856,16.454],[104.766,16.511],[104.748,16.549],[104.752,16.614],[104.777,16.694],[104.756,16.799],[104.766,16.868],[104.748,16.91],[104.745,17.025],[104.81,17.172],[104.82,17.349],[104.792,17.423],[104.756,17.45],[104.716,17.514],[104.637,17.562],[104.482,17.641],[104.421,17.7],[104.406,17.741],[104.352,17.82],[104.277,17.864],[104.212,18.009],[104.111,18.114],[104.068,18.215],[104.018,18.3],[103.953,18.333],[103.884,18.286],[103.859,18.286],[103.802,18.339],[103.708,18.35],[103.55,18.416],[103.452,18.425],[103.398,18.442],[103.308,18.426],[103.262,18.401],[103.233,18.355],[103.29,18.305],[103.287,18.281],[103.168,18.249],[103.128,18.151],[103.071,18.126],[103.074,18.036],[103.02,17.984],[102.938,18.009],[102.851,17.972],[102.722,17.883],[102.686,17.874],[102.66,17.813],[102.596,17.851],[102.614,17.915],[102.599,17.955],[102.567,17.97],[102.48,17.97],[102.412,17.994],[102.365,18.04],[102.336,18.036],[102.257,18.094],[102.192,18.153],[102.153,18.21],[102.077,18.214],[101.904,18.038],[101.883,18.031],[101.789,18.073],[101.764,18.04],[101.728,17.913],[101.634,17.894],[101.577,17.84],[101.555,17.791],[101.454,17.751],[101.246,17.592],[101.202,17.523],[101.166,17.511],[101.13,17.46],[101.066,17.493],[100.983,17.548],[100.904,17.562],[100.886,17.596],[100.932,17.655],[100.958,17.707],[100.965,17.798],[101.001,17.83],[101.008,17.894],[101.066,17.933],[101.112,18.011],[101.166,18.053],[101.145,18.105],[101.159,18.203],[101.127,18.246],[101.156,18.323],[101.084,18.364],[101.03,18.428],[101.076,18.511],[101.156,18.556],[101.159,18.6],[101.235,18.658],[101.21,18.712],[101.228,18.796],[101.224,18.875],[101.267,18.935],[101.285,18.982],[101.325,19.021],[101.292,19.08],[101.228,19.144],[101.231,19.225],[101.202,19.338],[101.177,19.347],[101.177,19.418],[101.192,19.453],[101.253,19.495],[101.253,19.561],[101.21,19.59],[101.177,19.575],[101.094,19.568],[101.026,19.603],[100.976,19.613],[100.86,19.603],[100.81,19.536],[100.745,19.485],[100.731,19.505],[100.634,19.542],[100.565,19.495],[100.522,19.502],[100.461,19.537],[100.457,19.585],[100.418,19.634],[100.407,19.699],[100.378,19.745],[100.432,19.838],[100.475,19.865],[100.544,20.066],[100.547,20.159],[100.511,20.155],[100.468,20.186],[100.421,20.25],[100.364,20.368],[100.306,20.4],[100.27,20.392],[100.22,20.35],[100.209,20.312],[100.166,20.292],[100.169,20.253],[100.115,20.248],[100.101,20.318],[100.036,20.373],[99.986,20.387],[99.939,20.446],[99.838,20.417],[99.806,20.35],[99.651,20.307],[99.503,20.345],[99.453,20.377],[99.485,20.245],[99.525,20.196],[99.51,20.152],[99.442,20.101],[99.294,20.063],[99.237,20.103],[99.179,20.122],[99.118,20.118],[99.035,20.074],[99.017,20.041],[98.999,19.907],[99.01,19.846],[98.988,19.799],[98.884,19.745],[98.866,19.774],[98.808,19.806],[98.751,19.764],[98.643,19.745],[98.592,19.705],[98.531,19.676],[98.477,19.706],[98.441,19.688],[98.308,19.689],[98.236,19.664],[98.214,19.718],[98.171,19.732],[98.11,19.777],[98.016,19.789],[98.006,19.723],[98.009,19.639],[97.84,19.556],[97.844,19.48],[97.768,19.397],[97.782,19.336],[97.808,19.301],[97.768,19.257],[97.815,19.191],[97.811,19.112],[97.728,19.038],[97.71,18.98],[97.656,18.926],[97.725,18.852],[97.721,18.818],[97.761,18.622],[97.746,18.572],[97.617,18.553],[97.509,18.49],[97.426,18.489],[97.451,18.333],[97.527,18.266],[97.559,18.328],[97.638,18.306],[97.628,18.22],[97.682,18.153],[97.7,18.085],[97.754,17.981],[97.685,17.881],[97.718,17.769],[97.75,17.739],[97.768,17.68],[97.934,17.531],[97.984,17.506],[98.049,17.391],[98.088,17.373],[98.092,17.312],[98.222,17.2],[98.294,17.108],[98.312,17.052],[98.42,17.03],[98.51,16.893],[98.495,16.831],[98.506,16.79],[98.474,16.777],[98.456,16.723],[98.499,16.662],[98.567,16.591],[98.564,16.552],[98.632,16.462],[98.628,16.403],[98.657,16.302],[98.682,16.273],[98.729,16.329],[98.79,16.375],[98.819,16.456],[98.884,16.407],[98.902,16.363],[98.884,16.258],[98.837,16.189],[98.837,16.145],[98.808,16.111],[98.679,16.126],[98.657,16.116],[98.618,16.05],[98.549,16.034],[98.585,15.976],[98.567,15.92],[98.578,15.855],[98.542,15.735],[98.542,15.601],[98.567,15.453],[98.56,15.355],[98.531,15.348],[98.474,15.383],[98.398,15.356],[98.376,15.296],[98.283,15.291],[98.232,15.226],[98.178,15.221],[98.189,15.179],[98.164,15.125],[98.168,15.083],[98.2,15.051],[98.196,14.978],[98.222,14.921],[98.222,14.865],[98.243,14.804],[98.297,14.722],[98.42,14.607],[98.452,14.527],[98.477,14.517],[98.549,14.377],[98.592,14.321],[98.672,14.267],[98.708,14.271],[98.754,14.2],[98.873,14.112],[98.945,14.07],[98.952,14.028],[99.006,13.95],[99.093,13.864],[99.107,13.762],[99.154,13.715],[99.15,13.582],[99.19,13.408],[99.172,13.288],[99.186,13.251],[99.172,13.2],[99.114,13.188],[99.093,13.038],[99.165,12.976],[99.154,12.905],[99.183,12.822],[99.204,12.803],[99.226,12.717],[99.273,12.694],[99.345,12.616],[99.395,12.591],[99.406,12.508],[99.392,12.445],[99.42,12.383],[99.431,12.297],[99.449,12.278],[99.474,12.187],[99.467,12.126],[99.521,12.145],[99.546,12.131],[99.518,12.027],[99.575,11.976],[99.554,11.895],[99.593,11.843],[99.629,11.826],[99.608,11.726],[99.532,11.631],[99.449,11.615],[99.438,11.517],[99.377,11.436],[99.363,11.377],[99.316,11.321],[99.302,11.28],[99.255,11.219],[99.212,11.108],[99.15,11.047],[99.093,11.013],[99.057,10.946],[99.003,10.958],[98.981,10.929],[98.988,10.875],[98.974,10.824],[98.891,10.809],[98.862,10.767],[98.83,10.764],[98.765,10.689],[98.747,10.623],[98.772,10.595],[98.79,10.52],[98.747,10.35]]],[[[98.542,8.106],[98.531,8.089],[98.582,8],[98.61,8],[98.603,8.064],[98.542,8.106]]],[[[98.282,8],[98.42,8],[98.438,8.065],[98.358,8.119],[98.322,8.178],[98.283,8.192],[98.29,8.109],[98.276,8.075],[98.282,8]]],[[[98.639,8.172],[98.574,8.124],[98.621,8.091],[98.639,8.172]]],[[[98.297,9.146],[98.247,9.144],[98.24,9.05],[98.294,9.041],[98.322,9.077],[98.297,9.146]]],[[[100.068,9.587],[100.043,9.565],[99.96,9.582],[99.928,9.566],[99.928,9.494],[99.946,9.418],[100.025,9.43],[100.061,9.463],[100.086,9.575],[100.068,9.587]]],[[[100.036,9.796],[99.989,9.801],[99.971,9.771],[100,9.71],[100.09,9.666],[100.068,9.776],[100.036,9.796]]],[[[102.563,11.707],[102.531,11.68],[102.563,11.596],[102.592,11.618],[102.606,11.684],[102.563,11.707]]],[[[102.401,12.043],[102.344,12.123],[102.311,12.146],[102.257,12.131],[102.293,12.057],[102.293,11.995],[102.351,11.969],[102.38,12.003],[102.426,11.961],[102.444,11.984],[102.401,12.043]]],[[[98.29,9.004],[98.261,9.012],[98.25,8.918],[98.272,8.877],[98.312,8.979],[98.29,9.004]]]]},"properties":{"name":"Thailand"}},
{"type":"Feature","geometry":{"type":"MultiPolygon","coordinates":[[[[92.577,21.977],[92.595,21.886],[92.577,21.734],[92.591,21.496],[92.602,21.42],[92.642,21.309],[92.634,21.282],[92.57,21.248],[92.523,21.361],[92.465,21.359],[92.39,21.376],[92.368,21.435],[92.321,21.462],[92.285,21.418],[92.235,21.417],[92.213,21.354],[92.184,21.317],[92.184,21.221],[92.174,21.175],[92.224,21.093],[92.264,21.06],[92.282,20.959],[92.307,20.917],[92.382,20.701],[92.462,20.654],[92.508,20.61],[92.541,20.527],[92.634,20.446],[92.696,20.309],[92.739,20.28],[92.732,20.383],[92.739,20.444],[92.814,20.505],[92.832,20.48],[92.84,20.39],[92.901,20.307],[92.865,20.301],[92.786,20.247],[92.771,20.201],[92.868,20.122],[92.897,20.135],[92.937,20.211],[93.016,20.324],[93.02,20.257],[93.002,20.24],[92.976,20.088],[93.048,19.995],[93.059,19.951],[93.106,19.931],[93.11,19.993],[93.149,19.995],[93.218,19.836],[93.236,19.846],[93.178,19.958],[93.156,20.027],[93.189,20.064],[93.246,20.049],[93.293,20.054],[93.34,20.101],[93.354,20.039],[93.405,20.014],[93.412,19.978],[93.459,19.954],[93.495,19.978],[93.52,19.939],[93.61,19.907],[93.707,19.917],[93.606,19.796],[93.635,19.735],[93.693,19.725],[93.732,19.678],[93.74,19.617],[93.923,19.463],[93.984,19.465],[93.988,19.387],[93.952,19.321],[93.866,19.254],[93.797,19.235],[93.722,19.269],[93.718,19.294],[93.664,19.306],[93.61,19.404],[93.531,19.433],[93.491,19.407],[93.484,19.35],[93.498,19.315],[93.596,19.176],[93.642,19.134],[93.671,19.066],[93.75,18.97],[93.815,18.945],[93.866,18.896],[93.909,18.882],[93.974,18.923],[93.984,18.957],[93.952,19.033],[93.948,19.139],[94.031,19.154],[94.028,19.095],[94.067,19.043],[94.038,18.985],[94.053,18.936],[94.031,18.889],[94.053,18.842],[94.136,18.82],[94.182,18.786],[94.211,18.725],[94.15,18.73],[94.254,18.627],[94.262,18.545],[94.28,18.48],[94.33,18.426],[94.352,18.376],[94.391,18.362],[94.416,18.313],[94.388,18.286],[94.341,18.306],[94.341,18.247],[94.424,18.242],[94.438,18.183],[94.492,18.072],[94.492,18.026],[94.449,17.974],[94.485,17.903],[94.503,17.786],[94.553,17.727],[94.557,17.682],[94.596,17.616],[94.553,17.543],[94.586,17.303],[94.517,17.288],[94.51,17.231],[94.539,17.187],[94.485,17.141],[94.485,17.106],[94.456,17.05],[94.463,16.95],[94.424,16.902],[94.38,16.886],[94.402,16.831],[94.362,16.685],[94.341,16.549],[94.272,16.538],[94.272,16.466],[94.258,16.388],[94.236,16.361],[94.236,16.273],[94.215,16.157],[94.208,16.044],[94.24,15.976],[94.348,16.007],[94.362,16.049],[94.427,16.074],[94.506,16.189],[94.517,16.287],[94.575,16.272],[94.6,16.294],[94.665,16.258],[94.686,16.165],[94.665,16.079],[94.564,15.963],[94.614,15.944],[94.704,16.02],[94.704,15.983],[94.6,15.92],[94.658,15.855],[94.704,15.848],[94.737,15.868],[94.787,15.963],[94.834,15.949],[94.848,15.863],[94.892,15.828],[94.859,15.782],[94.938,15.763],[94.982,15.767],[95.036,15.806],[95.054,15.846],[95.075,15.998],[95.072,16.074],[95.136,16.101],[95.097,16.025],[95.136,16.007],[95.115,15.855],[95.144,15.789],[95.212,15.787],[95.252,15.868],[95.298,15.904],[95.313,15.866],[95.284,15.838],[95.288,15.74],[95.374,15.714],[95.417,15.723],[95.525,15.804],[95.666,15.949],[95.691,16.002],[95.691,16.049],[95.756,16.145],[95.799,16.145],[95.817,16.175],[95.882,16.209],[95.979,16.223],[96.069,16.311],[96.224,16.344],[96.285,16.366],[96.335,16.439],[96.245,16.555],[96.231,16.587],[96.242,16.65],[96.206,16.697],[96.195,16.743],[96.234,16.777],[96.234,16.697],[96.288,16.567],[96.357,16.518],[96.436,16.478],[96.558,16.496],[96.616,16.518],[96.681,16.576],[96.717,16.658],[96.8,16.738],[96.85,16.861],[96.821,16.908],[96.879,16.935],[96.911,17.025],[96.911,17.067],[96.857,17.168],[96.85,17.212],[96.911,17.285],[96.911,17.317],[96.85,17.359],[96.864,17.403],[97.07,17.251],[97.113,17.101],[97.156,17.087],[97.199,16.998],[97.185,16.922],[97.232,16.797],[97.239,16.733],[97.286,16.658],[97.336,16.631],[97.372,16.483],[97.422,16.523],[97.476,16.518],[97.548,16.538],[97.674,16.533],[97.638,16.478],[97.624,16.395],[97.649,16.284],[97.62,16.125],[97.57,16.062],[97.581,16.008],[97.638,15.949],[97.714,15.888],[97.728,15.843],[97.718,15.75],[97.736,15.726],[97.743,15.605],[97.775,15.532],[97.761,15.49],[97.793,15.407],[97.725,15.34],[97.739,15.275],[97.808,15.174],[97.808,15.031],[97.815,14.95],[97.793,14.88],[97.815,14.852],[97.844,14.737],[97.905,14.71],[97.887,14.656],[97.926,14.614],[97.912,14.586],[97.984,14.419],[97.995,14.33],[98.11,14.132],[98.063,14.011],[98.085,13.918],[98.11,13.903],[98.11,13.791],[98.081,13.769],[98.103,13.702],[98.16,13.69],[98.178,13.732],[98.2,13.869],[98.182,13.925],[98.2,13.992],[98.232,14.002],[98.232,13.918],[98.254,13.798],[98.243,13.713],[98.301,13.702],[98.297,13.671],[98.337,13.621],[98.358,13.563],[98.394,13.543],[98.427,13.491],[98.427,13.442],[98.463,13.408],[98.459,13.356],[98.499,13.249],[98.578,13.187],[98.585,13.016],[98.614,12.954],[98.589,12.92],[98.636,12.879],[98.65,12.797],[98.672,12.761],[98.661,12.722],[98.664,12.646],[98.625,12.559],[98.682,12.526],[98.69,12.496],[98.628,12.493],[98.607,12.418],[98.7,12.364],[98.675,12.315],[98.567,12.292],[98.538,12.241],[98.596,12.194],[98.639,12.224],[98.697,12.241],[98.711,12.204],[98.628,12.131],[98.636,12.091],[98.704,12.037],[98.722,11.964],[98.69,11.954],[98.632,11.878],[98.65,11.831],[98.603,11.804],[98.61,11.731],[98.686,11.682],[98.711,11.736],[98.744,11.763],[98.805,11.736],[98.816,11.677],[98.751,11.682],[98.718,11.532],[98.754,11.522],[98.765,11.468],[98.715,11.442],[98.726,11.333],[98.758,11.268],[98.726,11.157],[98.657,11.132],[98.708,11.098],[98.722,11.046],[98.693,11.008],[98.722,10.981],[98.708,10.912],[98.636,10.914],[98.582,10.882],[98.6,10.806],[98.564,10.728],[98.463,10.73],[98.463,10.63],[98.495,10.558],[98.495,10.453],[98.528,10.365],[98.513,10.262],[98.488,10.198],[98.513,10.147],[98.52,10.029],[98.542,9.987],[98.589,10.043],[98.643,10.156],[98.697,10.223],[98.718,10.313],[98.747,10.35],[98.79,10.52],[98.772,10.595],[98.747,10.623],[98.765,10.689],[98.83,10.764],[98.862,10.767],[98.891,10.809],[98.974,10.824],[98.988,10.875],[98.981,10.929],[99.003,10.958],[99.057,10.946],[99.093,11.013],[99.15,11.047],[99.212,11.108],[99.255,11.219],[99.302,11.28],[99.316,11.321],[99.363,11.377],[99.377,11.436],[99.438,11.517],[99.449,11.615],[99.532,11.631],[99.608,11.726],[99.629,11.826],[99.593,11.843],[99.554,11.895],[99.575,11.976],[99.518,12.027],[99.546,12.131],[99.521,12.145],[99.467,12.126],[99.474,12.187],[99.449,12.278],[99.431,12.297],[99.42,12.383],[99.392,12.445],[99.406,12.508],[99.395,12.591],[99.345,12.616],[99.273,12.694],[99.226,12.717],[99.204,12.803],[99.183,12.822],[99.154,12.905],[99.165,12.976],[99.093,13.038],[99.114,13.188],[99.172,13.2],[99.186,13.251],[99.172,13.288],[99.19,13.408],[99.15,13.582],[99.154,13.715],[99.107,13.762],[99.093,13.864],[99.006,13.95],[98.952,14.028],[98.945,14.07],[98.873,14.112],[98.754,14.2],[98.708,14.271],[98.672,14.267],[98.592,14.321],[98.549,14.377],[98.477,14.517],[98.452,14.527],[98.42,14.607],[98.297,14.722],[98.243,14.804],[98.222,14.865],[98.222,14.921],[98.196,14.978],[98.2,15.051],[98.168,15.083],[98.164,15.125],[98.189,15.179],[98.178,15.221],[98.232,15.226],[98.283,15.291],[98.376,15.296],[98.398,15.356],[98.474,15.383],[98.531,15.348],[98.56,15.355],[98.567,15.453],[98.542,15.601],[98.542,15.735],[98.578,15.855],[98.567,15.92],[98.585,15.976],[98.549,16.034],[98.618,16.05],[98.657,16.116],[98.679,16.126],[98.808,16.111],[98.837,16.145],[98.837,16.189],[98.884,16.258],[98.902,16.363],[98.884,16.407],[98.819,16.456],[98.79,16.375],[98.729,16.329],[98.682,16.273],[98.657,16.302],[98.628,16.403],[98.632,16.462],[98.564,16.552],[98.567,16.591],[98.499,16.662],[98.456,16.723],[98.474,16.777],[98.506,16.79],[98.495,16.831],[98.51,16.893],[98.42,17.03],[98.312,17.052],[98.294,17.108],[98.222,17.2],[98.092,17.312],[98.088,17.373],[98.049,17.391],[97.984,17.506],[97.934,17.531],[97.768,17.68],[97.75,17.739],[97.718,17.769],[97.685,17.881],[97.754,17.981],[97.7,18.085],[97.682,18.153],[97.628,18.22],[97.638,18.306],[97.559,18.328],[97.527,18.266],[97.451,18.333],[97.426,18.489],[97.509,18.49],[97.617,18.553],[97.746,18.572],[97.761,18.622],[97.721,18.818],[97.725,18.852],[97.656,18.926],[97.71,18.98],[97.728,19.038],[97.811,19.112],[97.815,19.191],[97.768,19.257],[97.808,19.301],[97.782,19.336],[97.768,19.397],[97.844,19.48],[97.84,19.556],[98.009,19.639],[98.006,19.723],[98.016,19.789],[98.11,19.777],[98.171,19.732],[98.214,19.718],[98.236,19.664],[98.308,19.689],[98.441,19.688],[98.477,19.706],[98.531,19.676],[98.592,19.705],[98.643,19.745],[98.751,19.764],[98.808,19.806],[98.866,19.774],[98.884,19.745],[98.988,19.799],[99.01,19.846],[98.999,19.907],[99.017,20.041],[99.035,20.074],[99.118,20.118],[99.179,20.122],[99.237,20.103],[99.294,20.063],[99.442,20.101],[99.51,20.152],[99.525,20.196],[99.485,20.245],[99.453,20.377],[99.503,20.345],[99.651,20.307],[99.806,20.35],[99.838,20.417],[99.939,20.446],[99.986,20.387],[100.036,20.373],[100.101,20.318],[100.122,20.388],[100.148,20.549],[100.18,20.638],[100.212,20.697],[100.292,20.775],[100.331,20.785],[100.385,20.833],[100.515,20.807],[100.569,20.817],[100.652,20.876],[100.623,20.888],[100.533,20.875],[100.515,20.887],[100.529,20.968],[100.558,20.991],[100.544,21.027],[100.608,21.044],[100.637,21.069],[100.688,21.16],[100.724,21.294],[100.792,21.297],[100.864,21.324],[100.911,21.359],[101.004,21.407],[101.145,21.513],[101.159,21.552],[101.174,21.613],[101.163,21.658],[101.127,21.695],[101.12,21.76],[101.084,21.766],[100.976,21.704],[100.835,21.658],[100.796,21.626],[100.706,21.516],[100.623,21.469],[100.547,21.452],[100.457,21.456],[100.385,21.528],[100.328,21.525],[100.288,21.483],[100.187,21.429],[100.162,21.437],[100.097,21.508],[100.086,21.567],[100.115,21.63],[100.148,21.65],[100.083,21.685],[99.996,21.687],[99.95,21.721],[99.921,21.812],[99.921,21.852],[99.964,21.962],[99.939,22.006],[99.942,22.045],[99.867,22.058],[99.82,22.018],[99.741,22.067],[99.683,22.038],[99.633,22.085],[99.539,22.107],[99.489,22.104],[99.438,22.124],[99.366,22.099],[99.251,22.102],[99.165,22.133],[99.165,22.205],[99.201,22.246],[99.219,22.31],[99.244,22.34],[99.244,22.393],[99.284,22.411],[99.359,22.496],[99.345,22.533],[99.356,22.609],[99.309,22.72],[99.309,22.746],[99.359,22.774],[99.417,22.874],[99.431,22.937],[99.485,22.909],[99.539,22.926],[99.489,23.012],[99.478,23.067],[99.402,23.068],[99.352,23.119],[99.226,23.056],[99.201,23.092],[99.129,23.107],[99.075,23.102],[99.028,23.161],[98.859,23.18],[98.859,23.212],[98.909,23.298],[98.895,23.323],[98.891,23.408],[98.848,23.48],[98.808,23.473],[98.783,23.548],[98.844,23.583],[98.848,23.615],[98.801,23.693],[98.794,23.759],[98.664,23.798],[98.672,23.816],[98.657,23.961],[98.718,23.988],[98.855,24.083],[98.866,24.144],[98.819,24.129],[98.715,24.122],[98.585,24.076],[98.502,24.122],[98.394,24.129],[98.348,24.105],[98.294,24.1],[98.182,24.119],[98.106,24.102],[97.89,24.022],[97.818,23.958],[97.746,23.934],[97.696,23.887],[97.617,23.875],[97.516,23.943],[97.707,24.125],[97.725,24.171],[97.703,24.2],[97.718,24.277],[97.646,24.303],[97.689,24.346],[97.638,24.439],[97.52,24.431],[97.512,24.461],[97.538,24.598],[97.538,24.745],[97.642,24.818],[97.685,24.833],[97.75,24.826],[97.772,24.855],[97.707,24.927],[97.7,25.066],[97.739,25.091],[97.779,25.159],[97.8,25.238],[97.862,25.245],[97.89,25.206],[97.93,25.218],[97.977,25.272],[98.034,25.301],[98.074,25.376],[98.11,25.388],[98.114,25.449],[98.099,25.5],[98.135,25.535],[98.139,25.611],[98.312,25.557],[98.358,25.593],[98.376,25.65],[98.412,25.692],[98.463,25.795],[98.528,25.839],[98.61,25.8],[98.679,25.843],[98.693,25.88],[98.618,25.979],[98.582,25.983],[98.574,26.035],[98.546,26.089],[98.564,26.131],[98.625,26.145],[98.643,26.098],[98.682,26.125],[98.7,26.19],[98.679,26.239],[98.646,26.244],[98.657,26.312],[98.708,26.371],[98.718,26.408],[98.722,26.538],[98.754,26.624],[98.733,26.734],[98.751,26.771],[98.715,26.862],[98.736,26.908],[98.711,26.996],[98.733,27.068],[98.69,27.092],[98.672,27.175],[98.679,27.237],[98.704,27.305],[98.697,27.369],[98.675,27.386],[98.668,27.475],[98.682,27.556],[98.636,27.61],[98.564,27.604],[98.542,27.643],[98.492,27.644],[98.402,27.676],[98.394,27.587],[98.366,27.533],[98.294,27.536],[98.24,27.68],[98.204,27.727],[98.196,27.823],[98.146,27.86],[98.178,27.898],[98.15,27.945],[98.106,27.974],[98.121,28.016],[98.128,28.124],[98.049,28.2],[97.991,28.213],[97.98,28.281],[97.944,28.299],[97.898,28.355],[97.858,28.37],[97.797,28.343],[97.739,28.382],[97.7,28.489],[97.671,28.51],[97.613,28.482],[97.545,28.539],[97.527,28.529],[97.473,28.414],[97.444,28.382],[97.451,28.318],[97.397,28.289],[97.325,28.217],[97.329,28.19],[97.293,28.095],[97.354,28.022],[97.361,27.995],[97.336,27.936],[97.34,27.901],[97.293,27.877],[97.275,27.911],[97.21,27.889],[97.059,27.751],[96.99,27.727],[96.958,27.688],[96.882,27.636],[96.861,27.599],[96.89,27.492],[96.879,27.464],[96.904,27.408],[97.07,27.217],[97.131,27.138],[97.12,27.087],[97.026,27.092],[97.005,27.114],[96.864,27.171],[96.843,27.188],[96.861,27.241],[96.76,27.342],[96.688,27.362],[96.638,27.335],[96.587,27.354],[96.533,27.298],[96.407,27.298],[96.144,27.258],[96.076,27.231],[96.015,27.19],[95.939,27.08],[95.889,27.026],[95.777,26.996],[95.687,26.891],[95.612,26.868],[95.576,26.817],[95.489,26.81],[95.439,26.736],[95.392,26.692],[95.262,26.648],[95.223,26.67],[95.118,26.604],[95.111,26.552],[95.039,26.476],[95.064,26.393],[95.043,26.327],[95.046,26.248],[95.079,26.172],[95.09,26.104],[95.151,26.071],[95.14,26.03],[95.05,25.944],[95,25.922],[94.992,25.881],[95.014,25.778],[95.01,25.738],[94.96,25.718],[94.87,25.598],[94.766,25.491],[94.661,25.456],[94.607,25.395],[94.55,25.245],[94.578,25.174],[94.69,25.138],[94.715,25.067],[94.708,25.025],[94.672,24.975],[94.654,24.888],[94.6,24.814],[94.571,24.716],[94.517,24.704],[94.474,24.598],[94.409,24.546],[94.398,24.495],[94.362,24.466],[94.362,24.426],[94.33,24.363],[94.294,24.333],[94.283,24.267],[94.233,24.161],[94.19,23.995],[94.146,23.94],[94.132,23.857],[94.1,23.843],[94.056,23.887],[93.999,23.918],[93.884,23.945],[93.804,23.936],[93.743,23.995],[93.614,24.009],[93.455,23.96],[93.441,23.995],[93.369,24.078],[93.311,24.064],[93.308,23.977],[93.354,23.907],[93.376,23.739],[93.426,23.691],[93.434,23.647],[93.401,23.453],[93.405,23.338],[93.383,23.313],[93.376,23.129],[93.3,23.018],[93.246,23.004],[93.196,23.053],[93.138,23.031],[93.142,22.977],[93.178,22.901],[93.16,22.861],[93.081,22.773],[93.07,22.693],[93.106,22.616],[93.099,22.513],[93.117,22.464],[93.167,22.386],[93.171,22.248],[93.124,22.219],[93.12,22.182],[93.023,22.202],[93.023,22.121],[92.966,22.064],[92.98,21.996],[92.854,22.025],[92.771,22.104],[92.706,22.148],[92.67,22.134],[92.66,22.033],[92.577,21.977]]],[[[98.297,10.049],[98.254,10.063],[98.171,10.009],[98.128,9.96],[98.121,9.862],[98.146,9.857],[98.193,9.931],[98.243,9.96],[98.297,10.049]]],[[[98.186,10.122],[98.232,10.144],[98.196,10.193],[98.171,10.149],[98.186,10.122]]],[[[98.495,10.892],[98.51,10.787],[98.542,10.796],[98.542,10.86],[98.495,10.892]]],[[[97.89,10.885],[97.908,10.856],[97.952,10.919],[97.912,10.924],[97.89,10.885]]],[[[98.268,10.838],[98.232,10.87],[98.222,10.927],[98.193,10.971],[98.153,10.981],[98.085,10.904],[98.099,10.882],[98.157,10.924],[98.218,10.86],[98.243,10.814],[98.232,10.708],[98.268,10.696],[98.29,10.728],[98.268,10.838]]],[[[98.279,11.8],[98.268,11.741],[98.232,11.667],[98.189,11.535],[98.211,11.473],[98.276,11.481],[98.308,11.777],[98.279,11.8]]],[[[98.535,11.804],[98.438,11.787],[98.394,11.794],[98.38,11.691],[98.42,11.631],[98.434,11.567],[98.528,11.581],[98.549,11.621],[98.546,11.699],[98.556,11.77],[98.535,11.804]]],[[[98.056,11.701],[98.052,11.777],[98.006,11.761],[98.056,11.701]]],[[[98.603,11.968],[98.56,12.001],[98.51,12.016],[98.474,12.077],[98.43,12.101],[98.441,12.015],[98.474,11.978],[98.459,11.947],[98.477,11.892],[98.517,11.897],[98.574,11.932],[98.603,11.968]]],[[[98.096,12.187],[98.124,12.249],[98.11,12.285],[98.074,12.29],[98.034,12.221],[98.096,12.187]]],[[[98.067,12.366],[98.103,12.405],[98.078,12.427],[98.013,12.359],[98.006,12.401],[97.941,12.366],[97.955,12.305],[98.049,12.331],[98.067,12.366]]],[[[98.513,12.496],[98.488,12.493],[98.474,12.425],[98.51,12.41],[98.513,12.496]]],[[[98.254,12.567],[98.229,12.516],[98.261,12.496],[98.29,12.526],[98.254,12.567]]],[[[98.466,12.584],[98.398,12.587],[98.405,12.64],[98.333,12.672],[98.301,12.646],[98.319,12.501],[98.337,12.45],[98.301,12.337],[98.351,12.325],[98.391,12.361],[98.456,12.457],[98.47,12.518],[98.466,12.584]]],[[[98.297,13.085],[98.268,13.198],[98.24,13.139],[98.268,13.057],[98.301,13.03],[98.337,13.074],[98.297,13.085]]],[[[94.827,15.932],[94.805,15.931],[94.726,15.812],[94.805,15.797],[94.838,15.865],[94.827,15.932]]],[[[94.661,16.221],[94.611,16.221],[94.517,16.12],[94.485,16.059],[94.391,16.002],[94.384,15.969],[94.416,15.871],[94.499,15.98],[94.571,16.005],[94.629,16.076],[94.668,16.172],[94.661,16.221]]],[[[97.588,16.415],[97.606,16.483],[97.52,16.511],[97.458,16.478],[97.451,16.449],[97.48,16.39],[97.484,16.343],[97.458,16.302],[97.509,16.255],[97.516,16.209],[97.57,16.223],[97.57,16.299],[97.592,16.361],[97.588,16.415]]],[[[93.747,18.799],[93.743,18.872],[93.664,18.874],[93.621,18.911],[93.578,18.882],[93.484,18.875],[93.498,18.842],[93.596,18.73],[93.668,18.675],[93.732,18.69],[93.758,18.732],[93.747,18.799]]],[[[93.97,19.418],[93.88,19.48],[93.819,19.472],[93.754,19.522],[93.732,19.554],[93.689,19.559],[93.642,19.492],[93.668,19.446],[93.718,19.428],[93.732,19.369],[93.786,19.286],[93.866,19.282],[93.966,19.363],[93.97,19.418]]],[[[93.506,19.808],[93.506,19.872],[93.455,19.929],[93.401,19.953],[93.441,19.811],[93.513,19.745],[93.506,19.808]]],[[[92.966,20.037],[92.948,20.071],[92.908,20.066],[92.987,19.926],[92.966,20.037]]]]},"properties":{"name":"Myanmar"}},
{"type":"Feature","geometry":{"type":"MultiPolygon","coordinates":[[[[92.577,21.977],[92.537,22.129],[92.577,22.168],[92.519,22.496],[92.501,22.56],[92.498,22.695],[92.444,22.763],[92.426,22.871],[92.379,22.901],[92.354,22.96],[92.354,23.029],[92.328,23.171],[92.332,23.227],[92.357,23.289],[92.346,23.359],[92.296,23.446],[92.292,23.495],[92.253,23.609],[92.26,23.706],[92.22,23.708],[92.181,23.666],[92.152,23.732],[92.109,23.718],[92.044,23.646],[92.004,23.647],[91.936,23.723],[91.914,23.651],[91.943,23.534],[91.94,23.495],[91.889,23.436],[91.835,23.414],[91.792,23.369],[91.745,23.273],[91.778,23.132],[91.796,23.09],[91.695,22.989],[91.576,22.969],[91.536,22.982],[91.504,23.045],[91.464,23.185],[91.414,23.249],[91.36,23.247],[91.356,23.18],[91.374,23.095],[91.338,23.072],[91.299,23.143],[91.277,23.303],[91.22,23.479],[91.194,23.495],[91.14,23.612],[91.14,23.74],[91.194,23.755],[91.227,23.826],[91.216,23.909],[91.252,23.965],[91.292,23.995],[91.338,23.995],[91.349,24.075],[91.403,24.103],[91.479,24.088],[91.558,24.09],[91.598,24.105],[91.623,24.203],[91.666,24.156],[91.734,24.164],[91.734,24.235],[91.81,24.215],[91.814,24.183],[91.878,24.157],[91.907,24.26],[91.896,24.319],[91.95,24.375],[92.033,24.368],[92.109,24.406],[92.105,24.495],[92.17,24.574],[92.184,24.647],[92.235,24.777],[92.217,24.875],[92.253,24.904],[92.382,24.836],[92.476,24.863],[92.494,24.895],[92.476,24.937],[92.386,24.995],[92.382,25.024],[92.303,25.074],[92.235,25.084],[92.181,25.127],[92.123,25.137],[92.094,25.165],[92.033,25.182],[91.958,25.17],[91.9,25.177],[91.731,25.167],[91.662,25.127],[91.598,25.128],[91.565,25.16],[91.472,25.133],[91.284,25.179],[91.234,25.203],[91.137,25.191],[90.824,25.142],[90.755,25.167],[90.708,25.154],[90.622,25.172],[90.582,25.162],[90.503,25.169],[90.366,25.15],[90.287,25.181],[90.129,25.211],[89.909,25.297],[89.819,25.285],[89.797,25.339],[89.797,25.404],[89.823,25.49],[89.833,25.635],[89.801,25.724],[89.787,25.839],[89.83,25.908],[89.826,25.966],[89.754,26.032],[89.751,26.084],[89.707,26.155],[89.657,26.16],[89.653,26.222],[89.607,26.211],[89.574,26.16],[89.567,26.099],[89.603,26.055],[89.56,26.022],[89.542,25.959],[89.481,26],[89.351,25.996],[89.315,26.006],[89.236,26.059],[89.214,26.099],[89.131,26.133],[89.103,26.226],[89.07,26.287],[89.045,26.381],[89.009,26.39],[88.941,26.439],[88.89,26.386],[88.912,26.349],[88.966,26.329],[88.98,26.292],[89.034,26.266],[89.02,26.234],[88.948,26.233],[88.901,26.273],[88.854,26.265],[88.807,26.233],[88.782,26.28],[88.703,26.31],[88.71,26.341],[88.667,26.368],[88.656,26.415],[88.581,26.466],[88.505,26.488],[88.462,26.528],[88.397,26.559],[88.372,26.611],[88.332,26.515],[88.343,26.477],[88.433,26.466],[88.476,26.432],[88.498,26.352],[88.426,26.358],[88.35,26.3],[88.336,26.231],[88.307,26.206],[88.221,26.18],[88.163,26.14],[88.141,26.076],[88.159,26.05],[88.105,25.979],[88.073,25.908],[88.087,25.831],[88.127,25.775],[88.228,25.804],[88.26,25.789],[88.321,25.726],[88.419,25.653],[88.422,25.593],[88.476,25.562],[88.53,25.5],[88.595,25.495],[88.645,25.468],[88.707,25.491],[88.782,25.495],[88.815,25.459],[88.8,25.402],[88.843,25.333],[88.901,25.304],[88.977,25.302],[88.984,25.275],[88.937,25.24],[88.926,25.192],[88.897,25.169],[88.807,25.196],[88.786,25.16],[88.663,25.187],[88.591,25.191],[88.559,25.17],[88.476,25.196],[88.44,25.189],[88.426,25.051],[88.375,24.946],[88.314,24.868],[88.242,24.88],[88.203,24.946],[88.116,24.917],[88.141,24.845],[88.077,24.762],[88.023,24.645],[88.084,24.595],[88.084,24.542],[88.109,24.509],[88.401,24.37],[88.476,24.316],[88.635,24.294],[88.66,24.338],[88.739,24.287],[88.75,24.223],[88.732,24.189],[88.678,24.154],[88.678,24.071],[88.725,24.029],[88.703,23.995],[88.714,23.924],[88.667,23.879],[88.577,23.855],[88.552,23.776],[88.563,23.74],[88.541,23.651],[88.563,23.602],[88.609,23.588],[88.663,23.519],[88.721,23.468],[88.768,23.467],[88.717,23.349],[88.685,23.293],[88.71,23.24],[88.775,23.222],[88.822,23.239],[88.926,23.207],[88.955,23.183],[88.865,23.1],[88.851,23.075],[88.843,22.965],[88.894,22.879],[88.948,22.835],[88.937,22.783],[88.908,22.741],[88.951,22.612],[88.951,22.562],[88.998,22.452],[88.991,22.388],[89.02,22.264],[89.063,22.212],[89.077,22.151],[89.059,22.131],[89.056,22.065],[89.092,21.977],[89.077,21.915],[89.106,21.815],[89.153,21.787],[89.182,21.815],[89.221,21.709],[89.211,21.655],[89.286,21.665],[89.272,21.699],[89.293,21.758],[89.283,21.797],[89.322,21.854],[89.365,21.829],[89.369,21.743],[89.394,21.716],[89.466,21.782],[89.463,21.846],[89.513,21.91],[89.52,21.962],[89.488,22.031],[89.517,22.067],[89.477,22.102],[89.491,22.188],[89.538,22.089],[89.524,21.999],[89.553,21.994],[89.578,22.146],[89.607,22.112],[89.571,22.031],[89.567,21.901],[89.527,21.814],[89.538,21.754],[89.668,21.751],[89.661,21.849],[89.725,21.829],[89.815,21.841],[89.887,21.9],[89.844,21.982],[89.848,22.07],[89.873,22.092],[89.862,22.21],[89.837,22.268],[89.88,22.342],[89.873,22.398],[89.92,22.391],[89.877,22.254],[89.902,22.202],[89.916,22.05],[89.934,21.998],[89.967,21.974],[89.995,22.001],[90.053,21.989],[90.024,21.863],[90.165,21.803],[90.219,21.814],[90.284,21.871],[90.309,21.984],[90.334,22.042],[90.395,22.094],[90.438,22.075],[90.489,22.138],[90.5,22.177],[90.557,22.204],[90.615,22.315],[90.615,22.396],[90.586,22.45],[90.59,22.501],[90.561,22.562],[90.507,22.587],[90.51,22.646],[90.478,22.736],[90.388,22.751],[90.424,22.781],[90.456,22.862],[90.536,22.903],[90.467,22.996],[90.453,23.072],[90.572,23.082],[90.6,23.117],[90.597,23.2],[90.608,23.247],[90.568,23.294],[90.503,23.301],[90.428,23.327],[90.406,23.36],[90.258,23.445],[90.518,23.397],[90.554,23.401],[90.579,23.45],[90.575,23.539],[90.557,23.59],[90.597,23.605],[90.59,23.534],[90.604,23.495],[90.6,23.372],[90.669,23.267],[90.64,23.188],[90.626,23.087],[90.64,23.038],[90.719,22.94],[90.77,22.785],[90.82,22.727],[90.834,22.685],[90.878,22.683],[90.91,22.617],[90.957,22.575],[91.04,22.589],[91.126,22.528],[91.202,22.543],[91.241,22.575],[91.263,22.641],[91.198,22.698],[91.317,22.697],[91.367,22.761],[91.41,22.778],[91.432,22.817],[91.515,22.712],[91.547,22.7],[91.677,22.535],[91.745,22.411],[91.77,22.261],[91.81,22.236],[91.828,22.134],[91.857,22.109],[91.922,21.854],[91.907,21.782],[91.961,21.765],[91.95,21.716],[91.976,21.662],[92.037,21.64],[91.99,21.562],[92.004,21.505],[91.954,21.442],[92.044,21.3],[92.051,21.155],[92.098,21.106],[92.134,21.047],[92.188,21.006],[92.21,20.93],[92.278,20.814],[92.3,20.762],[92.336,20.746],[92.307,20.853],[92.271,20.903],[92.256,20.981],[92.264,21.06],[92.224,21.093],[92.174,21.175],[92.184,21.221],[92.184,21.317],[92.213,21.354],[92.235,21.417],[92.285,21.418],[92.321,21.462],[92.368,21.435],[92.39,21.376],[92.465,21.359],[92.523,21.361],[92.57,21.248],[92.634,21.282],[92.642,21.309],[92.602,21.42],[92.591,21.496],[92.577,21.734],[92.595,21.886],[92.577,21.977]]],[[[91.936,21.76],[91.9,21.775],[91.853,21.726],[91.85,21.689],[91.875,21.559],[91.857,21.527],[91.896,21.506],[91.961,21.506],[91.983,21.587],[91.976,21.648],[91.94,21.716],[91.936,21.76]]],[[[91.889,21.866],[91.868,21.932],[91.832,21.876],[91.839,21.825],[91.824,21.743],[91.842,21.736],[91.889,21.866]]],[[[90.593,21.986],[90.525,21.944],[90.564,21.918],[90.608,21.939],[90.593,21.986]]],[[[90.435,22.042],[90.395,21.922],[90.417,21.9],[90.478,21.945],[90.474,22.004],[90.435,22.042]]],[[[91.148,22.357],[91.076,22.389],[91.068,22.241],[91.054,22.175],[91.004,22.118],[91.065,22.091],[91.14,22.146],[91.187,22.227],[91.173,22.32],[91.148,22.357]]],[[[91.468,22.587],[91.425,22.524],[91.428,22.492],[91.475,22.413],[91.554,22.401],[91.558,22.479],[91.468,22.587]]],[[[90.791,22.496],[90.766,22.518],[90.748,22.597],[90.683,22.695],[90.651,22.788],[90.579,22.758],[90.557,22.675],[90.557,22.602],[90.633,22.562],[90.658,22.524],[90.683,22.445],[90.68,22.283],[90.633,22.182],[90.633,22.123],[90.608,22.072],[90.611,22.025],[90.658,21.993],[90.719,22.048],[90.773,22.075],[90.838,22.178],[90.834,22.34],[90.856,22.435],[90.791,22.496]]],[[[90.644,22.849],[90.593,22.882],[90.543,22.881],[90.467,22.852],[90.456,22.768],[90.536,22.729],[90.532,22.769],[90.59,22.813],[90.662,22.805],[90.644,22.849]]],[[[90.669,22.953],[90.586,23.034],[90.561,23.033],[90.507,22.975],[90.525,22.953],[90.59,22.962],[90.626,22.925],[90.669,22.953]]],[[[90.525,23.321],[90.539,23.35],[90.456,23.386],[90.467,23.332],[90.525,23.321]]]]},"properties":{"name":"Bangladesh"}},
{"type":"Feature","geometry":{"type":"Polygon","coordinates":[[[88.12,27.86],[88.03,27.894],[87.965,27.882],[87.936,27.896],[87.825,27.906],[87.781,27.84],[87.727,27.808],[87.619,27.82],[87.573,27.805],[87.533,27.837],[87.385,27.805],[87.335,27.847],[87.292,27.816],[87.234,27.83],[87.155,27.827],[87.115,27.845],[87.007,27.952],[86.914,27.945],[86.842,28.014],[86.741,28.021],[86.719,28.088],[86.662,28.107],[86.611,28.08],[86.543,28.093],[86.496,27.938],[86.439,27.911],[86.363,27.947],[86.327,27.94],[86.277,27.984],[86.205,28.002],[86.172,28.071],[86.187,28.109],[86.154,28.156],[86.068,28.077],[86.079,28.001],[86.115,27.926],[86.075,27.894],[85.981,27.886],[85.953,27.916],[85.956,27.977],[85.909,28.022],[85.891,28.082],[85.848,28.159],[85.733,28.222],[85.675,28.306],[85.611,28.25],[85.542,28.281],[85.477,28.279],[85.431,28.298],[85.344,28.261],[85.301,28.281],[85.243,28.267],[85.175,28.304],[85.11,28.293],[85.081,28.318],[85.078,28.436],[85.157,28.532],[85.168,28.583],[85.056,28.639],[84.955,28.575],[84.919,28.536],[84.801,28.546],[84.736,28.595],[84.678,28.605],[84.682,28.651],[84.606,28.698],[84.451,28.733],[84.423,28.799],[84.354,28.862],[84.286,28.874],[84.235,28.901],[84.207,28.941],[84.232,29.026],[84.174,29.058],[84.167,29.098],[84.131,29.144],[84.156,29.206],[84.113,29.21],[84.091,29.257],[84.034,29.248],[84.012,29.27],[83.933,29.292],[83.793,29.235],[83.721,29.233],[83.674,29.21],[83.656,29.161],[83.584,29.162],[83.515,29.191],[83.505,29.26],[83.436,29.306],[83.357,29.416],[83.328,29.485],[83.263,29.473],[83.245,29.495],[83.253,29.556],[83.163,29.625],[83.101,29.618],[83.08,29.579],[82.975,29.664],[82.9,29.689],[82.835,29.66],[82.752,29.74],[82.691,29.78],[82.687,29.828],[82.619,29.839],[82.543,29.924],[82.475,29.946],[82.396,30.003],[82.32,30.032],[82.255,30.04],[82.212,30.064],[82.144,30.069],[82.126,30.125],[82.155,30.182],[82.097,30.214],[82.083,30.256],[82.093,30.314],[82.072,30.338],[81.967,30.329],[81.942,30.354],[81.845,30.371],[81.78,30.358],[81.615,30.417],[81.481,30.332],[81.427,30.373],[81.388,30.375],[81.37,30.317],[81.377,30.241],[81.352,30.157],[81.276,30.132],[81.273,30.079],[81.226,30.05],[81.219,30.008],[81.147,30.023],[81.096,30.017],[81.021,30.172],[80.995,30.197],[80.92,30.177],[80.884,30.211],[80.837,30.17],[80.83,30.116],[80.769,30.077],[80.725,30.023],[80.643,29.963],[80.571,29.947],[80.549,29.893],[80.477,29.806],[80.369,29.758],[80.355,29.704],[80.387,29.627],[80.329,29.53],[80.214,29.417],[80.279,29.269],[80.257,29.203],[80.214,29.196],[80.221,29.127],[80.131,29.11],[80.113,29.073],[80.099,28.977],[80.034,28.916],[80.038,28.836],[80.113,28.803],[80.146,28.764],[80.218,28.742],[80.29,28.689],[80.329,28.627],[80.409,28.627],[80.47,28.571],[80.499,28.671],[80.556,28.679],[80.563,28.647],[80.65,28.62],[80.679,28.575],[80.743,28.549],[80.797,28.505],[80.873,28.497],[80.887,28.453],[80.988,28.431],[80.999,28.397],[81.147,28.372],[81.19,28.338],[81.226,28.25],[81.283,28.191],[81.309,28.124],[81.359,28.166],[81.395,28.161],[81.449,28.112],[81.474,28.066],[81.582,28.014],[81.615,27.982],[81.69,27.963],[81.751,27.909],[81.856,27.85],[81.885,27.849],[81.975,27.916],[82.05,27.906],[82.09,27.872],[82.151,27.849],[82.27,27.761],[82.349,27.725],[82.403,27.676],[82.439,27.666],[82.525,27.675],[82.651,27.703],[82.698,27.67],[82.731,27.518],[82.752,27.496],[82.875,27.487],[83.011,27.443],[83.134,27.445],[83.22,27.394],[83.249,27.349],[83.307,27.332],[83.343,27.357],[83.371,27.41],[83.353,27.44],[83.386,27.47],[83.479,27.47],[83.591,27.457],[83.663,27.431],[83.854,27.345],[83.879,27.362],[83.843,27.418],[83.854,27.442],[83.922,27.45],[83.976,27.44],[84.03,27.453],[84.081,27.509],[84.167,27.472],[84.185,27.438],[84.239,27.431],[84.289,27.376],[84.577,27.328],[84.606,27.31],[84.649,27.241],[84.66,27.165],[84.621,27.058],[84.639,27.028],[84.761,26.999],[84.819,27.011],[84.901,26.967],[84.952,26.898],[85.017,26.874],[85.045,26.844],[85.121,26.866],[85.161,26.851],[85.164,26.786],[85.197,26.759],[85.287,26.737],[85.337,26.748],[85.387,26.788],[85.42,26.783],[85.6,26.854],[85.686,26.812],[85.708,26.763],[85.701,26.689],[85.711,26.653],[85.83,26.567],[85.935,26.633],[86.01,26.655],[86.122,26.601],[86.187,26.584],[86.284,26.613],[86.316,26.58],[86.352,26.582],[86.496,26.528],[86.557,26.484],[86.712,26.415],[86.737,26.444],[86.795,26.432],[86.845,26.452],[86.874,26.494],[86.971,26.531],[87.029,26.58],[87.065,26.466],[87.105,26.405],[87.133,26.395],[87.22,26.408],[87.245,26.371],[87.328,26.352],[87.357,26.403],[87.418,26.427],[87.479,26.423],[87.587,26.378],[87.681,26.423],[87.742,26.41],[87.771,26.452],[87.821,26.437],[87.853,26.461],[87.897,26.444],[87.929,26.396],[87.976,26.366],[88.008,26.369],[88.073,26.454],[88.102,26.582],[88.145,26.662],[88.17,26.744],[88.152,26.862],[88.098,26.959],[88.044,27.03],[88.008,27.045],[87.969,27.111],[87.987,27.148],[87.99,27.219],[88.03,27.298],[88.015,27.389],[88.041,27.43],[88.023,27.496],[88.109,27.639],[88.159,27.774],[88.156,27.852],[88.12,27.86]]]},"properties":{"name":"Nepal"}},
{"type":"Feature","geometry":{"type":"MultiPolygon","coordinates":[[[[79.718,8],[79.753,8.055],[79.728,8.111],[79.779,8.259],[79.739,8.273],[79.703,8.202],[79.696,8.099],[79.718,8]]],[[[79.829,8],[81.521,8],[81.481,8.065],[81.395,8.136],[81.442,8.173],[81.359,8.496],[81.323,8.516],[81.28,8.467],[81.211,8.472],[81.211,8.573],[81.233,8.651],[81.175,8.698],[81.15,8.778],[81.114,8.8],[81.093,8.852],[81.046,8.882],[80.977,8.98],[80.963,8.945],[80.887,9.026],[80.934,9.033],[80.898,9.117],[80.833,9.239],[80.794,9.251],[80.74,9.301],[80.787,9.313],[80.743,9.36],[80.47,9.582],[80.409,9.617],[80.229,9.83],[80.135,9.815],[79.987,9.823],[79.908,9.769],[79.948,9.693],[80.002,9.674],[80.11,9.609],[80.153,9.603],[80.175,9.649],[80.268,9.61],[80.369,9.531],[80.427,9.5],[80.286,9.453],[80.279,9.494],[80.232,9.534],[80.175,9.548],[80.085,9.595],[80.067,9.578],[80.142,9.534],[80.189,9.49],[80.142,9.43],[80.067,9.404],[80.067,9.333],[80.117,9.306],[80.117,9.234],[80.049,9.026],[79.948,8.948],[79.915,8.938],[79.93,8.884],[79.926,8.801],[79.951,8.741],[79.941,8.643],[79.919,8.58],[79.872,8.538],[79.865,8.462],[79.847,8.438],[79.825,8.266],[79.804,8.229],[79.825,8.136],[79.793,8.074],[79.829,8]]],[[[79.714,9.075],[79.8,9.05],[79.887,8.977],[79.901,8.989],[79.843,9.077],[79.761,9.104],[79.714,9.075]]],[[[79.732,9.5],[79.721,9.524],[79.656,9.544],[79.656,9.504],[79.689,9.484],[79.732,9.5]]],[[[79.897,9.617],[79.973,9.634],[79.89,9.696],[79.894,9.757],[79.861,9.755],[79.84,9.7],[79.897,9.617]]]]},"properties":{"name":"Sri Lanka"}}
]}